facname,addressnum,streetname,address,datasource,uid,grc,grc2,reason_code
COMMUNITY LIFE CENTER 2,,15 MT,15 MT MORRIS PK,acs_daycareheadstart,b78c2862fe1a6f1f80fc657b8f0eca27,EE,EE,3
EPISCOPAL HS - PAULS HOUSE,500,BERGEN STREET,500 BERGEN STREET,acs_daycareheadstart,5ad4e9a30c367c3765ad9d5ed89382f2,EE,EE,5
HAMILTON MADISON HOUSE #4,77,MARKET,77 MARKET,acs_daycareheadstart,4ee3906087cbca8ed21f96aba1d6e467,EE,EE,A
MORNINGSIDE DAY CARE CTR,2967,FREDRICK DOUGLASS,2967 FREDRICK DOUGLASS,acs_daycareheadstart,46b4528af9541af754e547d36c046731,EE,EE,A
NEPTUNE AVENUE HEAD START,293,NEPTUNE,293 NEPTUNE,acs_daycareheadstart,8a8235e67c64bcc4de7fff263e42b2bc,EE,EE,4
ROCHDALE VILLAGE KDG III,,AVENUE BSMT,170-10 130TH AVENUE. BSMT,acs_daycareheadstart,20e3007aa2fdbcc96c806dfdc6586cbf,EE,EE,A
SOUTH JAMAICA CENTER 1,,,114-02 GUY R. BREWER,acs_daycareheadstart,9a2c936585d8f253f3a5d836d5bf9093,16,16,
SUNSET BAY COMMUNITY SER. INC,199,14 TH STREET,199 14 TH STREET,acs_daycareheadstart,3e61e39a436b43d2cabfd8e7d46256d2,EE,EE,3
YWCA - BROWNSVILLE ELC,1592,EAST NEW YORK,1592 EAST NEW YORK,acs_daycareheadstart,1830be6546254faaef8cdde803dae66f,EE,EE,4
,,,,acs_daycareheadstart,b9355a2a3790fbc5295efa063936c267,98,,
"CASINO AUTO BODY, INC",354,BEACH 72 STREET,354 BEACH 72 STREET,dca_operatingbusinesses,50c5e27358ae48808685e5ff1699df69,00,42,
EASTERN TOWING & RECOVERY INC.,38,SOUTH MACQUESTEN PARKWAY,38 SOUTH MACQUESTEN PARKWAY,dca_operatingbusinesses,858e8baa964315151290e6f0fc1ab58d,11,11,
JFK AP LLC,1,JFK INTL AIRPORT BOULEVARD,1 JFK INTL AIRPORT BOULEVARD,dca_operatingbusinesses,727f94d45b99d2e9b58bd4328458e094,EE,EE,A
SP PLUS CORPORATION,95,OCEANA DRIVE EAST,95 OCEANA DRIVE EAST,dca_operatingbusinesses,514753a1e81150f17a22d72346a845db,42,42,
"4HEADS, INC.",1022,PACIFIC STREET,1022 PACIFIC ST,dcla_culturalinstitutions,56e4f9c99115e7c722b7edab80018186,EE,EE,3
AACCAPELLA LIGHT SOUND ORGANIZATION PLUS,851A,PROSPECT AVENUE,851A PROSPECT AVENUE,dcla_culturalinstitutions,e95dd49ca1d8c43a22d9b0e69bdd9f8b,42,42,
"ACADEMY OF BOSNIA AND HERZEGOVINA, INC.",55-23,31 AVENUE,55-23 31ST AVENUE,dcla_culturalinstitutions,b208ee93b55dd1f1b8fdfbb093bb3b9e,EE,EE,2
"ALARM WILL SOUND, INC.",51,WOOSTER STREET,51 WOOSTER STREET,dcla_culturalinstitutions,c1ebedadb9558eb7e5ac492174156cba,EE,EE,A
"ALVIN AILEY DANCE FOUNDATION, INC.",,,THE JOAN WEILL CENTER FOR DANCE,dcla_culturalinstitutions,4bf12a4cd3773347f76b18dddaa64d96,16,16,
AMERICA SCORES NEW YORK,,,AMERICA SCORES NEW YORK,dcla_culturalinstitutions,0bb9b36e600e90d3527598f80e2de7b3,16,16,
AMERICAN LATIN ASSOCIATION OF NEW YORK,14,WEST 170 STREET,14 WEST 170TH ST,dcla_culturalinstitutions,3d627964c139cacaee58ff68a359bee9,11,11,
AMERICAN MUSEUM OF NATURAL HISTORY,,PARK WEST AND 79 STREET,CENTRAL PARK WEST AND 79TH STREET,dcla_culturalinstitutions,79d43158cc252e87d40ef79287a701d8,EE,EE,A
AMERICAN NUMISMATIC SOCIETY,,WEST 155 STREET,BROADWAY 155TH STREET,dcla_culturalinstitutions,dcf662788bce64e6caf909a14ae624a7,13,13,A
"ANNE FRANK CENTER USA, INC.",44,PARK PLACE 100 CHURCH STREET,44 PARK PLACE 100 CHURCH STREET,dcla_culturalinstitutions,774cdc958d2c472188740ec5fffc3ddd,EE,EE,A
"ART CREATES US, INC.",601,WEST 26 STREET,601 WEST 26TH ST,dcla_culturalinstitutions,8ad803334297e14132ca94427ee46fac,11,11,
"ART KIBBUTZ, INC.",500,WEST 235 STREET,500 W 235TH STREET,dcla_culturalinstitutions,0efcfda6964fbf946ed4c2585388482b,11,11,
"ARTBRIDGE PROJECTS, INC.",601,WEST 26 H STREET,601 WEST 26H STREET,dcla_culturalinstitutions,7492588112f40c00b00c814cb979e85e,EE,EE,1
"ARTEEAST, INC.",300,CADMAN PLAZA WEST,300 CADMAN PLAZA WEST,dcla_culturalinstitutions,ff784e6e55b14025b4f157fd22256d1c,EE,EE,3
"ARTISTIC NOISE, INC.",315,FLATBUSH AVENUE,315 FLATBUSH AVE,dcla_culturalinstitutions,1e8cfd86efd54830cd15b91a7dcc17e7,EE,EE,1
ARTS INDONESIA,49,INDIA STREET,49 INDIA ST,dcla_culturalinstitutions,963696838160e4af9e7f6aa4ecd8b027,EE,EE,A
"ASDT, INC. - THE AMERICAN SPANISH DANCE THEATRE",,,C/O LOTUS MUSIC AND DANCE,dcla_culturalinstitutions,e3def7cf7dd504a1fa7d4513038a86e9,16,16,
"ASSOCIATION OF DOMINICAN CLASSICAL ARTISTS, INC.",699,EAST 137 STREET,699 EAST 137 STREET,dcla_culturalinstitutions,279349e4c6992b474a8f6e20f68fb5af,41,41,
ASTORIA PERFORMING ARTS CENTER,,,KAUFMAN ASTORIA STUDIOS,dcla_culturalinstitutions,22b620c6c9a031ffce8ab33517586d40,16,16,
"AT HAND THEATRE COMPANY, INC.",214,WEST 122 STREET,214 WEST 122ND STREET,dcla_culturalinstitutions,7e4cf19413add1929aab3f34942c571e,11,11,
AZURE ENSEMBLE,,,C/O SUSAN GLASER STEINHARDT SCHOOL NYU,dcla_culturalinstitutions,e233adc70d7a715a45e312b8720d58d3,16,16,
"BAJA MUSICAL ARTS INITIATIVE, INC.",601,WEST 26 STREET,601 W 26TH ST,dcla_culturalinstitutions,dd486684af5bf580c475ef40d8f55ada,11,11,
"BALLROOM BASIX USA, INC.",178,EAST 117 STREET,178 E 117TH ST,dcla_culturalinstitutions,714cbf420f0d5a20b68fbc74c1d2a0f1,11,11,
BAM LOCAL DEVELOPMENT CORPORATION,80,HANSEN PLACE,80 HANSEN PLACE,dcla_culturalinstitutions,7507c12e8c66deac9c3dab3293db66f3,EE,EE,6
"BATTERED WOMEN'S SAFE TERRITORY -AN OPPORTUNITY TO PROGRESS, INC.",94,BENTWOOD DRIVE,94 BENTWOOD DRIVE,dcla_culturalinstitutions,eab18d082690eed249871fb6c6304d1e,EE,EE,A
"BIG DANCE THEATER, INC.",303,CLINTON STREET,303 CLINTON STREET,dcla_culturalinstitutions,5c79b5573ce988017c191ebcf39860c0,42,42,
"BLACK MOON THEATRE COMPANY, INC.",104,GREENPOINT AVENUE,104 GREENPOINT AVENUE,dcla_culturalinstitutions,7e3c4269783ce15eacbef895e4d79e0b,EE,EE,A
BOHEMIAN BENEVOLENT AND LITERARY ASSOCATION OF THE CITY OF NEW YORK,,,BOHEMIAN NATIONAL HALL,dcla_culturalinstitutions,cce23915d42d571809cc55612e4d4fba,16,16,
BOUNDLESS THEATRE COMPANY INC.,41-21,42 STREET,41-21 42ND ST,dcla_culturalinstitutions,4214a93e0348d12712fa4ed5889b112c,EE,EE,2
"BOYS' CLUB OF NEW YORK, INC.",287,10 STREET,287 10TH STREET,dcla_culturalinstitutions,4d75c77dc9677640c5de6ef6887bf193,EE,EE,5
BRECHT FORUM,388,ATLANTIC AVENUE,388 ATLANTIC AVENUE,dcla_culturalinstitutions,4f7b9410dbd3677e7cc72d9e424a4452,11,11,
"BRIDGING EDUCATION AND ART TOGETHER, INC.",44-02,23 STREET,44-02 23RD ST,dcla_culturalinstitutions,410bc44ed216cf3aea2b69fbd857780a,11,11,
BRING TO LIGHT,200,EAST 10 STREET,200 EAST 10TH STREET,dcla_culturalinstitutions,26069ae54a93d76f016c2da3b4f47460,42,42,
"BRONX SYMPHONY ORCHESTRA, INC.",,,C/O DENISE ORR,dcla_culturalinstitutions,743df8c48cab30b3c0bd58d3a1bbf89e,16,16,
"CATHOLIC CHARITIES COMMUNITY SERVICES, ARCHDIOCESE OF NEW YORK",1011,FIRST AVENUE,1011 FIRST AVENUE,dcla_culturalinstitutions,6e4cb1a1ad3d3c63a204439aca53f92e,13,13,D
CENTER FOR EDUCATIONAL INNOVATION-PUBLIC EDUCATION ASSOCIATION,28,WEST 44 STREET,28 WEST 44TH STREET,dcla_culturalinstitutions,127cc933f069a517133436fac84e93a8,11,11,
CHAMBERS MEMORIAL BAPTIST CHURCH,219,EAST 123 ROAD STREET,219 EAST 123 RD STREET,dcla_culturalinstitutions,be72937bfe6679e24b4d9d67697ead9d,EE,EE,1
CHANGE FOR KIDS INC,110,EAST 23 STREET,110 EAST 23RD STREET,dcla_culturalinstitutions,ab01df9ede44dab13cc6d1c50940e6a1,11,11,
CHELSEA MUSIC FESTIVAL,,,C/O ROBERT S PERLSTEIN ESQ,dcla_culturalinstitutions,93f36aa10c5cf3541dea624eca2c3736,16,16,
CHILDREN'S ORCHESTRA SOCIETY,65-03,WEST 180 STREET,65-03 180TH STREET,dcla_culturalinstitutions,146b1a9b6ccba3ec90e674f36169cfd6,42,42,
"CHINESE MUSICAL ARTS, INC.",,,C/O XIAOSHAN WEN,dcla_culturalinstitutions,a6588bb309dcaeb98b046e270c3b553d,16,16,
"CIVILIANS, INC.",138,SOUTH OXFORD STREET,138 S OXFORD STREET,dcla_culturalinstitutions,cf99a294473addda7aa8a404218915e6,11,11,
"CLASSICAL THEATRE OF HARLEM, INC.",,,C/O WEWORK HARLEM,dcla_culturalinstitutions,abdb3947fcd3f1d0638e322a83937ba1,16,16,
"COLLECTED OBJECTS, INC.",100,NEWEL STREET,100 NEWEL STREET,dcla_culturalinstitutions,8f084d80b54e9a44e0398337b59efa84,EE,EE,A
COMPLEXIONS - A CONCEPT IN DANCE,,,C/O NMBC,dcla_culturalinstitutions,ee13fe81d14ae923d5501b78dc210d35,16,16,
CONSCIENTIOUS MUSICAL REVUES,2576,BROADWAY,2576 BROADWAY,dcla_culturalinstitutions,e4cb82a5bf451854c4161da4e0685708,42,42,
"CORONA YOUTH MUSIC PROJECT, INC.",155,WEST 68 STREET,155 WEST 68TH STREET,dcla_culturalinstitutions,500b170c40b0339c8c78b8220aecbc3f,11,11,
CULTURAL MUSEUM OF AFRICAN ART - THE ERIC EDWARDS COLLECTION,213,TAAFFE PLACE-SUITE,213 TAAFFE PLACE-SUITE,dcla_culturalinstitutions,a77a2a21bc7234f6b2b861f8da3f4af7,EE,EE,2
CURRAN EVENTS INC,21,FIRST AVENUE,21 FIRST AVENUE,dcla_culturalinstitutions,b82d0c14f437d7e075d8aaa3c80a3f50,42,42,
"DANCE PARADE, INC.",789,WESTMINSTER ROAD,789 WESTMINSTER ROAD,dcla_culturalinstitutions,e12eef0bc4aca30b352abac342ebc37a,EE,EE,A
"DANCE PROJECT SEQUENCE, INC.",37-18,NORTHERN BOULEVARD,37-18 NORTHERN BLVD,dcla_culturalinstitutions,8f597f1f18b87ceebc0bdc4902294eee,EE,EE,A
"DANCING IN THE STREETS, INC.",555,BERGEN AVENUE,555 BERGEN AVENUE,dcla_culturalinstitutions,ec9803501a2b18c18629c2d86fc2116e,EE,EE,A
"DANSPACE PROJECT, INC.",,,ST MARK'S CHURCH,dcla_culturalinstitutions,754ce301f4dfbedb425fd2f7faf15e16,16,16,
"DECONSTRUCTIVE THEATRE PROJECT, INC.",1421,DEKALB AVENUE,1421 DEKALB AVENUE,dcla_culturalinstitutions,1a9cd8baa6ed59d503470f11c05e42e6,EE,EE,2
DIVAS FOR SOCIAL JUSTICE,131-02,229 STREET,131-02 229TH STREET,dcla_culturalinstitutions,9e94b4cc1d79eea2572f6fceb4bc7a61,11,11,
"DOWN TOWN GLEE CLUB, INC.",1494,BOWLING GREEN STATION,POBOX 1494 BOWLING GREEN STATION,dcla_culturalinstitutions,3539d9612fb0db63218230d85a5e414a,EE,EE,4
DRAMA CLUB INC,34-18,NORTHERN BOULEVARD,34-18 NORTHERN BLVD,dcla_culturalinstitutions,9ad84e9d4734bf2b2d6da047da35930a,EE,EE,A
EL MUNDO DEL FLAMENCO NY CENTER FOR FLAMENCO,,,DANCE NEW AMSTERDAM,dcla_culturalinstitutions,810374f1a987ba17dc4084aa63c5b0c1,16,16,
"ELEVATOR REPAIR SERVICE THEATER, INC.",47,GREAT JONES STREET,47 GREAT JONES STREET,dcla_culturalinstitutions,fb0e410055cdf87a2d2cce080308d96d,EE,EE,A
"ENCOMPASS THEATRE COMPANY, INC.",138,SOUTH OXFORD STREET,138 SOUTH OXFORD STREET,dcla_culturalinstitutions,8bf7156d769ee8370b01ef318a08469f,11,11,
"ESOPUS FOUNDATION, LTD.",41,SCHERMERHORN STREET,41 SCHERMERHORN ST,dcla_culturalinstitutions,b99ce18ad86f6edbe26af8bf9dd6cc35,EE,EE,A
"EX.PGIRL, INC.",366,13 STREET,366 13TH STREET,dcla_culturalinstitutions,1893c7524fdd19a167b7ffd42cccf391,EE,EE,4
FGP NYC INC,60-84,70 AVENUE,60-84 70TH AVE,dcla_culturalinstitutions,825e5c2f8ae6ec7525324d5e7086932d,EE,EE,5
"FICTION, INC.",,,DEPT OF ENGL NAC 6TH FLOOR CITY COLLEGE OF NEW YORK,dcla_culturalinstitutions,c19cf9a7496f911df6bb5c053441d39a,16,16,
"FIVE BOROUGHS MUSIC FESTIVAL, INC.",759,PRESIDENT STREET,759 PRESIDENT ST,dcla_culturalinstitutions,0796c8f56ead56fb2ca205321595fc09,EE,EE,A
"FIVE MYLES, INC.",133,WOOSTER STREET,133 WOOSTER STREET,dcla_culturalinstitutions,5ad72096c2b902e3491ac7126127c89c,EE,EE,A
"FLAMENCO LATINO, INC.",84-12,35 AVENUE,84-12 35TH AVENUE,dcla_culturalinstitutions,1c20549459635f36a1a591874e1e7f7f,EE,EE,2
FLEADH FOUNDATION,,,C/O 13 DESIGNS STUDIO,dcla_culturalinstitutions,e195351c7ed128f4ff92b6ac49baafaa,16,16,
"FLUX THEATRE ENSEMBLE, INC.",6776,BOOTH STREET,6776 BOOTH STREET,dcla_culturalinstitutions,d596d712e350817fba69ca5c1dba0725,EE,EE,1
"FRACTURED ATLAS PRODUCTIONS, INC.",232,3 STREET,232 3RD STREET,dcla_culturalinstitutions,fbdc2dea3c153669a487875aa6d8000c,EE,EE,A
"FREE103POINT9, INC.",5662,ROUTE 23,5662 ROUTE 23,dcla_culturalinstitutions,054a31093bc9b668aeaf03a95aced47a,EE,EE,1
"FRESH ART, INC.",,,C/O ST MARGARET'S HOUSE,dcla_culturalinstitutions,0eee520a5856c58e1e474dcf972f03e3,16,16,
"FRESHSTART-CULTURAL THEATRE ARTS PRODUCTIONS, INC.",10,RICHMAN PLAZA,10 RICHMAN PLAZA,dcla_culturalinstitutions,06b71e38896ccf91eb949221d21a0cc1,EE,EE,5
"FRIENDS OF THE CHORAL SOCIETY, INC.",,,C/O JOHN MACLAY,dcla_culturalinstitutions,b16988032451641f0d43d7f24f68fffb,16,16,
GELSEY KIRKLAND ACADEMY OF CLASSICAL BALLET,,,GELSEY KIRKLAND ACADEMY OF CLASSICAL BALLET,dcla_culturalinstitutions,eb723de3f529c5f0a1d4f0a544c9b36e,16,16,
"GUERRILLA SHAKESPEARE PROJECT, INC.",237,9 STREET,237 9TH STREET,dcla_culturalinstitutions,71d932450aeaddbcf37f3f584ff00e9c,EE,EE,4
"HAITI CULTURAL EXCHANGE, INC.",,,C/O FIVE MYLES GALLERY,dcla_culturalinstitutions,235b89a14a31b636543364eca38b9468,16,16,
"HARLEM PRESENTS, INC.",114-73,WEST 178 STREET,114-73 178TH STREET,dcla_culturalinstitutions,318c4538a7ed4344aa54ab1359b2ac08,42,42,
HARLEM-HEIGHTS CULTURAL COUNCIL INC.,,,AUDUBON CENTER COLUMBIA UNIVERSITY,dcla_culturalinstitutions,72faf53cedb9742ad3b689b1d73b8b95,16,16,
"HARLEM9, INC.",1855,ADAM CLAYTON POWEL JR BOULEVARD,1855 ADAM CLAYTON POWEL JR BLVD,dcla_culturalinstitutions,e8f9462951c9d03046fd911a168c29f6,EE,EE,2
"HELL'S KITCHEN, NY CHAPTER OF SPEBSQSA, INC.",,,VOICES OF GOTHAM BARBERSHOP CHORUS,dcla_culturalinstitutions,c742150575276fc58639a5166d94db89,16,16,
"HUMBLE ARTS FOUNDATION, INC.",,,POB 1157,dcla_culturalinstitutions,8109b96a4012b2b4f8c208e80b960ba3,16,16,
HUNGARIAN THEATRE & ART ASSOCIATION INC.,32-22,91 STREET,32-22 91 ST,dcla_culturalinstitutions,32a8a53bdcc8d0dd631c50b959990e47,EE,EE,2
"IL PICCOLO TEATRO DELL'OPERA, INC.",41,SCHERMERHORN STREET,41 SCHERMERHORN STREET,dcla_culturalinstitutions,f2b844ad73a5365601cbeb37d673f59a,EE,EE,A
IMAGINE PROJECT INC,540,OCEAN PARKWAY,540 OCEAN PARKWAY,dcla_culturalinstitutions,8cc74f69c5400362c43f1263fb9c9ec3,11,11,
IMAGINE SCIENCE FILMS,,,NEW LAB BUILDING 128,dcla_culturalinstitutions,8df4f25a38b79871cfa7e2e5c28239ee,16,16,
"IMMIGRANTS' THEATRE PROJECT, INC.",44,DOUGLASS STREET,44 DOUGLASS STREET,dcla_culturalinstitutions,79a46e0c5e23df59241ad5578a03707c,EE,EE,A
"INDEPENDENT MEDIA ARTS PRESERVATION, INC.",,,C/O EAI,dcla_culturalinstitutions,bb482d6813b20463eaddcb0a7d78a722,16,16,
INDYKIDS,,,INDYKIDS,dcla_culturalinstitutions,ba07315a3e600f473712a55d26235eac,16,16,
INSTITUTE FOR PUBLIC ARCHITECTURE,45,EAST 20 STREET,45 E 20TH STREET,dcla_culturalinstitutions,add36194c4a8976ac2301cb95f69b688,EE,EE,1
"INTERNATIONAL AGENCY FOR MINORITY ARTISTS AFFAIRS, INC.",,,ADAM CLAYTON POWELL JR STATE OFFICE BUILDING,dcla_culturalinstitutions,f11a7b1e25ab556fe8779fb860b0df3f,16,16,
"INTERNATIONAL ARTS MOVEMENT, INC.",,,,dcla_culturalinstitutions,d7c1a3f297d68c605bc53f0732c29e68,16,16,
"INTREPID MUSEUM FOUNDATION, INC.",1,INTREPID SQUARE,ONE INTREPID SQUARE,dcla_culturalinstitutions,8bf081cf75c6632902cbd1d7e0b55a33,EE,EE,A
"JACK ARTS, INC.",,,C/O ALEC DUFFY,dcla_culturalinstitutions,885e7215b481299a7a833c79d7078cdd,16,16,
JACKIE ROBINSON PARK CONSERVANCY,,,POBOX 1194,dcla_culturalinstitutions,13502313b5ca2623eb2f61273c7b9ad6,16,16,
"KOREAN AMERICAN HERITAGE FOUNDATION, INC.",163-07,DEPOT ROAD,163-07 DEPOT ROAD,dcla_culturalinstitutions,9fa971ef953c893425162b38e244dd87,EE,EE,5
KOREAN ART FORUM,616,WEST 207 STREET,616 WEST 207TH STREET,dcla_culturalinstitutions,fef4b6e121917ba6652fcf86a2366385,11,11,
"KYO-SHIN-AN ARTS, INC.",44,PROSPECT PARK WEST,44 PROSPECT PARK WEST,dcla_culturalinstitutions,0e75ae463652e5221c5fd006109456f5,EE,EE,1
"LAUNDROMAT PROJECT, INC.",127,WEST 127 STREET,127 WEST 127TH STREET,dcla_culturalinstitutions,61e1b644656d6c6e26cf9e9032e876f2,11,11,
"LEGROS CULTURAL ARTS, INC.",146,WEST 225 STREET,146-28 225 STREET,dcla_culturalinstitutions,fcfed4ee411bb93e010e555e7c8c50ce,01,42,
"LES BALLETS TROCKADERO DE MONTE CARLO, INC.",,,BOX 1325 GRACIE STATION,dcla_culturalinstitutions,dcd60d77795ad34d5bd03c94cd7119ed,16,16,
"LIBERATED MOVEMENT, INC.",87-09,34 AVENUE,87-09 34TH AVE,dcla_culturalinstitutions,4b487af33899c122ba818355ce4c418b,EE,EE,5
"LIGHT OPERA OF NEW YORK, INC.",,,LIGHT OPERA OF NEW YORK,dcla_culturalinstitutions,5615c2b782ee024679e653d62b078e56,16,16,
"LOISAIDA, INC.",300,EAST 175 STREET,300 E 175TH STREET,dcla_culturalinstitutions,7eb038147f812262c42908d8b2391016,11,11,
"MABOU MINES DEVELOPMENT FOUNDATION, INC.",,,PETER STUYVESANT STATION,dcla_culturalinstitutions,a4f2edb6f08dd40332b40fc3fbfcd931,16,16,
MAN UP! INC.,,VAN SICLEN AVENUE,797/799 VAN SICLEN AVENUE,dcla_culturalinstitutions,5c3f2cc5691f564e966a98021c993a3a,13,13,1
MANO A MANO: MEXICAN CULTURE WITHOUT BORDERS,126,ST FELIX STREET,126 ST FELIX STREET,dcla_culturalinstitutions,a9e230cd6f1a287280a2ff1dbdeb2a57,EE,EE,A
MESSENGER THEATRE CORP,617,WEST 190 STREET,617 W 190TH ST,dcla_culturalinstitutions,288058b29663821e059a14494c1fd9de,11,11,
"METROPOLIS ENSEMBLE, INC.",34-33,84 STREET,34-33 84TH STREET,dcla_culturalinstitutions,9faa5b061a6b9abf186edb4ea1d8a9dd,EE,EE,3
"MIGRATING FORMS FESTIVAL, INC",,,COOPER STATION,dcla_culturalinstitutions,382cddda2e8050e0735919de756f5830,16,16,
"MOTHERHOOD FOUNDATION, INC.",401,EAST 84,401 E 84TH,dcla_culturalinstitutions,c6bfa6999e958cbebb5811a91fd8ace0,EE,EE,2
MUSEUM FOR AFRICAN ART,1280,FIFTH AVENUE,1280 FIFTH AVENUE,dcla_culturalinstitutions,1fb34f4ca092f70a5e5ac8c9d29753f6,42,42,
MUSIC FORWARD,72,ORANGE STREET,72 ORANGE STREET,dcla_culturalinstitutions,8c894cf21c7d2275dc2f4b5618b2dbc2,11,11,
"NATIONAL BOOK FOUNDATION, INC.",90,BROAD STREET,90 BROAD STREET,dcla_culturalinstitutions,b00d6b216dc55d6ff674466a331c33d9,EE,EE,A
NATIONAL LIGHTHOUSE MUSEUM,200,PROMENADE AT LIGHTHOUSE POINT,200 PROMENADE AT LIGHTHOUSE POINT,dcla_culturalinstitutions,48d3a8323cae1360375c2058eab96b77,EE,EE,8
NAVATMAN,76-18,266 STREET,76-18 266TH STREET,dcla_culturalinstitutions,c7a7ca6af52bc0446f9edba4d5bf6aff,11,11,
"NEW FESTIVAL, INC.",601,WEST 26 STREET,601 WEST 26TH STREET,dcla_culturalinstitutions,02693e02bd8d94161af5929148c5ed18,11,11,
NEW YORK CLASSICAL PLAYERS,101,LAFAYETTE AVENUE,101 LAFAYETTE AVENUE,dcla_culturalinstitutions,a640b4a373b8a3eb9c783532e43d4291,EE,EE,5
"NEW YORK COMPOSERS CIRCLE, INC.",252,DEKALB AVENUE,252 DEKALB AVENUE,dcla_culturalinstitutions,336ca6e28edb57864f230aa447beb6e8,EE,EE,2
NEW YORK COUNCIL FOR THE HUMANITIES,150,BROADWAY,150 BROADWAY,dcla_culturalinstitutions,74d9ad69d6da5aee94f968efde0c281b,42,42,
"NEW YORK NEW MUSIC ENSEMBLE, INC.",43,MACE STREET,43 MACE STREET,dcla_culturalinstitutions,77bab16e6789df200642ef7fbf9a50c8,EE,EE,A
"NO LONGER EMPTY, INC.",122,WEST 27 STREET,122 WEST 27TH STREET,dcla_culturalinstitutions,5a1eb03bd10f47266bcb4ea6e0c86f6b,11,11,
NORTHERN MANHATTAN ARTS ALLIANCE,,,WORKSPACE,dcla_culturalinstitutions,5314abb2d4fa1327b7f11e17e2211962,16,16,
"NUIT BLANCHE NEW YORK, LLC",200,EAST 10 STREET,200 EAST 10TH ST,dcla_culturalinstitutions,2e2251857035d7a6531c48c384ce823a,42,42,
"NW&D, INC.",,,C/O THE FIELD,dcla_culturalinstitutions,b4caff209b72a359606d943350ef762e,16,16,
"ONE YEAR LEASE, INC.",138,SOUTH OXFORD STREET,138 SOUTH OXFORD STREET,dcla_culturalinstitutions,a9cd624ae29ab680dc1390487e402f26,11,11,
OPERA COMPANY OF BROOKLYN ASSOCIATION,,,BRENDAN MOFFITT,dcla_culturalinstitutions,3dccb4f87260865f0df6c32c2323fc28,16,16,
OTHERS ARE US,121,WEST 72 STREET,121 WEST 72ND STREET,dcla_culturalinstitutions,4c4ca54926efe58d0bf2ecd06854b9d3,11,11,
"PARALLEL EXIT, INC.",175,EASTERN PARKWAY,175 EASTERN PARKWAY,dcla_culturalinstitutions,79037011fd69e98095c3cbffbfbaf2a5,EE,EE,A
PARTIAL COMFORT PRODUCTIONS,26,TOMPKINS PLACE,26 TOMPKINS PLACE,dcla_culturalinstitutions,f14f80bfa25364e8e6c61f265123251a,EE,EE,6
PDM PERFORMING ARTS CORPORATION,219-26,138 ROAD,219-26 138 ROAD,dcla_culturalinstitutions,8c38c5c989482211003e8cf5594cd18c,11,11,
"PECCADILLO THEATER COMPANY, INC.",,,THEATRE AT ST CLEMENT'S,dcla_culturalinstitutions,0bd7f50ded0b1549a35fe745c2c26b99,16,16,
PEOPLE'S URBAN FILMS PUF FOUNDATION INC.,102,DIWIGHT STREET,102 DIWIGHT STREET,dcla_culturalinstitutions,8e6b8116856ed1aef3cf5b13e584525e,11,11,
"PERIAPSIS MUSIC AND DANCE, INC.",523,PROSPECT PLACE,523 PROSPECT PLACE,dcla_culturalinstitutions,6c3b9da4a2f5ea89dc853923431ef9fc,41,41,
PHOTO-BASED ART,,,C/O RHIANNON KUBICKA,dcla_culturalinstitutions,f08d2b9c39dc5e50c9a2d19ca71a35f4,16,16,
"POLYHYMNIA MUSIC FOUNDATION, INC.",,,THE CHURCH OF ST IGNATIUS OF ANTIOCH,dcla_culturalinstitutions,38dad3936d9719077ca1c41c4ef92d55,16,16,
"PRESENT PARIAH, INC.",911,CORTELYOU ROAD,911 CORTELYOU RD,dcla_culturalinstitutions,3a8d714e3261f109992ea570794d3c68,EE,EE,A
PRO MUSICA CORP.,,,1000 RICHMOND TERRACE BUILDING,dcla_culturalinstitutions,6689c5c394558cc93bfcb43b294257b0,16,16,
PRODUCTION TEST FOR R2.0,,,TEST,dcla_culturalinstitutions,9ecd7cfe8697ff89a833790a08515371,16,16,
QTP_GV_9132010111442AM,60,MAIN STREET,60 MAIN STREET,dcla_culturalinstitutions,628e7b308e9102861176126c4b54cefa,42,42,
"QUEENS LESBIAN AND GAY PRIDE COMMITTEE, INC.",,,PRIDE NOT PREJUDICE,dcla_culturalinstitutions,6b37c55b7f1317f438a604643752e9ee,16,16,
QUEENS MUSEUM OF ART,,,NEW YORK CITY BUILDING FLUSHING MEADOWS PARK,dcla_culturalinstitutions,2832913780f29b75ae73e00d50ac8553,16,16,
"RACOCO PRODUCTIONS, INC.",109,NORTH 9 STREET,109 NORTH 9TH STREET,dcla_culturalinstitutions,40f529f2a101d754ddc8640a03f1575b,11,11,
"RANDOM ACCESS MUSIC, LTD.",22-13,37 STREET,22-13 37TH STREET,dcla_culturalinstitutions,b4e8963e0b2e433909dc3071100bab35,11,11,
RED LIGHT CONTEMPORARY MUSIC,171,CLERMONT AVENUE,171 CLERMONT AVE,dcla_culturalinstitutions,a8ad87ad34c1b6ee024a6792daa80453,EE,EE,3
"REEL STORIES TEEN FILMMAKING, INC.",,,C/O CENTER FOR THE URBAN ENVIRONMENT,dcla_culturalinstitutions,4fa50aa19035a02ec4cd533ff45051fe,16,16,
"REGINA OPERA COMPANY, INC.",,,REGINA OPERA COMPANY C/O FRAN GARBER,dcla_culturalinstitutions,2c8a3a335c408712405590a4efc617ba,16,16,
"RINCON CRIOLLO CULTURAL CENTER, INC.",1580,MONROE AVENUE,1580 MONROE AVENUE,dcla_culturalinstitutions,b3aa1d9d157c40f70861de696eda0432,42,42,
"ROOTS&BRANCHES THEATER, INC.",254,WYTHE AVENUE,254 WYTHE AVENUE,dcla_culturalinstitutions,4663a7baf221ed0bfd4e53ffafeeae39,11,11,
"SEARCH AND RESTORE, INC.",332,GATES AVENUE,332 GATES AVENUE,dcla_culturalinstitutions,7af89c35fe4c69292d26e8ee64f1e089,EE,EE,1
"SECOND GENERATION PRODUCTIONS, INC.",80-17,BELL BOULEVARD,80-17 BELL BLVD,dcla_culturalinstitutions,25e5a0c0b0f190410deba7533150729d,EE,EE,A
SERIOUS FUN AFTER SCHOOL INC.,237,LINCOLN AVENUE,237 LINCOLN AVE,dcla_culturalinstitutions,41b664c28b24b3804296d6d77c311a56,EE,EE,A
SIREN - PROTECTORS OF THE RAINFOREST,90,MONROE STREET,90 MONROE STREET,dcla_culturalinstitutions,726f40b4250fc3853a2640e3c33f6a98,42,42,
SMITHSONIAN NATIONAL MUSEUM OF THE AMERICAN INDIAN,232,3 STREET,232 3RD STREET,dcla_culturalinstitutions,02f78672d2e8358aebaa31bc74c2b420,EE,EE,A
ST. MARK'S HISTORIC LANDMARK FUND,232,EAST 11 STREET,232 EAST 11TH STREET,dcla_culturalinstitutions,601b3b31188d360adb2e37fa95d162d1,11,11,
"STAGES OF LEARNING, INC.",,,C/O QTIP,dcla_culturalinstitutions,6a73aa2417ccf7896ef984bc5ee8f75e,16,16,
STATEN ISLAND SHAKESPEAREAN THEATRE CO. INC.,,,C/O DAVID MURPHY TREASURER,dcla_culturalinstitutions,715767fc2a24daa405c042605f183530,16,16,
STEFANIE NELSON DANCE GROUP,468,RIVERSIDE DRIVE,468 RIVERSIDE DRIVE,dcla_culturalinstitutions,d64e0732501ae59106a00b4b0e6be87c,EE,EE,5
TAIWANESE AMERICAN ASSOCIATION OF NEW YORK,137-44,NORTHERN BOULEVARD,137-44 NORTHERN BLVD,dcla_culturalinstitutions,ed38e2167d8c3ee11068880f424b8588,EE,EE,A
"TALEA ENSEMBLE, INC.",37-18,NORTHERN BOULEVARD,37-18 NORTHERN BOULEVARD,dcla_culturalinstitutions,c4dd2558730e5a59b5b33db43fcff26c,EE,EE,A
"TALUJON, INC.",37-56,87 STREET,37-56 87TH STREET,dcla_culturalinstitutions,31cbd45e5c65226656c151430969f0b1,EE,EE,2
"THEATRE OF THE EMERGING AMERICAN MOMENT, INC.",138,SOUTH OXFORD STREET,138 S OXFORD STREET,dcla_culturalinstitutions,11828551bd8be0c34e8a604f92097282,11,11,
"TOGETHER IN DANCE, INC.",195,PLYMOUTH STREET,195 PLYMOUTH STREET,dcla_culturalinstitutions,74f76203588f90c096e096b270f94557,11,11,
TONG XIAO LING CHINESE OPERA ENSEMBLE,30,WEST 95 STREET,30 WEST 95TH STREET,dcla_culturalinstitutions,74855b8c8a369f80337f000ca68322d9,11,11,
TRESTLE GALLERY,,,TRESTLE GALLERY,dcla_culturalinstitutions,dcf2d63f4695bbfa5ecfa62433c7d7a4,16,16,
"TRIPLE CANDIE, INC.",,,C/O BANCROFT/NESBETT,dcla_culturalinstitutions,ec34bfd14fe32be8b4c3488b1edc89fa,16,16,
TRUSTEES OF COLUMBIA UNIVERSITY IN THE CITY OF NEW YORK,,,MILLER THEATRE AT COLUMBIA UNIVERSITY,dcla_culturalinstitutions,044d1904fb5346b3ce5b453b8bbc223c,16,16,
"UDICHI SCHOOL OF PERFORMING ARTS NEW YORK, INC.",65,PIERPONT PLACE,65 PIERPONT PLACE,dcla_culturalinstitutions,7c52536c6fcd1abe184e1fc98eee4a4d,EE,EE,1
"UPBEAT NYC, INC.",287,EAST 19 STREET,287 EAST 19TH STREET,dcla_culturalinstitutions,97731249165c740964e38442e4475cc6,11,11,
"URBAN DIVERS MARINE CONSERVATION & SCIENTIFIC DIVING, INC.",,,C/O UDEC,dcla_culturalinstitutions,f6c6ec9651dd767b75663e2770f3aac8,16,16,
USA MALI CHARITABLE ASSOCIATION,,136 STREET,136TH ST,dcla_culturalinstitutions,cd278dcb506b6372875a423ea2689985,EE,EE,2
"VANGELINE THEATER, INC.",494,COURT STREET,494 COURT STREET,dcla_culturalinstitutions,8327e3d47d7a5b28e352d102bf615dd1,EE,EE,4
"VARIETY BOYS & GIRLS CLUB OF QUEENS, INC.",,,VARIETY BOYS & GIRLS CLUB OF QUEENS,dcla_culturalinstitutions,e55a8f72605e0b6f0b817d6d26af290a,16,16,
"VILLAGE HALLOWEEN PARADE, INC.",,,C/O PETER ROSEGARTEN,dcla_culturalinstitutions,f77872dce322277dd1410b7190aebf64,16,16,
"VISUAL UNDERSTANDING IN EDUCATION, INC",109,SOUTH FIFTH STREET,109 SOUTH FIFTH STREET,dcla_culturalinstitutions,5e6ea1a9ea6240a37b2e9aae69f26cf8,11,11,
"VOICE AND VISION, INC.",520,EIGHT AVENUE,520 EIGHT AVE,dcla_culturalinstitutions,1ba356ac6c58d59e46f0ee9056e92dba,EE,EE,3
WASHINGTON SQUARE CONTEMPORARY MUSIC SOCIETY,,,C/O TALIA JIMENEZ MANAGING DIRECTOR,dcla_culturalinstitutions,8d1b6cdabf8492a3155255f5c294692f,16,16,
"WAXFACTORY, INC.",,,POB 1197,dcla_culturalinstitutions,7aa49c9f2d93b3e6ffbf3d17c0053fa4,16,16,
WIDE EYED PRODUCTIONS,24-50,29 STREET,24-50 29TH ST,dcla_culturalinstitutions,3feef203d4d584a6620bd867f8a9f09a,EE,EE,2
"WORLD MUSIC INSTITUTE, INC.",68,JAY STREET,68 JAY STREET,dcla_culturalinstitutions,8e5cd66c471cd16dbbae0a0b724edcd2,42,42,
"YORK THEATRE COMPANY, INC.",,,THE THEATRE AT ST PETER'S CHURCH,dcla_culturalinstitutions,a430a28c6e0c89600922fac252fce34b,16,16,
"YOUTH ORCHESTRA, CYCNY",175,WILLOUGHBY STREET,175 WILLOUGHBY ST,dcla_culturalinstitutions,a3e6314e20418025dc23d585482bc34a,EE,EE,A
WEILL MEDICAL COLLEGE OF CORNELL UNIVERSITY,478,EAST 1 STREET,478 EAST 1 STREET,dfta_contracts,4dbd9d28c9c7ba9fb13db736966b3176,42,42,
ALL AMERICAN SCHOOL BUS CORP.,,,,doe_busroutesgarages,5395de53606486f3a44275288b21611d,98,,
ALL AMERICAN SCHOOL BUS CORP.,670,HILLSIDE ROAD,670 HILLSIDE ROAD,doe_busroutesgarages,98a8821601ef7d05e46791ed150d87bb,EE,EE,6
BOBBY`S BUS CO. INC.,,,,doe_busroutesgarages,c8207d2020b07e1a3a9c7341961b03da,98,,
"BORO TRANSIT, INC.",1326,RALPH AVENUE,1326 RALPH AVENUE,doe_busroutesgarages,2638daa59aefb6e165c32b43fa435244,00,42,
G.V.C. LTD. (B2192),,,,doe_busroutesgarages,d48772c454964b256e7833cf3cde9c8f,98,,
HOYT TRANSPORTATION CORP.,,,,doe_busroutesgarages,f9bf2103a6b1224558cb916f0b82ff75,98,,
HOYT TRANSPORTATION CORP.,2037,EASTERN P'KWY,2037 EASTERN P'KWY,doe_busroutesgarages,6954f08a8346dbd4fb3044ba1efe41d4,EE,EE,A
JOFAZ TRANSPORTATION INC.,2037,EASTERN P'KWY,2037 EASTERN P'KWY,doe_busroutesgarages,3936421c24e116e2dbac02d57253f6e5,EE,EE,A
L & M BUS CORP (A),,,,doe_busroutesgarages,4d51eb1a59420a3d362a5fc5e3b07526,98,,
LEESEL TRANSPORTATION CORP (B2192),,,,doe_busroutesgarages,6bfb01f71c4c32ca60e8da4f96a66d6c,98,,
MAR-CAN TRANSPORT CO. INC (B2192),6,CANAL ROAD,6 CANAL ROAD,doe_busroutesgarages,5b606859fa67b87e988a6d8c60efd2c8,EE,EE,5
"MONTAUK STUDENT TRANS, INC. (B2321)",670,HILLSIDE ROAD,670 HILLSIDE ROAD,doe_busroutesgarages,47cfeba13abb3a8415490a93ada5b10f,EE,EE,6
"NEW DAWN TRANSIT, LLC (B2321)",,,,doe_busroutesgarages,3ca5606b51526c14b4d7afab59dea6b9,98,,
PIONEER TRANSPORTATION CORP,257,CANAL ROAD,257 CANAL ROAD,doe_busroutesgarages,dc19c56304ca70e50a66f45328518a24,EE,EE,5
PRIDE TRANSPORTATION (SCH AGE),,,,doe_busroutesgarages,04b42274d29e4d5c052a5948b00ca2c8,98,,
QUALITY TRANSPORTATION CORP.,,,,doe_busroutesgarages,7a1604978ad7a538a1fd30602356f3f2,98,,
SAFE COACH INC. (B2321),,,,doe_busroutesgarages,1572b92543eea6c09ed5baa8fb7fa9f7,98,,
"THIRD AVENUE TRANSIT, INC",2037,EASTERN P'KWY,2037 EASTERN P'KWY,doe_busroutesgarages,cfd4074318f47189cfe6cf27166f9cbc,EE,EE,A
VAN TRANS LLC (B2192),600,HEMPSTEAD TURNPIKE,600 HEMPSTEAD TURNPIKE,doe_busroutesgarages,65b23e51105689aa7cd86dc0cb496feb,EE,EE,3
VAN TRANS LLC (B2192),670,HILLSIDE ROAD,670 HILLSIDE ROAD,doe_busroutesgarages,c4e7895c63c5411d8b00ce4c5423bf65,EE,EE,6
VINNY`S BUS SERVICES (B2321),,,,doe_busroutesgarages,9be0fec9d16cd15f5e07dc800fe19ba4,98,,
Y & M TRANSIT CORP (B2192),22,BAY STREET,22 BAY STREET,doe_busroutesgarages,bf2f71a7a7b0e6bc90676da37b2c9da2,00,42,
"ABC KIDDIELAND, INC.",65-21A,ROOSEVELT AVENUE,65-21A ROOSEVELT AVENUE,doe_universalprek,079d7f2285386c711cc94c2109ddfadc,00,42,
"BETH GAVRIEL DCC, INC.",,119-03 80 ROAD,119-03 80 ROAD,doe_universalprek,9cfda94fe55e8abd9aaf9bea3cfe0ba5,11,11,
BUSHWICK UNITED HDFC 9,803,,803 KNICKERBOCKER AVENUE,doe_universalprek,0f8e94f71ef9507584b1c67142d407d5,17,17,
IMAGINE EARLY LEARNING CENTER,,,1 JAMAICA CENTER PLAZA,doe_universalprek,23e4a56163c8814aad89191f36323296,16,16,
MOSAIC PRE-K CENTER AT 55-41 98 PLACE,55-41,98 PLACE,55-41 98 PLACE,doe_universalprek,91143d32418208d7d428b9e88a3c7e49,00,42,
P.S. 11 THOMAS DONGAN SCHOOL,50,JEFFERSON STREET,50 JEFFERSON STREET,doe_universalprek,b5d750afbdc87546019021b4f72f0e1d,00,42,
P.S. 159 ISAAC PITKIN,2781,,2781 PITKIN AVENUE,doe_universalprek,05172afe9783f793b832dc71ac526d1c,17,17,
P.S. 65 THE ACADEMY OF INNOVATIVE LEARNING,98,GRANT STREET,98 GRANT STREET,doe_universalprek,01760cdf2f1735bf5a7c0e19dae9a04d,00,42,
"SUNSHINE LEARNING CENTER, INC.",201,02-04 LINDEN BOULEVARD,201 02-04 LINDEN BOULEVARD,doe_universalprek,3e606f00436fea22f12d20ed12dec763,11,11,
"TOWERS PLAY-N-LEARN, INC.",60-10A,47 AVENUE,60-10A 47 AVENUE,doe_universalprek,bbcf79dc58e8927e14cb5241467dacec,00,42,
URBAN CONCEPTS/ROUND THE CLOCK,3333,BROADWAY,3333 BROADWAY,doe_universalprek,5592690c97f78f52b1ef286d31850b52,56,01,8
"YELED V'YALDA ECC, INC.",,50 STREET,1349/53 50 STREET,doe_universalprek,3c4c8d938f88ecb33c33b4cc2a3cd417,13,13,1
YESHIVA OF CENTRAL QUEENS,,147-37 70 ROAD,147-37 70 ROAD,doe_universalprek,87da436517347c4cd4556db4f7228085,11,11,
"ALLCARE PROVIDER SERVICES, INC.",100A,ALDRICH STREET,100A ALDRICH STREET,dohmh_daycare,d64bc6261b65b161339a0f87ea18bbf1,00,42,
C.A.M.P. CREATIVE ART AND MUSIC PROGRAMS,361,MANHATTAN AVENUE UNIT L,361 MANHATTAN AVENUE UNIT L,dohmh_daycare,a4296e85c94e934a43be3ab0578f625c,EE,EE,A
CAMP HARLEM GROWN,127,WEST 127 STREET SUITE 201,127 WEST 127 STREET SUITE 201,dohmh_daycare,edc3872f321db2b8a29742a028a6473d,EE,EE,1
CAMP KIDSMART,0,HEINZELMAN ROAD T-149,0 HEINZELMAN ROAD T-149,dohmh_daycare,fc4d08168eadd4148e372aac82c119cd,EE,EE,2
CENTER FOR FAMILY LIFE BEACON PROGRAM,343,60 STREET,343 60 STREET,dohmh_daycare,059696d0b37d23bf6bcc839b8798d505,00,42,
CHINESE AMERICAN PLANNING COUNCIL INC.,21,ST. JOHN'S LANE (AKA 1 YORK ST),21 ST. JOHN'S LANE (AKA 1 YORK ST),dohmh_daycare,80726c4997a14ac07244f001a2b2007d,15,15,
CHINESE-AMERICAN PLANNING COUNCIL INC.,125,WALKER STREET 3 FLOOR,125 WALKER STREET 3 FLOOR,dohmh_daycare,629b00d226b69a7601019f0dfbfc720a,EE,EE,A
CUNNINGHAM PARK DAY CAMP,196-10,UNION TURNPIKE NULL LEWIS BLVD,196-10 UNION TURNPIKE NULL LEWIS BLVD,dohmh_daycare,153d7bfb91b2425badb0453fe77d1ffe,EE,EE,A
EARTH CAMP,1000,RICHMOND TERRACE BUILDING A,1000 RICHMOND TERRACE BUILDING A,dohmh_daycare,e8df83126d1ab775e4d24253bd316165,EE,EE,A
GRYC OST P.S. 128 SUMMER CAMP,,DRIVE,69-10 65 DRIVE,dohmh_daycare,927a1d4590d5e791d350450b94bf87e6,EE,EE,1
KISSENA PARK DAY CAMP,143-30,ROSE AVENUE,143-30 ROSE AVENUE,dohmh_daycare,bf0f83935362fb80d6da5dd4237cd304,00,42,
MY LITTLE SCHOOL,291,BROADWAY (ENTRANCE 54 READE STRE,291 BROADWAY (ENTRANCE 54 READE STRE,dohmh_daycare,fd030fb86a1489b7e35dfe2e6abebda1,15,15,
"NYC EARLY LEARNING COMPANY, INC",780,ST ANN AVENUE,780 ST ANN AVENUE,dohmh_daycare,11858990c7eaa18e78864e3ef0a95173,EE,EE,A
"ODYSSEY HOUSE, INC",13,HELL GATE CIRCLE BUILDING 13,13 HELL GATE CIRCLE BUILDING 13,dohmh_daycare,7c1cd9ec6258de18a2e3559f644851a0,EE,EE,A
OIKOS COMMUNITY CORPORATION,42-35,MAIN STREET 2/FLOOR,42-35 MAIN STREET 2/FLOOR,dohmh_daycare,92639edd2d8ba51e02ba604c2b82eabf,EE,EE,2
REACH ONE TO TEACH ONE,5480,BROADWAY AVENUE,5480 BROADWAY AVENUE,dohmh_daycare,574343c79ba31dc0b53d57c5117be219,EE,EE,A
SAINT LUKE'S SCHOOL,16-01,150 STREET,16-01 150 STREET,dohmh_daycare,6b69b8a97959351e18df55626e93e15d,00,42,
TEACHERS COLLEGE,525,WEST 120 STREET BOX 98,525 WEST 120 STREET BOX 98,dohmh_daycare,7ae6534a93e1f24c58154d30df31e888,EE,EE,1
"TEACHERS COLLEGE, COLUMBIA UNIVERSITY",525,WEST 120 STREET BOX 98,525 WEST 120 STREET BOX 98,dohmh_daycare,f3d7220667522f5ac2aae4af0b2f457d,EE,EE,1
THE BRONX CHARTER SCHOOL FOR BETTER LEARNING,3740,BAYCHESTER AVENUE ANNEX,3740 BAYCHESTER AVENUE ANNEX,dohmh_daycare,3ee648af2605467376fb043a4cf684b8,EE,EE,A
THE ROCKEFELLER UNIVERSITY,1230,YORK AVENUE 10065,1230 YORK AVENUE 10065,dohmh_daycare,2c807a9fa8738655be674b5fcb823d7b,EE,EE,3
THE SHUANG WEN ACADEMY NETWORK (SWAN),90-92,BOWERY STREET,90-92 BOWERY STREET,dohmh_daycare,46239774550baee049ca07526e06ff36,EE,EE,4
UAU @ IS 24,225,CLEVELAND AVENUE,225 CLEVELAND AVENUE,dohmh_daycare,3f290f076bd8e9e04dd7b9757e883ab8,00,42,
WILLIAMSBRIDGE OVAL,,BAINBRIDGE AVENUE,,dohmh_daycare,b3546ae7661a17faeef5b4ca75e24176,13,13,B
AIDS CENTER OF QUEENS COUNTY JAMAICA SITE,,,,dycd_afterschoolprograms,c3e9a86264639d09562039abcf495c61,16,16,
ALI FORNEY CENTER,,,,dycd_afterschoolprograms,fcea45559bea936903090500359a1e41,16,16,
BUILDING T 149,,,,dycd_afterschoolprograms,5c3b3ed5ed9cef76e0f5a329d9cb406f,16,16,
"GIRLS EDUCATIONAL & MENTORING SERVICES, INC.",,,,dycd_afterschoolprograms,65dde469cad248cc511e55b82e0fb166,16,16,
GOOD SHEPHERD SERVICES,,,,dycd_afterschoolprograms,c74ad0e12a19fd5d7510dd60765968e0,16,16,
GREEN CHIMNEYS,,,,dycd_afterschoolprograms,b59300c76316bd7f80f863ed637b989a,16,16,
INTERMEDIATE SCHOOL 217 - RAFAEL HERNANDEZ SCHOOL,,,,dycd_afterschoolprograms,b9072e30878542a21b12e342576253bf,16,16,
INWOOD HOUSE,,,,dycd_afterschoolprograms,8059ba649868cfdaa161ff05e7a880a5,16,16,
IS 49,,,,dycd_afterschoolprograms,39a4d1b40c2c91629ff0ea200626f998,16,16,
JEWISH BOARD OF FAMILY AND CHILDREN SERVICES (JBFCS)-GENESIS,,,,dycd_afterschoolprograms,79633f87a32d898746d86bf00a84ebcc,16,16,
JEWISH BOARD OF FAMILY AND CHILDREN SERVICES - HORIZONS,,,,dycd_afterschoolprograms,5308f78448a7bb983d15efc8df5eafce,16,16,
K 533- SCHOOL FOR DEMOCRACY AND LEADERSHIP 600 KINGSTON AVENUE,,,,dycd_afterschoolprograms,a4179dcd90e304c266f9f4bc95ff0f94,16,16,
RACHEL'S PLACE,,,,dycd_afterschoolprograms,f6959c213cfbcbed5848bc2285bf8d92,16,16,
SAFE HORIZON - IMMIGRATION LAW PROJECT,,,,dycd_afterschoolprograms,d9ed8e494b2cbbac86ef4cee99710f8f,98,,
"SAFE SPACE NYC, INC",,,,dycd_afterschoolprograms,d4beecfff712dd74c1c66d111d09c393,16,16,
SCO FAMILY OF SERVICES,,,,dycd_afterschoolprograms,ac5403bcb28875ba6d814bee9cb8dde4,16,16,
SCO FAMILY OF SERVICES IV,,,,dycd_afterschoolprograms,4b98026a31f89df54607cfa3404d28fc,16,16,
VOYAGEES PREPATORY HIGH SCHOOL,,,,dycd_afterschoolprograms,f3e9b7458cd6e9250631589685ff586c,16,16,
CENTRAL INTAKE,132W,125 STREET,132W 125TH STREET,hra_centers,db498c0e7eec5c4933d3abc4b7bc93fc,EE,EE,3
EAST RIVER JOB CENTER,1,HONEYWELL STREET,1 HONEYWELL ST,hra_centers,86e896cc4caf30252c452cca2b11bd2b,13,13,G
ACMH INC NON-MEDICAID CARE COORDINATION (OMH),,,NO ADDRESS,moeo_socialservicesiteloactions,e397a256333c25260672c127aa7cf910,16,16,
ACMH INC SUPPORTED HOUSING,,,NO ADDRESS,moeo_socialservicesiteloactions,41ff7fe12ef34c62f0d6b4ad5d846e21,16,16,
AFTER HOURS PROJECT HIV TESTING SERVICES: PRIORITY POPULATIONS TESTING IN NON-CLINICAL SETTINGS,213,JOHNSON STREET,213 JOHNSON STREET,moeo_socialservicesiteloactions,ea3b9649a71ff191a97b1c60a12dc209,42,42,
AIDS CENTER OF QUEENS COUNTY INC EARLY INTERVENTION SERVICES: PRIORITY POPULATIONS TESTING IN NON-CLINICAL SETTINGS,94,JUNCTION BOULEVARD,94 JUNCTION BOULEVARD,moeo_socialservicesiteloactions,cefe76fa445fa44f9cbcb7f01d6afd13,13,13,G
AIDS CENTER OF QUEENS COUNTY INC EARLY INTERVENTION SERVICES: PRIORITY POPULATIONS TESTING IN NON-CLINICAL SETTINGS,103,CORONA AVENUE,103 CORONA AVENUE,moeo_socialservicesiteloactions,8078121c30539922ff9289376e072961,42,42,
AIDS CENTER OF QUEENS COUNTY INC EARLY INTERVENTION SERVICES: PRIORITY POPULATIONS TESTING IN NON-CLINICAL SETTINGS,69,WOODSIDE AVENUE,69 WOODSIDE AVENUE,moeo_socialservicesiteloactions,d8acbca80ce3e430a7a0be5746257264,13,13,G
AIDS CENTER OF QUEENS COUNTY INC EARLY INTERVENTION SERVICES: PRIORITY POPULATIONS TESTING IN NON-CLINICAL SETTINGS,76,ROOSEVELT AVENUE,76 ROOSEVELT AVENUE,moeo_socialservicesiteloactions,f4c0755bb89fe8e46c028fd9351c3b4c,13,13,G
AIDS CENTER OF QUEENS COUNTY INC NON-MEDICAL CASE MANAGEMENT GENERAL,161,JAMAICA AVENUE,161 JAMAICA AVENUE,moeo_socialservicesiteloactions,10ca912537dbe432a10539034747d0d4,42,42,
AIDS CENTER OF QUEENS COUNTY INC SUPPORTIVE COUNSELING & FAMILY STABILIZATION SERVICES - SEP,,,NO ADDRESS,moeo_socialservicesiteloactions,9252f829223daf8b2ec510d8cc0372eb,16,16,
ASSOCIATION TO BENEFIT CHILDREN CRISIS INTERVENTION,,,NO ADDRESS,moeo_socialservicesiteloactions,7bdcde39668d9da08ca41841bb265b08,16,16,
ASSOCIATION TO BENEFIT CHILDREN SCHOOL,,,NO ADDRESS,moeo_socialservicesiteloactions,73209bd9fb650d7c27d69c3455c17017,16,16,
ASTOR SERVICES FOR CHILDREN AND FAMILIES NON-MEDICAID CARE COORDINATION; (NON-LICENSED PROGRAM),,,NO ADDRESS,moeo_socialservicesiteloactions,1d62c5df328f0d6c4152274a7d1479c7,16,16,
ASTOR SERVICES FOR CHILDREN AND FAMILIES SCHOOL,,,NO ADDRESS,moeo_socialservicesiteloactions,646b0fa61056f178f0c4e971fb17ea4d,16,16,
BALTIC STREET AEH INC NON-MEDICAID CARE COORDINATION; (NON-LICENSED PROGRAM),,,NO ADDRESS,moeo_socialservicesiteloactions,c8ff32ac7d78063f8c44d8975f730b69,16,16,
BALTIC STREET AEH INC RECOVERY CENTER,,,NO ADDRESS,moeo_socialservicesiteloactions,1e6c51fb9a19eb4143f0e7be554965b5,16,16,
BALTIC STREET AEH INC SELF-HELP,,,NO ADDRESS,moeo_socialservicesiteloactions,542931ee15fd18dab372526d8f607c62,16,16,
BETH ISRAEL MEDICAL CENTER ASSERTIVE COMMUNITY TREATMENT,,,NO ADDRESS,moeo_socialservicesiteloactions,0e3a72e984a29572c145935ab96ef52c,16,16,
BETH ISRAEL MEDICAL CENTER CPEP CRISIS OUTREACH,,,NO ADDRESS,moeo_socialservicesiteloactions,8a914242385b33939733d2d92d71304c,16,16,
BOOM!HEALTH HIV TESTING SERVICES: PRIORITY POPULATIONS TESTING IN NON-CLINICAL SETTINGS,115,HENWOOD AVENUE,115 HENWOOD AVENUE,moeo_socialservicesiteloactions,31279f7895b1300fa08d89a045882b5f,EE,EE,A
BOOM!HEALTH HIV TESTING SERVICES: PRIORITY POPULATIONS TESTING IN NON-CLINICAL SETTINGS,170,3 AVENUE,170 3 AVENUE,moeo_socialservicesiteloactions,8c94c70d55d974d9dd4570a9a83ba111,42,42,
BOOM!HEALTH HIV TESTING SERVICES: PRIORITY POPULATIONS TESTING IN NON-CLINICAL SETTINGS,163,SOUTHERN BOULEVARD,163 SOUTHERN BOULEVARD,moeo_socialservicesiteloactions,76e575d8babcee22ed144a72dee852c3,42,42,
BOWERY RESIDENTS' COMMITTEE INC NON-MEDICAID CARE COORDINATION (OMH),,,NO ADDRESS,moeo_socialservicesiteloactions,ddbf2bd0562219a9c9eab8b81198e0b9,16,16,
BOWERY RESIDENTS' COMMITTEE INC NY NY III SUPPORTED HOUSING,,,NO ADDRESS,moeo_socialservicesiteloactions,6060c1550bf3004aba08153554de6013,16,16,
BREAKING GROUND HOUSING DEVELOPMENT FUND CORPORATION NY NY III SUPPORTED HOUSING,,,NO ADDRESS,moeo_socialservicesiteloactions,baa3f0bfaf38ec78b41d71e8a6e1e47f,98,,
BREAKING GROUND HOUSING DEVELOPMENT FUND CORPORATION SUPPORTED HOUSING,,,NO ADDRESS,moeo_socialservicesiteloactions,b46d3f6e794279d25ebb23f4b655e2fc,16,16,
BRIDGING ACCESS TO CARE INC EARLY INTERVENTION SERVICES: SOCIAL NETWORK STRATEGY TESTING IN NON-CLINICAL SETTINGS,,,NO ADDRESS,moeo_socialservicesiteloactions,0ab02285d6dd3f25c458eae8f77ea654,16,16,
BRIDGING ACCESS TO CARE INC HARM REDUCTION SERVICES,,,NO ADDRESS,moeo_socialservicesiteloactions,f4b366707158a9ca254f54e8191e8f03,16,16,
BRONX-LEBANON HOSPITAL CENTER NON-MEDICAID CARE COORDINATION (OMH),,,NO ADDRESS,moeo_socialservicesiteloactions,9708fc4b6623fa76ee5c14c12d0416b2,16,16,
BRONXWORKS INC HARM REDUCTION SERVICES,85,BURNSIDE AVENUE,85 BURNSIDE AVENUE,moeo_socialservicesiteloactions,4cb4c31bd5792b5753096dd07722500d,EE,EE,7
BROOKDALE UNIVERSITY HOSPITAL AND MEDICAL CENTER CPEP CRISIS OUTREACH,,,NO ADDRESS,moeo_socialservicesiteloactions,e3d2ded8e9e4a7ea44e780400f2da165,16,16,
BROOKLYN COMMUNITY SERVICES/BROOKLYN BUREAU OF COMMUNITY SERVICE PREVENTIVE SERVICES,1491,BROADWAY STREET,1491 BROADWAY STREET,moeo_socialservicesiteloactions,852b3df9ed41d6cd2f3e33ac9e5b61bf,EE,EE,A
CAMBA INC NY NY III SUPPORTED HOUSING,,,NO ADDRESS,moeo_socialservicesiteloactions,2473d706b40fcc47775c7732aa36d17c,16,16,
CAMBA INC PREVENTIVE SERVICES,444,THOMAS BOYLAND AVENUE,444 THOMAS BOYLAND AVENUE,moeo_socialservicesiteloactions,8ad3323ad6545ddb7a9c8591f55c7786,EE,EE,9
CAMBA INC SUPPORTED HOUSING,,,NO ADDRESS,moeo_socialservicesiteloactions,0b60a052fba0b20e876953fdbeadbc53,16,16,
CARE FOR THE HOMELESS HIV TESTING SERVICES: PRIORITY POPULATIONS TESTING IN NON-CLINICAL SETTINGS,,JEROME AVENUE,19-11-21 JEROME AVENUE,moeo_socialservicesiteloactions,ed611d0dce26a269c437404bf2ca1652,13,13,3
CARE FOR THE HOMELESS HIV TESTING SERVICES: PRIORITY POPULATIONS TESTING IN NON-CLINICAL SETTINGS,1143,ANDREWS AVENUE,1143 ANDREWS AVENUE,moeo_socialservicesiteloactions,40b6e60906cb75f14664b728854f2cba,42,42,
CATHOLIC CHARITIES NEIGHBORHOOD SERVICES INC HOMEBASE HOMELESSNESS PREVENTION,,,NO ADDRESS,moeo_socialservicesiteloactions,d9bb4c07e61a10fe5ec753bef8ca55fc,16,16,
CATHOLIC CHARITIES NEIGHBORHOOD SERVICES INC NON-MEDICAID CARE COORDINATION (OMH),,,NO ADDRESS,moeo_socialservicesiteloactions,83900ce133303b0edcaac634af901d38,16,16,
CATHOLIC CHARITIES NEIGHBORHOOD SERVICES INC OUTREACH,,,NO ADDRESS,moeo_socialservicesiteloactions,090d5bda38f4ca964aaaabc7d3a79cb8,16,16,
CATHOLIC CHARITIES NEIGHBORHOOD SERVICES INC SUPPORTED HOUSING,,,NO ADDRESS,moeo_socialservicesiteloactions,27f563d40da4ee3b5220561f7a8cd4a2,16,16,
CATHOLIC GUARDIAN SERVICES / FORMERLY CATHOLIC GUARDIAN SOCIETY AND HOME BUREAU FOSTER CARE,3356,FORT INDEPENDENCE AVENUE,3356 FORT INDEPENDENCE AVENUE,moeo_socialservicesiteloactions,08793b74ebe0a91ac20880d80f571978,EE,EE,A
CENTER FOR ALTERNATIVE SENTENCING EMPLOYMENT SERVICES INC ASSERTIVE COMMUNITY TREATMENT,,,NO ADDRESS,moeo_socialservicesiteloactions,d7fb29f977debae64eecaa121ea2c309,16,16,
CENTER FOR URBAN COMMUNITY SERVICES INC ASSERTIVE COMMUNITY TREATMENT,,,NO ADDRESS,moeo_socialservicesiteloactions,9faae645f729b74308a887c9dfe0f67f,16,16,
CENTER FOR URBAN COMMUNITY SERVICES INC OUTREACH,,,NO ADDRESS,moeo_socialservicesiteloactions,2cf2a7e4759ea6083edf6ce394088365,16,16,
COMMUNITY ACCESS INC RECOVERY CENTER,,,NO ADDRESS,moeo_socialservicesiteloactions,e4cf58c5ed6e38c64dc3ba8e23570455,16,16,
COMMUNITY ASSOCIATION OF PROGRESSIVE DOMINICANS INC SCHOOL,,,NO ADDRESS,moeo_socialservicesiteloactions,9464eb46a0b42ad7a6b24fc42c6158bc,16,16,
COMMUNITY HEALTH PROJECT INC REPRODUCTIVE AND SEXUAL HEALTH SERVICES,,,NO ADDRESS,moeo_socialservicesiteloactions,6f07f284a5ffa58f219355d40102b586,16,16,
COMMUNITY HEALTHCARE NETWORK INC HIV TESTING SERVICES: SOCIAL NETWORK STRATEGY TESTING IN NON-CLINICAL SETTINGS,,,NO ADDRESS,moeo_socialservicesiteloactions,7a0d19fd27e1c94e0b362213400b171f,16,16,
EPISCOPAL HEALTH SERVICES INC HOME BASED CRISIS INTERVENTION,,,NO ADDRESS,moeo_socialservicesiteloactions,42692ce7f67a2c689f8dab3964703d5d,16,16,
FEDERATION OF ORGANIZATIONS FOR THE NEW YORK STATE MENTALLY DISABLED INC ASSERTIVE COMMUNITY TREATMENT,,,NO ADDRESS,moeo_socialservicesiteloactions,39e3c7cad5f6a8b7a7aea36fe5a8a8a3,16,16,
FEDERATION OF ORGANIZATIONS FOR THE NEW YORK STATE MENTALLY DISABLED INC NON-MEDICAID CARE COORDINATION (OMH),,,NO ADDRESS,moeo_socialservicesiteloactions,b5f6827e6ad3facb2b0cf4749534d19e,16,16,
FEDERATION OF ORGANIZATIONS FOR THE NEW YORK STATE MENTALLY DISABLED INC SELF-HELP,,,NO ADDRESS,moeo_socialservicesiteloactions,4d1bdd9dc56fcfa4ae914c770eb04092,16,16,
GAY MEN'S HEALTH CRISIS INC HARM REDUCTION SERVICES,,,NO ADDRESS,moeo_socialservicesiteloactions,57f0f351673fea4d151e765bf6c54649,16,16,
GEEL COMMUNITY SERVICES INC SUPPORTED HOUSING,,,NO ADDRESS,moeo_socialservicesiteloactions,0d005675eced929fbf631528ca58c3ee,16,16,
GODDARD RIVERSIDE COMMUNITY CENTER ASSERTIVE COMMUNITY TREATMENT,,,NO ADDRESS,moeo_socialservicesiteloactions,65c1a71baf050a99fbe68b3390743d28,16,16,
GOOD SHEPHERD SERVICES PREVENTIVE SERVICES,503,5 AVENUE,503 5 AVENUE,moeo_socialservicesiteloactions,7fe4feb660bdefc404d5b9b06e4fe6e7,13,13,D
GOOD SHEPHERD SERVICES PREVENTIVE SERVICES,173,CONOVER STREET,173 CONOVER STREET,moeo_socialservicesiteloactions,0a7d9d4af8c8e3068c5396530afaa03d,EE,EE,A
GOOD SHEPHERD SERVICES PREVENTIVE SERVICES,441,4 AVENUE,441 4 AVENUE,moeo_socialservicesiteloactions,50594bc682c650db6d47b0cca13728b9,42,42,
GOTHAM PER DIEM INC EARLY INTERVENTION RESPITE CARE - DEVELOPMENTAL DISABILITIES,,,NO ADDRESS,moeo_socialservicesiteloactions,3f856d9dd995196097cb9b6eead41dc0,98,,
GRAHAM WINDHAM FOSTER CARE,,,,moeo_socialservicesiteloactions,354a1ad10758790a2eb5917f657671d2,16,16,
HARLEM UNITED: COMMUNITY AIDS CENTER INC COMMUNITY-LEVEL INTERVENTIONS FOR HIV PREVENTION,,,NO ADDRESS,moeo_socialservicesiteloactions,31070dd116a403f3cb4b72a74ed897d9,16,16,
HARLEM UNITED: COMMUNITY AIDS CENTER INC FOOD AND NUTRITION,,,NO ADDRESS,moeo_socialservicesiteloactions,d869154530df2a006efc76abd7659730,16,16,
HARLEM UNITED: COMMUNITY AIDS CENTER INC HIV TESTING SERVICES: SOCIAL NETWORK STRATEGY TESTING IN NON-CLINICAL SETTINGS,197,DAVIDSON AVENUE,197 DAVIDSON AVENUE,moeo_socialservicesiteloactions,32b209e099d48d8583b707338da0d51d,42,42,
HARLEM UNITED: COMMUNITY AIDS CENTER INC HIV TESTING SERVICES: SOCIAL NETWORK STRATEGY TESTING IN NON-CLINICAL SETTINGS,,,NO ADDRESS,moeo_socialservicesiteloactions,090b7eab4ac12d91d7301eaa0f037f27,16,16,
HARLEM UNITED: COMMUNITY AIDS CENTER INC NON-MEDICAL CASE MANAGEMENT GENERAL,,,NO ADDRESS,moeo_socialservicesiteloactions,822d5705990633eb68e50b70b0fc0a96,16,16,
HARLEM UNITED: COMMUNITY AIDS CENTER INC OUTREACH TO HOMELESS YOUTH,197,DAVIDSON AVENUE,197 DAVIDSON AVENUE,moeo_socialservicesiteloactions,018302c0f241e1590bdaddf9d709937c,42,42,
HARLEM UNITED: COMMUNITY AIDS CENTER INC OUTREACH TO HOMELESS YOUTH,,,NO ADDRESS,moeo_socialservicesiteloactions,4fb8a437255cce4470a7ea76a57f57ea,16,16,
HARLEM UNITED: COMMUNITY AIDS CENTER INC SUPPORTIVE COUNSELING & FAMILY STABILIZATION SERVICES - SEP,,,NO ADDRESS,moeo_socialservicesiteloactions,f08df2711abfd6d345dc4e6b23f17f6c,16,16,
HARLEM UNITED: COMMUNITY AIDS CENTER INC UNDETECTABLES VIRAL LOAD SUPPRESSION PROGRAM,,,NO ADDRESS,moeo_socialservicesiteloactions,b149424798a4639dd23a35dd7233c34f,16,16,
HARLEM UNITED: COMMUNITY AIDS CENTER INC UNDETECTABLES VIRAL LOAD SUPPRESSION PROGRAM,691,PROSEPCT PLACE,691 PROSEPCT PLACE,moeo_socialservicesiteloactions,1c54832bbac4a9947eae9449ad5f56ef,EE,EE,A
HEARTSHARE / ST VINCENT'S SERVICES INC FOSTER CARE,12,STEUBEN STREET,12 STEUBEN STREET,moeo_socialservicesiteloactions,e9d1b7d0cf18dd3b1917aed8c271793d,EE,EE,A
HEARTSHARE / ST VINCENT'S SERVICES INC PREVENTIVE SERVICES,89-31,161ST,89-31 161ST,moeo_socialservicesiteloactions,b5cbf7ba1c65c2d66a832684624e076a,EE,EE,5
HHC NORTH CENTRAL BRONX HOSPITAL HARM REDUCTION SERVICES,,,NO ADDRESS,moeo_socialservicesiteloactions,6a6027a6448f06efe32cb36356fcea7b,16,16,
HISPANIC AIDS FORUM INC HIV TESTING SERVICES: PRIORITY POPULATIONS TESTING IN NON-CLINICAL SETTINGS,,,NO ADDRESS,moeo_socialservicesiteloactions,07512f125c9485b41a67be8410340c60,16,16,
HISPANIC AIDS FORUM INC HIV TESTING SERVICES: PRIORITY POPULATIONS TESTING IN NON-CLINICAL SETTINGS,76-11,37 STREET,76-11 37 STREET,moeo_socialservicesiteloactions,77ea6e50a1cc401591af0d6a27752b44,42,42,
HOUSING WORKS INC HIV TESTING SERVICES: SOCIAL NETWORK STRATEGY TESTING IN NON-CLINICAL SETTINGS,,,NO ADDRESS,moeo_socialservicesiteloactions,47e2651b5e9b45dbd0e7de175d031d91,16,16,
HOUSING WORKS INC OUTREACH TO HOMELESS YOUTH,,,NO ADDRESS,moeo_socialservicesiteloactions,4be429bfd13522fe8d1b45e920bdbef6,16,16,
INSTITUTE FOR COMMUNITY LIVING INC ASSERTIVE COMMUNITY TREATMENT,,,NO ADDRESS,moeo_socialservicesiteloactions,28877a2dda767b3c22289dc0c95e0be8,16,16,
INSTITUTE FOR COMMUNITY LIVING INC NON-MEDICAID CARE COORDINATION (OMH),,,NO ADDRESS,moeo_socialservicesiteloactions,af1507efd1e4a6279030c4a7a5ccb046,16,16,
INSTITUTE FOR COMMUNITY LIVING INC NON-MEDICAID CARE COORDINATION; (NON-LICENSED PROGRAM),,,NO ADDRESS,moeo_socialservicesiteloactions,dce7fcfb1c4041026186dc5f86c0ec94,16,16,
INSTITUTE FOR COMMUNITY LIVING INC NY NY III SUPPORTED HOUSING,,,NO ADDRESS,moeo_socialservicesiteloactions,de116ac7e648b63133290dca67e27838,16,16,
INSTITUTE FOR COMMUNITY LIVING INC SUPPORTED HOUSING,,,NO ADDRESS,moeo_socialservicesiteloactions,d493aa5be2c50baf110711ca3992f5d0,16,16,
INTERBOROUGH DEVELOPMENTAL AND CONSULTATION CENTER INC SCHOOL,,,NO ADDRESS,moeo_socialservicesiteloactions,64e1d12e2c229ff37b5e0521b07484c9,16,16,
IRIS HOUSE: A CENTER FOR WOMEN LIVING WITH HIV INC HIV TESTING SERVICES: SOCIAL NETWORK STRATEGY TESTING IN NON-CLINICAL SETTINGS,,,NO ADDRESS,moeo_socialservicesiteloactions,0507871c7ba00c613ce2d33a3d411498,16,16,
JEWISH BOARD OF FAMILY AND CHILDREN'S SERVICES INC HOME BASED CRISIS INTERVENTION,,,NO ADDRESS,moeo_socialservicesiteloactions,fee88a63dfe1e66f237eff710122ba31,16,16,
JEWISH BOARD OF FAMILY AND CHILDREN'S SERVICES INC NON-MEDICAID CARE COORDINATION (OMH),,,NO ADDRESS,moeo_socialservicesiteloactions,c4a05462e0394109306f28020ba8de3d,16,16,
JEWISH BOARD OF FAMILY AND CHILDREN'S SERVICES INC SELF-HELP,,,NO ADDRESS,moeo_socialservicesiteloactions,61a21ecfc5b32524c295a80c0d3e92f3,16,16,
JEWISH BOARD OF FAMILY AND CHILDREN'S SERVICES INC SUPPORTED HOUSING,,,NO ADDRESS,moeo_socialservicesiteloactions,1cc15ba28e635037901898101f8336d0,16,16,
JEWISH CHILD CARE ASSOCIATION OF NEW YORK HOME BASED FAMILY TREATMENT,,,NO ADDRESS,moeo_socialservicesiteloactions,eb6945b610aa30f1350c77c2f92ef1f1,16,16,
LATINO COMMISSION ON AIDS INC HEALTH EDUCATION AND RISK REDUCTION,37-63,83 STREET,37-63 83 STREET,moeo_socialservicesiteloactions,faa36f51b0120c34cae2648f38290555,EE,EE,2
MENTAL HEALTH PROVIDERS OF WESTERN QUEENS INC NON-MEDICAID CARE COORDINATION (OMH),,,NO ADDRESS,moeo_socialservicesiteloactions,b5abfdef0c1f3398f2af4b9b1f3d4266,16,16,
MERCYFIRST FOSTER CARE,114-58,175 PLACT,114-58 175 PLACT,moeo_socialservicesiteloactions,2dcf298383a77994437aeb06879ae61f,EE,EE,2
MERCYFIRST FOSTER CARE,4416,SYNDER AVENUE,4416 SYNDER AVENUE,moeo_socialservicesiteloactions,a18e252bcacb72e38d1eb2200cbe8a41,11,11,
MERCYFIRST FOSTER CARE,142-29,ROCKAWAY,142-29 ROCKAWAY,moeo_socialservicesiteloactions,d0d3e385bc6fbb53db174a01b552d511,EE,EE,A
NEW YORK FOUNDLING HOSPITAL FOSTER CARE,997,EAST 179,997 EAST 179,moeo_socialservicesiteloactions,5138f9bbd4ffabdf3579d69af011586f,EE,EE,3
NEW YORK FOUNDLING HOSPITAL PREVENTIVE SERVICES,590,6 AVENUE/590 AVE OF THE AME,590 6 AVENUE/590 AVE OF THE AME,moeo_socialservicesiteloactions,ef197ea01f4c8cb4194092a4b11ff742,EE,EE,7
NEW YORK HARM REDUCTION EDUCATORS INC SUPPORTIVE COUNSELING & FAMILY STABILIZATION SERVICES - SEP,,,NO ADDRESS,moeo_socialservicesiteloactions,c42f8e24b6afce3efc0dfd0b8fd61bcd,16,16,
NEW YORK PRESBYTERIAN HOSPITAL CPEP CRISIS OUTREACH,,,NO ADDRESS,moeo_socialservicesiteloactions,81887f9aed95027ed501a316a0b1defc,16,16,
NEW YORK PRESBYTERIAN HOSPITAL HIV TESTING SERVICES: ROUTINE TESTING IN CLINICAL SETTINGS,,,NO ADDRESS,moeo_socialservicesiteloactions,d15d1fd345084d72ce0b0d605beab376,16,16,
NORTHSIDE CENTER FOR CHILD DEVELOPMENT INC HOME BASED CRISIS INTERVENTION,,,NO ADDRESS,moeo_socialservicesiteloactions,67db63930be761820e0966b0c40af9d9,16,16,
ODYSSEY HOUSE INC OUTREACH,,,NO ADDRESS,moeo_socialservicesiteloactions,b208db9c768a5c01616cadc82a77324f,16,16,
OHEL CHILDREN'S HOME AND FAMILY SERVICES INC SUPPORTED HOUSING,,,NO ADDRESS,moeo_socialservicesiteloactions,50c3c0400c96909218830d2a99845720,16,16,
PALLADIA INC SUPPORTED HOUSING,,,NO ADDRESS,moeo_socialservicesiteloactions,786f7fc61657ee4362fcccafe3a02468,16,16,
POSTGRADUATE CENTER FOR MENTAL HEALTH ASSERTIVE COMMUNITY TREATMENT,,,NO ADDRESS,moeo_socialservicesiteloactions,ec58d988518cc5ad5621db3b18593dc3,16,16,
POSTGRADUATE CENTER FOR MENTAL HEALTH NON-MEDICAID CARE COORDINATION (OMH),,,NO ADDRESS,moeo_socialservicesiteloactions,d1efd745fb110012e3731abeb2a3619e,16,16,
PROJECT HOSPITALITY INC SUPPORTED HOUSING,,,NO ADDRESS,moeo_socialservicesiteloactions,d5d806d13512f46dae3afbec7e30f0ca,16,16,
PROJECT RENEWAL INC HOMELESS PLACEMENT SERVICES (NON-LICENSED PROGRAM),,,NO ADDRESS,moeo_socialservicesiteloactions,ce01c8530eebd88828ec29da3421edae,16,16,
PROJECT RENEWAL INC NY NY III SUPPORTED HOUSING,,,NO ADDRESS,moeo_socialservicesiteloactions,317fd7c34f4fd9b864bd03fdf83bfbf7,16,16,
PSCH INC NON-MEDICAID CARE COORDINATION (OMH),,,NO ADDRESS,moeo_socialservicesiteloactions,81cb1b264cdf4c8548cdf682a4d08005,16,16,
PSCH INC NON-MEDICAID CARE COORDINATION; (NON-LICENSED PROGRAM),,,NO ADDRESS,moeo_socialservicesiteloactions,1524b334797681ea4852a8a211a78465,16,16,
PSCH INC SUPPORTED HOUSING,,,NO ADDRESS,moeo_socialservicesiteloactions,ea6952a94e11d4020b8d6b2a52578930,16,16,
"RISING GROUND (FORMERLY - LEAKE AND WATTS SERVICES, INC.) FOSTER CARE",575,SOUNDVIEW,575 SOUNDVIEW,moeo_socialservicesiteloactions,ebebc2e9b83edf1effe796cb5736cb0f,EE,EE,A
SCO FAMILY OF SERVICES GENERAL PREVENTIVE CARE (PC),70-20,47 STREET,70-20 47 STREET,moeo_socialservicesiteloactions,f823878b48f24b5b03d796c5834b68fc,42,42,
SCO FAMILY OF SERVICES NURSE-FAMILY PARTNERSHIP SERVICES,,,NO ADDRESS,moeo_socialservicesiteloactions,6351346d77a59cf197f01f8ba906f081,16,16,
SCO FAMILY OF SERVICES PREVENTIVE SERVICES,,443-39TH STREET,,moeo_socialservicesiteloactions,64dbe5c24ad4ce6426d7bd1e8dbd9cc3,11,11,
SCO FAMILY OF SERVICES SUPPORTED HOUSING,,,NO ADDRESS,moeo_socialservicesiteloactions,747f0ed9817ad756dcb61a2c18f79faa,16,16,
ST JOSEPH'S HOSPITAL ASSERTIVE COMMUNITY TREATMENT,,,NO ADDRESS,moeo_socialservicesiteloactions,56ac6d47ab4109aa540569bc34ef4380,16,16,
ST JOSEPH'S HOSPITAL SUPPORTED HOUSING,,,NO ADDRESS,moeo_socialservicesiteloactions,4b0a0ae48dfe0d1326169e5556544560,16,16,
ST LUKE'S - ROOSEVELT HOSPITAL CPEP CRISIS OUTREACH,,,NO ADDRESS,moeo_socialservicesiteloactions,ccc36c6aca135f4c14f21e5d04dd8679,16,16,
ST VINCENT'S SERVICES INC SUPPORTED HOUSING,,,NO ADDRESS,moeo_socialservicesiteloactions,951081bfd16eccd4e4ffcc776e958595,16,16,
STATEN ISLAND BEHAVIORAL NETWORK INC NON-MEDICAID CARE COORDINATION (OMH),,,NO ADDRESS,moeo_socialservicesiteloactions,65d524b66ee267c365d37098cdbccf0e,16,16,
THE BRIDGE INC ASSERTIVE COMMUNITY TREATMENT,,,NO ADDRESS,moeo_socialservicesiteloactions,ce85f5c3bfb611c00b0229ecaeaefe7f,16,16,
THE BRIDGE INC NON-MEDICAID CARE COORDINATION (OMH),,,NO ADDRESS,moeo_socialservicesiteloactions,37345f96d06650d7d6c305e083bdfbda,16,16,
THE BRIDGE INC NY NY III SUPPORTED HOUSING,,,NO ADDRESS,moeo_socialservicesiteloactions,2cff4eca69d7943a1c5a32b1efd1177a,16,16,
THE BRIDGE INC SUPPORTED HOUSING,,,NO ADDRESS,moeo_socialservicesiteloactions,3718bc088cf80dbfa284d53bc6fe28ad,16,16,
THE CHILD CENTER OF NY INC ADVOCACY SERVICES,,,NO ADDRESS,moeo_socialservicesiteloactions,f0656eaae74fafb139c688774053dce9,16,16,
THE CHILD CENTER OF NY INC HOME BASED CRISIS INTERVENTION,,,NO ADDRESS,moeo_socialservicesiteloactions,d81caaed56f985e1113c43b51a34df44,16,16,
THE CHILD CENTER OF NY INC NON-MEDICAID CARE COORDINATION; (NON-LICENSED PROGRAM),,,NO ADDRESS,moeo_socialservicesiteloactions,750a8420a65ff92fc8aa5d517f53f8d6,16,16,
THE CHILD CENTER OF NY INC PREVENTIVE SERVICES,140-15B,SANDFORD AVENUE,140-15B SANDFORD AVENUE,moeo_socialservicesiteloactions,1d7ac9fba02f0e10b6e3aab1a7ab9af2,EE,EE,A
THE CHILDREN'S VILLAGE FOSTER CARE,221-33,45 DRIVE,221-33 45 DRIVE,moeo_socialservicesiteloactions,326dec2f69bedc775b446e0946a9b205,42,42,
THE CHILDREN'S VILLAGE PREVENTIVE SERVICES,,,,moeo_socialservicesiteloactions,129efb622942000e721f835b91e24174,16,16,
THE DOE FUND INC NY NY III SUPPORTED HOUSING,,,NO ADDRESS,moeo_socialservicesiteloactions,a105ebd9d64b794816d32b9508168ce1,16,16,
THE FAMILY CENTER INC PREVENTIVE SERVICES,493,MOSTRAND AVENUE,493 MOSTRAND AVENUE,moeo_socialservicesiteloactions,fcef242be92499339d3ac8229f8362bd,EE,EE,1
THE FORTUNE SOCIETY INC SUPPORTED HOUSING,,,NO ADDRESS,moeo_socialservicesiteloactions,a6d697903f166bf83d661e60f596c5d7,98,,
THE FRIENDS OF CROWN HEIGHTS EDUCATIONAL CENTERS INC EARLY LEARN NYC: NEW YORK CITY'S EARLY CARE AND EDUCATION SERVICES,49,AVENUE WEST,49 AVENUE WEST,moeo_socialservicesiteloactions,daecd3916a08b86952dca6410037dbc4,EE,EE,A
THE HETRICK-MARTIN INSTITUTE INC OUTREACH TO HOMELESS YOUTH,,,NO ADDRESS,moeo_socialservicesiteloactions,fbe80e61e5918326990ae970194f09fb,16,16,
THE JERICHO PROJECT SUPPORTED HOUSING,,,NO ADDRESS,moeo_socialservicesiteloactions,af1748f19c722926277674c882d21bd7,16,16,
THE MENTAL HEALTH ASSOCIATION OF NEW YORK CITY INC COORDINATED CHILDREN'S SERVICES INITIATIVE,,,NO ADDRESS,moeo_socialservicesiteloactions,2634ee0e807a1eb338327f2666f8e107,16,16,
THE MENTAL HEALTH ASSOCIATION OF NEW YORK CITY INC SELF-HELP,,,NO ADDRESS,moeo_socialservicesiteloactions,3d9baa21d1afe6bc37badcd13b54cfcd,16,16,
THE MENTAL HEALTH ASSOCIATION OF NEW YORK CITY INC SUPPORTED HOUSING,,,NO ADDRESS,moeo_socialservicesiteloactions,fdb1cd996154e459d1287a4c095e4275,16,16,
THE NEW YORK FOUNDLING HOSPITAL SCHOOL,,,NO ADDRESS,moeo_socialservicesiteloactions,f7073dd00efcff363bca16d074b7ff66,16,16,
THE NEW YORK FOUNDLING HOSPITAL SUPPORTED HOUSING,,,NO ADDRESS,moeo_socialservicesiteloactions,7e70f43e0a4ac1fdd5a93c945fe1667e,16,16,
TRANSITIONAL SERVICES FOR NEW YORK INC NON-MEDICAID CARE COORDINATION (OMH),,,NO ADDRESS,moeo_socialservicesiteloactions,184900b1f7e1637080fc39071e1fd1ae,16,16,
TRANSITIONAL SERVICES FOR NEW YORK INC OUTREACH,,,NO ADDRESS,moeo_socialservicesiteloactions,04e973b6893f9f415b2ab9e2a66fa79c,16,16,
TRANSITIONAL SERVICES FOR NEW YORK INC SUPPORTED HOUSING,,,NO ADDRESS,moeo_socialservicesiteloactions,d864ccddd2b229e3d1a8a7588fac8455,16,16,
TURNAROUND FOR CHILDREN INC SCHOOL,,,NO ADDRESS,moeo_socialservicesiteloactions,80dccb95485d7d83e0c0082db26efe69,16,16,
UNITED COMMUNITY CENTERS INC COMMUNITY-LEVEL INTERVENTIONS FOR HIV PREVENTION,2552,MONTAUK AVENUE,2552 MONTAUK AVENUE,moeo_socialservicesiteloactions,f7151970f8c434f2eafcd66c817d508a,42,42,
UNIVERSITY CONSULTATION AND TREATMENT CENTER FOR MENTAL HYGIENE INC NON-MEDICAID CARE COORDINATION (OMH),,,NO ADDRESS,moeo_socialservicesiteloactions,4b1afd3dc708c7d82cf5c7d411bd2a2d,16,16,
UNIVERSITY SETTLEMENT SOCIETY OF NEW YORK INC HOME BASED CRISIS INTERVENTION,,,NO ADDRESS,moeo_socialservicesiteloactions,805d0aa14c571e6c61ad61962a336785,16,16,
UPPER MANHATTAN MENTAL HEALTH CENTER INC NON-MEDICAID CARE COORDINATION (OMH),,,NO ADDRESS,moeo_socialservicesiteloactions,af3cabe7ea5db06c1624f4395029da2a,16,16,
URBAN PATHWAYS INC NY NY III SUPPORTED HOUSING,,,NO ADDRESS,moeo_socialservicesiteloactions,25e801437aec4241c2bdfcdd219edd51,16,16,
URBAN PATHWAYS INC SUPPORTED HOUSING,,,NO ADDRESS,moeo_socialservicesiteloactions,59be722da5d672c4eef8fc66a64aa3f9,16,16,
VISITING NURSE SERVICE OF NEW YORK HOME CARE II ASSERTIVE COMMUNITY TREATMENT,,,NO ADDRESS,moeo_socialservicesiteloactions,5ab3dbf4f0bd79657f5b5926164c8c68,16,16,
VISITING NURSE SERVICE OF NEW YORK HOME CARE II CRISIS INTERVENTION,,,NO ADDRESS,moeo_socialservicesiteloactions,bdb6b102f0b8b66f99c3db5ab483eb4f,16,16,
VISITING NURSE SERVICE OF NEW YORK HOME CARE II HOME BASED CRISIS INTERVENTION,,,NO ADDRESS,moeo_socialservicesiteloactions,4329ee0a82839a3cac9f4bc0088877cc,16,16,
VISITING NURSE SERVICE OF NEW YORK HOME CARE II NON-MEDICAID CARE COORDINATION (OMH),,,NO ADDRESS,moeo_socialservicesiteloactions,5e619a046502d03e9eb155cf0e3ad153,16,16,
VISITING NURSE SERVICE OF NEW YORK HOME CARE II NURSE-FAMILY PARTNERSHIP SERVICES,,,NO ADDRESS,moeo_socialservicesiteloactions,9e54d5d7f8a5d9fd9c0fecf56c5db4c8,16,16,
VISITING NURSE SERVICE OF NEW YORK HOME CARE II OUTREACH,,,NO ADDRESS,moeo_socialservicesiteloactions,b68c36e8a440b643a3d81fd561e51c7c,16,16,
VISITING NURSE SERVICE OF NEW YORK HOME CARE II SCHOOL,,,NO ADDRESS,moeo_socialservicesiteloactions,ae4b8f5a1955d99e93d996b8c29529b5,16,16,
VOCES LATINAS CORP EARLY INTERVENTION SERVICES: PRIORITY POPULATIONS TESTING IN NON-CLINICAL SETTINGS,,,NO ADDRESS,moeo_socialservicesiteloactions,91df3e7c02d341b67747fa143f9e5436,16,16,
VOLUNTEERS OF AMERICA - GREATER NEW YORK INC NY NY III SUPPORTED HOUSING,,,NO ADDRESS,moeo_socialservicesiteloactions,1e6f3cf93f82f0d985fdcd71819bba44,16,16,
WEILL MEDICAL COLLEGE OF CORNELL UNIVERSITY GERIATRIC MENTAL HEALTH,478,EAST 1 STREET,478 EAST 1 STREET,moeo_socialservicesiteloactions,2e9b77e3658cf1804279ecd517541615,42,42,
WESTON UNITED COMMUNITY RENEWAL INC SUPPORTED HOUSING,,,NO ADDRESS,moeo_socialservicesiteloactions,bcae832c54b1465a82e2a06de6f300dc,16,16,
QUEENS DETENTION COMPLEX (QDC),126-01,82 AVENUE,126-01 82ND AVENUE,nycdoc_corrections,9d031a6276805ad9089f83a3fdf33b87,00,42,
CAMPOS PLAZA,611,EAST 13 SREET,611 EAST 13TH SREET,nycha_communitycenters,a726b386221bb9991497dc972ea018c9,EE,EE,2
GLENWOOD,5816,FARRAGUT AVENUE,5816 FARRAGUT AVENUE,nycha_communitycenters,b22f2f3c4ccf06e7307b9b96f7733c93,EE,EE,A
HAMMEL,82-10,RKWAY BEACH BOULEVARD,82-10 RKWAY BEACH BLVD,nycha_communitycenters,c1a68440f48eef0ba5770fd9de9a6621,11,11,
HAMMEL,81-14,RKWAY BEACH BOULEVARD,81-14 RKWAY BEACH BLVD,nycha_communitycenters,c33cc35fbafccdb723cc55ef467466c6,11,11,
HOWARD,1592,EAST NORTH Y AVENUE,1592 E N Y AVENUE,nycha_communitycenters,bb0d2fe448e54f60c3acee3ed33df652,11,11,
LEXINGTON,115,EAST 98 STEET,115 EAST 98TH STEET,nycha_communitycenters,e5f446532d7bf86ef06da7c8141b21ab,EE,EE,1
MARINER'S HARBOR,157,BRABANT STEET,157 BRABANT STEET,nycha_communitycenters,cb26fb1bca5e955fbf77df39936a0ea9,EE,EE,A
OCEAN BAY APTS/OCEANSIDE,338,BEACH 56 STREEET,338 BEACH 56TH STREEET,nycha_communitycenters,59fff0e010da501e5a377ef35c07a7de,EE,EE,A
RAVENSWOOD,34-35A,12 STREET,34-35A 12TH STREET,nycha_communitycenters,16abfeb9ca8853c3696beb52436aff56,42,42,
WALD,888,EAST 6 SREET,888 EAST 6TH SREET,nycha_communitycenters,c57378db890e033fabcde58d7cdf49ee,EE,EE,2
WILSON,405,EAST 105 STEET,405 EAST 105TH STEET,nycha_communitycenters,c5debdc3b0c50f6785ea78e2dabb5d71,EE,EE,1
WISE TOWERS/WSURA,136,WEST 91 STEET,136 WEST 91ST STEET,nycha_communitycenters,eb44f866b496b5416e47bd1c439a03f1,EE,EE,1
POLICE SERVICE AREA #3,25,CENTRAL AVENUE,25 CENTRAL AVENUE,nycha_policeservice,f03497edf34b393dc983ad1a7e4eb760,00,42,
A&G USED AUTO PART D/B/A PARTS ARE US,1937B,FLUSHING AVERNUE,1937 B FLUSHING AVERNUE,nysdec_solidwaste,47351bdc7c6f5a5781d58d2642ebd44e,EE,EE,A
CONSOLIDATED EDISON OF NY,276-290,AVENUE C EAST 16 STREET,276-290 AVENUE C ( EAST 16TH STREET),nysdec_solidwaste,c9481353747b88243a8b6673222768b6,EE,EE,A
DSNY MULDOON AVE HOUSEHOLD SPECIAL WASTE DROP-OFF FACILITY,,,MULDOON AVENEU,nysdec_solidwaste,852651890d0e9ac1f75f0cf1696e9a58,16,16,
DSNY NORTH SHORE HOUSEHOLD SPECIAL WASTE DROP-OFF FACILITY,120-15,31 AVENUE,120-15 31ST AVENUE,nysdec_solidwaste,d5b09f40e5cfe716a914d1fc0bee45fe,00,42,
DSNY SOUNDVIEW PARK YARD WASTE COMPOSTING FACILITY,,RANDALL AVENUE,RANDALL AVENUE ( WESTERN END OF RANDALL AVE),nysdec_solidwaste,76134da4eab0fba1d142541e7f853fa4,13,13,1
DSNY SOUTH BRONX HOUSEHOLD SPECIAL WASTE DROP-OFF SITE,,FOOT OF FARRAGUT STREET,FOOT OF FARRAGUT STREET,nysdec_solidwaste,2b0942c0a7ded75458d9aad203d9e17d,EE,EE,4
EARTH MATTER NY INC,,SOUTH CRAIG ROAD,SOUTH CRAIG RD.,nysdec_solidwaste,9894034c4fc6019b41f75e54de60e244,11,11,
EVERGREEN RECYCLING OF CORONA (WILLETS POINT BLVD),,WILLLETS POINT BOULEVARD,WILLLETS POINT BLVD,nysdec_solidwaste,8381b75c0066bc1e8d428c7c859e370e,EE,EE,A
GERSHOW RECYCLING OF BROOKLYN,1885,PITKEN AVENUE,1885 PITKEN AVENUE,nysdec_solidwaste,344549595291cb17b9aa5b2e2f7b05eb,EE,EE,3
LIBERTY SCRAP METAL INC,95-49,TUCKERTON STREET,95-49 TUCKERTON STREET,nysdec_solidwaste,fc6ee0d5eb8522159449fc032c9bfee9,00,42,
NEW YORK RECYCLING VENTURES,1340,EAST BAY AVENUE,1340 EAST BAY AVENUE,nysdec_solidwaste,46454d2f8bf9d1e77a030eef22e66880,11,11,
NYCDOS MTS @ HAMILTON AVE.,,HAMILTON AVENUE,HAMILTON AVENUE,nysdec_solidwaste,656df7772c08a880cc246469758b68e6,13,13,A
NYCDOS WEST 59TH STREET MTS,,WEST 59 STREET WESTSIDE HIGHWA,WEST 59TH STREET & WESTSIDE HIGHWAY,nysdec_solidwaste,dffd9320c12ab2b33c2e83e8e415d94d,EE,EE,4
NYCDOS-NORTH SHORE MTS,31,AVENUE & FLUSHING BAY,31 AVE & FLUSHING BAY,nysdec_solidwaste,c55391ca25ac887f53b60a2e65a75afb,EE,EE,A
OUTSTANDING RENEWAL ENTERPRISES (LOWEREASTSIDEECOLOGYCENTER),,,BELLOW THE WILLIAMSBURG BRIDGE ON THE MANHATTAN SIDE NEAR..,nysdec_solidwaste,8acbbb73a8057091eb39af6673897c82,16,16,
PLAKOS SCRAP PROCESSING INC (94TH ST),771,EAST 94 STREET,771 EAST 94TH STREET,nysdec_solidwaste,b5490e57bad739fa0bacc4bf559c256c,00,42,
PLAKOS SCRAP PROCESSING INC.(69TH ST),769,EAST 69 STREET,769 E. 69TH STREET,nysdec_solidwaste,bb80200022d5034028e04a5cac7f11b9,42,42,
QUEENSBRIDGE COMPOST SITE,,,QUEENS PLAZA SOUTH AND 10TH STREET/UNDER QUEENSBORO BRIDGE,nysdec_solidwaste,2587e8a99ad2708d19560dc8c24a5ef9,16,16,
RIKERS ISLAND COMPOST FACILITY ( DSNY),,,RIKERS ISLAND CORRECTIONAL FACILITY,nysdec_solidwaste,9578ea33688ebce45ed6b77a9c5ec8cb,16,16,
SPECIALTY MOTOR CARS,1125,BRONX RIVER AVERNE,1125 BRONX RIVER AVERNE,nysdec_solidwaste,adc57df2f7995d8b8c01ac9d6ef705e3,EE,EE,A
WMNY BQE TRANSFER STATION,475,SCOTT AVENUE,475 SCOTT AVENUE,nysdec_solidwaste,e539a555d88e4fbe73dc0192f2e3abf5,00,42,
WMNY BQE TRANSFER STATION,475,SCOTT AVENUE,475 SCOTT AVENUE,nysdec_solidwaste,c6acd74ac064e05982c358400dcdfcf4,00,42,
WMNY REVIEW TRANSFER STATION,38-22,REVIEW AVENUE,38-22 REVIEW AVENUE,nysdec_solidwaste,929fab07b6edda774a9a250f6bafd444,00,42,
FANNIE LOU HAMER,1001,JENNINGS STREET,1001 JENNINGS STREET,nysdoh_healthfacilities,fbc43b88574eb6ed68f729e7f01b533a,EE,EE,2
BOLD CHARTER SCHOOL,55,NORTH 5 ST-APT,55 N 5TH ST-APT E703,nysed_activeinstitutions,a9e2a07b5221481636b84aaf0e6284db,EE,EE,1
DIST 5 P.30M PRESCHOOL SPECIAL ED,144,176 EAST 128 STREET,144 176 EAST 128TH ST,nysed_activeinstitutions,d224b835e4c2777d6ffe073fdf8f9ebe,EE,EE,2
"NATA'S KIDS, INC.",1733,SHEEPSHEAD BAY ROAD SOUTH,1733 SHEEPSHEAD BAY RD S 36,nysed_activeinstitutions,2dcbc91d43245a7ff6ecb55cad2bb7d6,EE,EE,A
NYCDOE FORDHAM PLAZE PREK SPEC ED,,,ONE FORDHAM PLAZA 7TH FL,nysed_activeinstitutions,47af04e0f4f48f0bf4db19f317ed3d63,16,16,
RICHMOND PREP CHARTER SCHOOL,2,TELEPORT,2 TELEPORT DR-2ND FL,nysed_activeinstitutions,75155f2a655bf6787589a387334fde33,EE,EE,2
VALENCE COLLEGE PREP CHARTER SCHOOL,35-33,83 ST-,35-33 83RD ST-#F1,nysed_activeinstitutions,5bcfa4b195d40790914229fa91477a18,EE,EE,5
"ARGUS COMMUNITY, INC. IR",,EAST 160 STREET,EAST 160TH STREET,nysoasas_programs,2c2bdff24c1beaf446ae3c455697365f,13,13,A
"ARGUS COMMUNITY, INC. MMW",,EAST 160 STREET,EAST 160TH STREET,nysoasas_programs,f85ecc8f323a89c5f57db465ee2b8459,13,13,A
"ARGUS COMMUNITY, INC. OP 1",,EAST 160 STREET,EAST 160TH STREET,nysoasas_programs,cbc5f7a2863de79c43f7925d34db4d11,13,13,A
BACKSTRETCH EMPLOYEE SERVICE TEAM OP,2150,HEMPSTEAD TURNPIKE,2150 HEMPSTEAD TPKE,nysoasas_programs,5ad6c56504663041af2a32f906be0f6d,EE,EE,3
BETH ISRAEL MEDICAL CENTER MMD,,FIRST AVENUE 16 STREET,FIRST AVENUE AND 16TH ST,nysoasas_programs,f61c60fb5fed3fb0d0d6fb22d1105c03,EE,EE,A
BETH ISRAEL MEDICAL CENTER MSW-OP,,FIRST AVENUE 16 STREET,FIRST AVENUE AND 16TH ST,nysoasas_programs,f125a30f9b1e60c8ffb6de552072f635,EE,EE,A
BETH ISRAEL MEDICAL CENTER OP,,FIRST AVENUE 16 STREET,FIRST AVENUE AND 16TH ST,nysoasas_programs,34f2f2c980c669e64ef744667c08e1c6,EE,EE,A
BETH ISRAEL MEDICAL CENTER OP R,,FIRST AVENUE 16 STREET,FIRST AVENUE AND 16TH ST,nysoasas_programs,144ccddf19b4d01171512eb1c122465c,EE,EE,A
BETH ISRAEL MEDICAL CENTER OTP,,FIRST AVENUE 16 STREET,FIRST AVENUE AND 16TH ST,nysoasas_programs,bc0a6c7bd891cdd5917565d2a1648804,EE,EE,A
C.C.M.S. OP,25,ELM STREET,25 ELM STREET,nysoasas_programs,eec7f4e39612a8d5411a52988f9514cb,41,41,
CLINIC 1 OTP,,FIRST AVENUE 16 STREET,FIRST AVENUE AND 16TH ST,nysoasas_programs,3e99f223678fa76bd8d7860c9ff53045,EE,EE,A
CLINIC 1E OTP,,FIRST AVENUE 16 STREET,FIRST AVENUE AND 16TH ST,nysoasas_programs,fdb975439e9f369581d21353bda14cc8,EE,EE,A
CLINIC 2C OTP,,FIRST AVENUE 16 STREET,FIRST AVENUE AND 16TH ST,nysoasas_programs,9cb61050faec601ac5f23ce7c522bfad,EE,EE,A
CLINIC 3G OTP,,FIRST AVENUE 16 STREET,FIRST AVENUE AND 16TH ST,nysoasas_programs,3135638eb863cc90498e957de85b2bd4,EE,EE,A
"COPAY, INC. OP",21,NORTH STATION PLAZA,21 NORTH STATION PLAZA,nysoasas_programs,68d11abfd4f16a7eaafbbb024497ad39,11,11,
GOUVERNEUR CLINIC OTP,,FIRST AVENUE 16 STREET,FIRST AVENUE AND 16TH ST,nysoasas_programs,b8db67297298f923c7ee081e4591f872,EE,EE,A
HARBOR HOUSE IR,,EAST 160 STREET,EAST 160TH STREET,nysoasas_programs,63baa2dbea17a3d876f1740289835d08,13,13,A
HARLEM NO. 2 OTP,,FIRST AVENUE 16 STREET,FIRST AVENUE AND 16TH ST,nysoasas_programs,2f7decfbdaeef1bc9c6b282a9e321038,EE,EE,A
HARLEM NO. 6/7 OTP,,FIRST AVENUE 16 STREET,FIRST AVENUE AND 16TH ST,nysoasas_programs,d2fd71838f0d6d4b81ea2fab0f35cbfe,EE,EE,A
MARY S. TAYLOR HOMELESS OUTREACH RRI,,EAST 160 STREET,EAST 160TH STREET,nysoasas_programs,f8f0b76ad2f5236f1f919c83852b9bb8,13,13,A
MMTP AVENUE A CLINIC OTP,,FIRST AVENUE 16 STREET,FIRST AVENUE AND 16TH ST,nysoasas_programs,43f591fe6a6c08f3feb10124debf876d,EE,EE,A
NASSAU ALTERNATIVE ADVOCACY PROGRAM OP,151,HERRICKS ROAD,151 HERRICKS RD,nysoasas_programs,65315a2210b42d1c5b403855cb884384,EE,EE,6
STAR PROGRAM OP,340,DOGWOOD AVENUE,340 DOGWOOD AVE,nysoasas_programs,18452d30f0366c4ad531dbbb51f0afc4,11,11,
STRIVER HOUSE IR,,EAST 160 STREET,EAST 160TH STREET,nysoasas_programs,c7dd72b405f9b8218353c1b246906bb3,13,13,A
STUYVESANT SQUARE CD TREATMENT PROG IP,,FIRST AVENUE 16 STREET,FIRST AVENUE AND 16TH ST,nysoasas_programs,143385278ccba6d43f2fbb07e6c3e63b,EE,EE,A
THE ELIZABETH L. STURZ OUTPATIENT CTR,,EAST 160 STREET,EAST 160TH STREET,nysoasas_programs,293075d17cd8152c0edee7528d691c71,13,13,A
VIDA FAMILY SERVICES OP,,EAST 105 STREET,E 105TH STREET,nysoasas_programs,bac90e40a4cc34fac3fc15f718e44440,13,13,A
VINCENT P. DOLE CLINIC OTP,,FIRST AVENUE 16 STREET,FIRST AVENUE AND 16TH ST,nysoasas_programs,8c32e58fb4bca2a7670bc675153f0bf8,EE,EE,A
'I CAN' COMMUNITY RESIDENCE,,,,nysomh_mentalhealth,ee5d704cd5c17b8963b3038f8456ddb3,98,,
(BF) ICL SH/BRONX FORENSIC - COMM. SVCS,,,,nysomh_mentalhealth,e84a23f600d57208da17484cefa5ff8f,98,,
(BK) ICL SH/ST. MARKS III SH KINGS COUNTY - COMM SVCS,,,,nysomh_mentalhealth,b4da5c47fafffe6d3f1dba654ce1c8e0,98,,
(BX) ICL SH/BRONX-COMM. SVCS.,,,,nysomh_mentalhealth,d37474d33f117126c4148663c751006c,98,,
(LS) ICL SH/LAWTON SCATTER-COMM. SVCS.,,,,nysomh_mentalhealth,39cde3882c3f6b70fe2ccc39f50cfe96,98,,
(QU) ICL SH/QUEENS SUPPORTED HOUSING I - COMM. SVCS,,,,nysomh_mentalhealth,14fc4801d075a731ef7bb11eabbd0a57,98,,
(QU) ICL SH/QUEENS SUPPORTED HOUSING II - COMM. SVCS,,,,nysomh_mentalhealth,3908e6355b426b3ad932b26e0520d93d,98,,
(QW) ICL SUPPORTED HOUSING/QUEENS - NY/NY III - COMM. SVCS,,,,nysomh_mentalhealth,653819d6f4ab22375368a7fdf3e0f209,98,,
(S!) ICL SH/MANHATTAN - COMM. SVCS.,,,,nysomh_mentalhealth,c1d821b9e18bc69ab96f2af0a219b97b,98,,
(S#) ICL SH/KPC KINGS - COMM. SVCS.,,,,nysomh_mentalhealth,86c26a1f80c7d03af8798142dc501757,98,,
(S$) ICL SH/ST. MARK'S SCATTERED SITE - COMM. SVCS,,,,nysomh_mentalhealth,01380daea874ee39d9db214a2751d616,98,,
(S%) ICL SH/BROOKLYN SOUTH-COMM. SVCS.,,,,nysomh_mentalhealth,1114bf4339354364237dd242210a3cbe,98,,
(S') ICL SH/EMERSON SCATTERSITE - COMM. SVCS,,,,nysomh_mentalhealth,4247fdc67e9e2c4e12901216dd2781b0,98,,
(S*) ICL SH/BROOKLYN NO. (EMERSON) - COMM. SVCS,,,,nysomh_mentalhealth,4023b087f1c8bbbd3dc89490395c5793,98,,
(S+) ICL SH/HUD IPS - COMM. SVCS,,,,nysomh_mentalhealth,cf00a73dec78dad44b51f9ccbdf897bb,98,,
(S-) ICL SH/KPC KINGS - COMM.SVCS.,,,,nysomh_mentalhealth,442698068c56dcd4e5a5d7b80b325b42,98,,
(S1) ICL SH/CATHEDRAL CONDO-BROOKLYN-COMM.SVCS.,,,,nysomh_mentalhealth,44f4f5589d6309a6ff07ef4f0de7d7b1,98,,
(S2) ICL SH/KINGS/CAP SCATTERSITE - COMM.SVCS,,,,nysomh_mentalhealth,5d59f3469c7a4cd22b4869bfc442f909,98,,
(S3) ICL SH/WASHINGTON AVE BROOKLYN-COMM.SVCS.,,,,nysomh_mentalhealth,b688ae2ef580bbee271a5c557cd43d28,98,,
(S4) ICL SH/EMERSON PLACE BROOKLYN-COMM.SVCS.,,,,nysomh_mentalhealth,dab547171c86e5e0a3728f02aaa7dee9,98,,
(S5) ICL SH/WARREN STREET BROOKLYN-COMM.SVCS.-COMM.SVCS,,,,nysomh_mentalhealth,8d0395ae9240f64d2577a5074cb7c7a2,98,,
(S6) ICL SH/FIRST STREET BROOKLYN - COMM.SVCS.,,,,nysomh_mentalhealth,62182650470c4226bfde120a75614730,98,,
(S7) ICL SH/OMH E. 98TH (S+C I)-COMM.SVCS.,,,,nysomh_mentalhealth,1b218430b38a943c8b525a549c2fb3f9,98,,
(S9) ICL SH/OMH E. 98TH (S+C II) - COMM. SVCS,,,,nysomh_mentalhealth,bb1823f48072ed5437b9e20b0659471b,98,,
(S:) ICL SH/SCATTERED SITE MICA-COMM.SVCS.,,,,nysomh_mentalhealth,b0721bdaeed10309048357bd788e0546,98,,
(S@) ICL SH/HUD FAMILY SCATTERED-COMM. SVCS.,,,,nysomh_mentalhealth,73bc67d878d0278023dcbdb81ef23c10,98,,
(SO) ICL SH/OMH SCATTERSITE (487 ST. MARKS) - COMM. SVCS,,,,nysomh_mentalhealth,f7745efe134ce2b17f5e9f85a1781f5a,98,,
(S^) ICL SH/STEPPING STONE OMH-COMM. SVCS.,,,,nysomh_mentalhealth,232c2b956dce3c489cba8fea159f982d,98,,
124TH STREET CR/SRO,,,,nysomh_mentalhealth,173bd1d72c77128807aa26bb7dde0dc7,98,,
161ST STREET - TINTON AVENUE,,,,nysomh_mentalhealth,1711defa6752d4a3c410eaae07e581f2,98,,
162ND STREET RESIDENCE SUPPORTED,,,,nysomh_mentalhealth,ca679de06e1c92d65a18851633b90998,98,,
3RD AVENUE LA CASA,,,,nysomh_mentalhealth,16e57c93ae4e435e3545c870dc245e5a,98,,
74 AVENUE A,,,,nysomh_mentalhealth,7bb1db9dac5792869bc058f2c8ba7362,98,,
A.C.T. COMMUNITY RESIDENCE,,,,nysomh_mentalhealth,56d2024fd985498ef202106cf36f14e0,98,,
ABRAHAM RESIDENCE III,,,,nysomh_mentalhealth,f06d5dcca8807e933e68a9881fede029,98,,
ACCESS HOUSE,,,,nysomh_mentalhealth,e9624ad04490ae705e2451b4695f09d4,98,,
ACMH - SH/PC LONG STAY CREEDMOOR PC QUEENS - COMM. SVCS,,,,nysomh_mentalhealth,a3e6b53a1d29aa3bf3a529e78b550a67,98,,
ACMH - SH/PC LONG STAY MANHATTAN PC NEW YORK - COMM. SVCS,,,,nysomh_mentalhealth,91013367c658ba85122fa6907df80586,98,,
ACMH - SH/PC LONG STAY NEW YORK - COMM. SVCS,,,,nysomh_mentalhealth,8b59b1b5c10bbb0e293b6e7a6509f690,98,,
ACMH - SH/PC LONG STAY QUEENS - COMM. SVCS,,,,nysomh_mentalhealth,83d4d0c8426cdebc8a52d14089e3e194,98,,
ACMH - SUPPORTED APARTMENTS 638 NEW YORK - COMM. SVCS,,,,nysomh_mentalhealth,7b586a5d5e40a342c73e8582024c56d4,98,,
ACMH - SUPPORTED APARTMENTS 639 QUEENS - COMM. SVCS,,,,nysomh_mentalhealth,c0ab5129c9f47ee640772928fff95741,98,,
ACMH - SUPPORTED HOUSING/NEW YORK - COMM. SVCS,,,,nysomh_mentalhealth,3287355d7a826ea25ab73ef06840d07f,98,,
ACMH - SUPPORTED HOUSING/NY NY III NEW YORK - COMM. SVCS,,,,nysomh_mentalhealth,f0012946f3fcbd82628e18ae9feabca0,98,,
ACMH - SUPPORTED HOUSING/NY NY III QUEENS - COMM. SVCS,,,,nysomh_mentalhealth,438393425377de41c4808cb63cd760bf,98,,
ACMH - SUPPORTED HOUSING/QUEENS - COMM. SVCS,,,,nysomh_mentalhealth,a1d800b2a5483825f177446599799a6f,98,,
ACMH ANA'S HOUSE SP/SRO,,,,nysomh_mentalhealth,b37a7169826e63ab25c94e4f4ea6c01b,98,,
ACMH BRONX SUPPORTED HOUSING-COMM.SVCS,,,,nysomh_mentalhealth,4e0bf3cd70e0762731c5c5e026f67fc5,98,,
ACMH CROTONA AVENUE SP/SRO,,,,nysomh_mentalhealth,99dff027906a0926319172d996d37467,98,,
ACMH E. 144TH STREET SP/SRO,,,,nysomh_mentalhealth,888451e4424945e932b7ee998b625192,98,,
ACMH FORENSIC PC SUPPORTIVE HOUSING-COMM.SVCS,,,,nysomh_mentalhealth,b43c67206282e298ac1392a469ed2ed2,98,,
ACMH SH/SUPPORTED APARTMENTS 641- COMM SVCS,,,,nysomh_mentalhealth,b921b1a0f94a1d37f00709711e25b352,98,,
ACMH SUPP HOUSING/PRISON RELEASE BEDS-COMM.SVCS,,,,nysomh_mentalhealth,f52daad62e424a93ac2ec56da4cdb8fd,98,,
ACMH SUPPORTED HOUSING 645 QUEENS - COMM SVCS,,,,nysomh_mentalhealth,629486f403f8dd41cf706a40c82f1ed7,98,,
ACMH SUPPORTED HOUSING 646 NY/NY III - COMM SVCS,,,,nysomh_mentalhealth,7ec185f2a625152f6e3a36d968301922,98,,
ACMH SUPPORTED HOUSING 647 - COMM SVCS,,,,nysomh_mentalhealth,59f00605b3c0015619567205f35ba2cf,98,,
ACMH TREATMENT APARTMENTS (ATA),,,,nysomh_mentalhealth,6f6ee7b3b32ae22ca0f6e0ea2e7ed5a7,98,,
ACMH/MARKUS GARDENS SUPP HOUSING SPSRO PROGRAM,,,,nysomh_mentalhealth,5fd1e841ed83738647646749645809bb,98,,
ADVOCACY/SUPPORT - HOTLINE NYC,,,MADISON SQUARE STATION,nysomh_mentalhealth,bb845836bc0d1a6bc6ea1b166f0d42dd,16,16,
AFFIRMATIVE BUSINESS BOOKSTORE,39-15A,BELL BOULEVARD,39-15A BELL BOULEVARD,nysomh_mentalhealth,bc56df8427d279ce7b9eec738749fe2b,00,42,
AMSTERDAM,,,,nysomh_mentalhealth,314029e66f713be60f4aacf16402727d,98,,
ANCHOR COMMUNITY RESIDENCE,,,,nysomh_mentalhealth,86e4e4a3e92afc53c48b587bd02aada1,98,,
APARTMENT PROGRAM,,,,nysomh_mentalhealth,8dd6122bd3a9dafa4a3b07d64bc0a805,98,,
APARTMENT TREATMENT PROGRAM,,,,nysomh_mentalhealth,47e6d08c4c04526110ea2d04b5c697c7,98,,
ARTHUR AVENUE RESIDENCES/THE SYDELLE,,,,nysomh_mentalhealth,86899ef06d4f38631f506a237c081010,98,,
AURORA COMMUNITY RESIDENCE,,,,nysomh_mentalhealth,9b00b1f9b0d45db75931750af7b9becd,98,,
AURORA HOUSE,,,,nysomh_mentalhealth,77e9143d0fd8680f790a7b89ea42c883,98,,
AUSTIN HOUSE,,,,nysomh_mentalhealth,891213a165e8766809cf6771fce00825,98,,
BASICS - BASICS SUPP HOUSING KINGS COUNTY - COMM SVCS,,,,nysomh_mentalhealth,57874b1a688f0dacd39e5260a8bf026a,98,,
BASICS SUPPORTED HOUSING/BRONX - COMM SVCS,,,,nysomh_mentalhealth,e041ce66b8432b82bc66b843ca515718,98,,
BASICS SUPPORTED HOUSING/QUEENS - COMM SVCS,,,,nysomh_mentalhealth,0744ad6237c8bbb5f63f8df97cc0b725,98,,
BCHS IVY HOUSE,,,,nysomh_mentalhealth,113ec11fed700bb985733c16440ce4e4,98,,
BCHS NY/NY CONGREGATE SUPPORTIVE HOUSING PROGRAM,,,,nysomh_mentalhealth,b5b5f3b16bf624ba768c113819ed258e,98,,
BCHS NYC DMH NY/NY I - CARLTON AVENUE SUPPORTED SRO,,,,nysomh_mentalhealth,2bdab09e303eb11d887b55cdd68fd980,98,,
BCHS SH/KINGS - NY/NY III (WORKFORCE RIV) - COMM. SVCS,,,,nysomh_mentalhealth,b942d1f8ad40ee4396ea852ea47e2883,98,,
BCHS SUPPORTED HOUSING - COMM. SVCS,,,,nysomh_mentalhealth,bbf27278da7e1f807832a52b0072b150,98,,
BCHS SUPPORTED HOUSING/200C KINGS COUNTY - COMM. SVCS,,,,nysomh_mentalhealth,531ff7ed82580d2ea601d6a767c47696,98,,
BCHS TRANSITIONAL APARTMENT SERVICES,,,,nysomh_mentalhealth,c15767e22fdbf142422fd6bce62a3552,98,,
BEACH 85TH STREET SP/SRO,,,,nysomh_mentalhealth,a95baec2816b30b87e086d63ca7aba19,98,,
BEACON KINGSBORO TREATMENT APARTMENT PROGRAM,,,,nysomh_mentalhealth,d265dac720beff6e876873e178e26ba7,98,,
BEACON OF HOPE #4,,,,nysomh_mentalhealth,ed0732c495bd179976b47daa25c80fcb,98,,
BEACON OF HOPE BRONX HOUSE I,,,,nysomh_mentalhealth,22f8d16473fe735be53063a6a19d9f74,98,,
BEACON OF HOPE BRONX HOUSE II,,,,nysomh_mentalhealth,3ff64d9750357c3bdcb2282f2b6dad8e,98,,
BEACON OF HOPE BRONX HOUSE III,,,,nysomh_mentalhealth,2d3e199b0e7c541ccd37736882a5336f,98,,
BEACON OF HOPE CARDINAL COOKE RESIDENCE,,,,nysomh_mentalhealth,c1b0c9bb3ea3e8283bd6d53751518d2e,98,,
BEACON OF HOPE HOUSE - SH/RICHMOND COUNTY - COMM. SVCS,,,,nysomh_mentalhealth,832b96be7e59d52f6155e1a624688f0f,98,,
BEACON OF HOPE HOUSE I,,,,nysomh_mentalhealth,d7ba67aff8f03f3a72028a0cde0e5fce,98,,
BEACON OF HOPE HOUSE II,,,,nysomh_mentalhealth,11acb691f0f87224e01bf26849dea153,98,,
BEACON OF HOPE HOUSE TREATMENT APARTMENTS,,,,nysomh_mentalhealth,020822b7e43e82a1e1400cda8bc8afe4,98,,
BEACON OF HOPE HOUSE-SH/BRONX COUNTY-COMM. SVCS.,,,,nysomh_mentalhealth,ddae89f8901167855d1143d1e1d340ec,98,,
BEACON OF HOPE HOUSE-SH/BRONX NY/NY-COMM. SVCS.,,,,nysomh_mentalhealth,ff4942862bd7d89c740b1ff1cc409b13,98,,
BEACON STATEN ISLAND TREATMENT APARTMENT PROGRAM,,,,nysomh_mentalhealth,f73e2321ddf8a06867d016e9c229f0df,98,,
BEHAVIORAL HEALTH CARE COORDINATION TRAINING,2180,THIRD AVENUE 119 STREET,2180 THIRD AVENUE @ 119TH STREET,nysomh_mentalhealth,bdd7e66a31596f302b3c1e3528723cbf,EE,EE,8
BERGEN SARATOGA APARTMENTS,,,,nysomh_mentalhealth,4407d0bf96ec4212dc58dcdec64f0e87,98,,
BETH ISRAEL MEDICAL CENTER CPEP,,16 STREET,FIRST AVENUE AT 16TH STREET,nysomh_mentalhealth,fc18ecc45dbe01a9952f15a4bce40f13,EE,EE,2
BFL EAST 139TH STREET SP/SRO,,,,nysomh_mentalhealth,a5d642a10378bafa72676d40ff421d87,98,,
BISHOP SULLIVAN,,,,nysomh_mentalhealth,552eb3bcea11722d66e75dc0b99868f2,98,,
BLACK VETS SUPP HOUSING/TRANSFORMATION SH KINGS - COMM SVCS,,,,nysomh_mentalhealth,9882596649309d6dd568c516b5aa3581,98,,
BLACK VETS SUPPORTED HOUSING-HIRE- HOMELESS REIN-COMM.SVCS.,,,,nysomh_mentalhealth,39692137f0121d8ecc5fe3d4b1046966,98,,
BLACK VETS SUPPORTED HOUSING/SH KINGS COUNTY - COMM SVCS,,,,nysomh_mentalhealth,1214182c187699f4d1ebd3ffd43e24b1,98,,
BONDING LINKS-ENLAZOS FAMILIARES COMMUNITY RESIDENCE,,,,nysomh_mentalhealth,3cf4f3d682e80131a80d0db7dde6c475,98,,
BRC CECIL IVORY HOUSE,,,,nysomh_mentalhealth,cd1de0da3e59c1175b070b98d2228360,98,,
BRC FULTON HOUSE,,,,nysomh_mentalhealth,01a495b179e711a8460ab41b6493f9af,98,,
BRC LOS VECINOS RESIDENCE,,,,nysomh_mentalhealth,aa56087851e3c25623e95cf7b96ed3cd,98,,
BRC METROPOLITAN APARTMENT PROGRAM,,,,nysomh_mentalhealth,e45f8c89817a62e64dbf2cb3ca528111,98,,
BRC NYC DMH NY/NY I - CLYDE BURTON SUPPORTED SRO,,,,nysomh_mentalhealth,4e85a829a6502af58f422509d31d4954,98,,
BRC NYC DMH NY/NY I - LOS VECINOS SUPPORTED SRO,,,,nysomh_mentalhealth,d2003371a32df9943f18e9e92e942467,98,,
BRC NYC DMH NY/NY I - SCATTERED SITE SROS - BRONX,,,,nysomh_mentalhealth,5cf9ecf383b8a2f942acf0b2ddd90aa9,98,,
BRC SUPPORTED HOUSING/BRONX I - COMM. SVCS,,,,nysomh_mentalhealth,34e6deb2a2406e37ff99cf69b230712c,98,,
BRC SUPPORTED HOUSING/BRONX II - COMM. SVCS,,,,nysomh_mentalhealth,57c3aebbdc6ec22174d6bf63d659158a,98,,
BRC SUPPORTED HOUSING/KINGS - COMM. SVCS,,,,nysomh_mentalhealth,7527e4b30e5171697870ac13c1d936a3,98,,
BRC SUPPORTED HOUSING/KINGS - NY/NY III - COMM. SVCS.,,,,nysomh_mentalhealth,0799515236c2ffeb052be952147b7093,98,,
BRC SUPPORTED HOUSING/NYNY III BRONX - COMM. SVCS,,,,nysomh_mentalhealth,f2d93bcd0db1a805406d7a556a3474ef,98,,
BRC SUPPORTED HOUSING/PC LONG STAY BRONX - COMM. SVCS,,,,nysomh_mentalhealth,4f8aba2f78e248a517417430512a690c,98,,
BRC SUPPORTED HOUSING/PC LONG STAY KINGS - COMM. SVCS,,,,nysomh_mentalhealth,f2373762cf18b62ec7b1d3d85ce42561,98,,
BRC SUPPORTED HOUSING/RCE NEW YORK SH - COMM SVCS,,,,nysomh_mentalhealth,721b9010e7756141a5d1216f073f9c20,98,,
BRIDGE - EAST RIVER HOUSE,,,,nysomh_mentalhealth,591c82f3f64162fd706dd2647b2b0c87,98,,
BRIDGE APARTMENT TREATMENT PROGRAM #1,,,,nysomh_mentalhealth,07e499f7dd9072af0eb17ca1376ba7b9,98,,
BRIDGE APARTMENT TREATMENT PROGRAM #2,,,,nysomh_mentalhealth,f85940bd3a562de5787a2cebf7ca66df,98,,
BRIDGE DOHMH 48 - SUPPORTED HOUSING - COMM. SVCS,,,,nysomh_mentalhealth,c47812e4c8734490cdc61ad59753d5f2,98,,
BRIDGE EAST HARLEM HOUSE,,,,nysomh_mentalhealth,79e1437dbcdc44e8b582a00d1f90803e,98,,
BRIDGE GARDENS,,,,nysomh_mentalhealth,90616c541491621d36b266afc45e96a9,98,,
BRIDGE HOUSE #10,,,,nysomh_mentalhealth,a13ec9ee33e37c19fa83c6540bc0d291,98,,
BRIDGE HOUSE #4 - EAST HOUSE,,,,nysomh_mentalhealth,5373af97f9c827f9db90d7bf00af8dc3,98,,
BRIDGE HOUSE #5 - MURRAY ITZKOWITZ HOUSE,,,,nysomh_mentalhealth,f49ac39f5c2c90a69eeb3755586b2951,98,,
BRIDGE HOUSE #6 - EAST HOUSTON HOUSE,,,,nysomh_mentalhealth,2dc662ca825bbf448066c154592b859c,98,,
BRIDGE HOUSE #7,,,,nysomh_mentalhealth,cf0064e42b9c4a5bf7942f84d6e65235,98,,
BRIDGE HOUSE #8,,,,nysomh_mentalhealth,b8bedc5cc5e4e76eff875708b5d3baff,98,,
BRIDGE HOUSE #9 - SHERIDAN HILL HOUSE (SP/SRO),,,,nysomh_mentalhealth,c38972b4e9679418295ed8c6d08e075b,98,,
BRIDGE IYANA HOUSE (SP/SRO) FORENSIC,,,,nysomh_mentalhealth,4bd156db1a90bf5d5a3a45d5ea3933d0,98,,
BRIDGE MANHATTAN GRADUATE SCATTERED SITE - NY - COMM. SVCS,,,,nysomh_mentalhealth,ee5185ff2addb6862b3c6c572d480524,98,,
BRIDGE OLD BROADWAY HOUSE,,,,nysomh_mentalhealth,5890306e5b26cb269dd5301d12e4be12,98,,
BRIDGE PARK WEST HOUSE,,,,nysomh_mentalhealth,3f4d06e85111c65b95e374fb2199225e,98,,
BRIDGE SH BRONX - NY/NY II DOHMH - COMM. SVCS,,,,nysomh_mentalhealth,4085f595c33cd1d0c75ddb793ccc06a0,98,,
BRIDGE SH PC LONG STAY BRONX PC/BRONX - COMM. SVCS,,,,nysomh_mentalhealth,a02df68a40047d1a65317244906097d7,98,,
BRIDGE SH PC LONG STAY ROCKLAND PC/NYC - COMM. SVCS,,,,nysomh_mentalhealth,029a038437484ad63674337b8170ecc5,98,,
BRIDGE SH/2005 INITIATIVE/BRONX - COMM. SVCS,,,,nysomh_mentalhealth,26a261d70138f9b5e73f9e5098102b9a,98,,
BRIDGE SH/BELMONT SUPP HOUSING NYNYIII - COMM. SVCS,,,,nysomh_mentalhealth,818297d5606c2c2bea713a0725b18005,98,,
BRIDGE SH/BRONX SCATTERED SITE 2009 - COMM. SVCS,,,,nysomh_mentalhealth,031cd5e1165dc2ed303e7c461994ad16,98,,
BRIDGE SH/HIGH NEEDS SUPP HSING MANHATTAN - COMM. SVCS,,,,nysomh_mentalhealth,3bd47d77402cca13096367ecdefdc6c1,98,,
BRIDGE SH/MANHATTAN NURSING HOME - COMM. SVCS,,,,nysomh_mentalhealth,5fe112c5f923cb749084a4b2cc41ed6f,98,,
BRIDGE SH/PLEASANT BRONX SH PROG - COMM. SVCS,,,,nysomh_mentalhealth,4377cf29c94aae997f0a7ecc8d4e6c94,98,,
BRIDGE SUPPORTED HOUSING/BRONX - NY/NY III - COMM. SVCS,,,,nysomh_mentalhealth,331120a69488d8b3b13ff9f696c3a39b,98,,
BRIDGE SUPPORTED HOUSING/BRONX FORENSIC SH - COMM. SVCS,,,,nysomh_mentalhealth,939683dacc4ccddb91029fd87a9dec5f,98,,
BRIDGE SUPPORTED HOUSING/EAST 6TH ST. MANHATTAN - COMM. SVCS,,,,nysomh_mentalhealth,0c230ea88606952cf306e0739c48b3cf,98,,
BRIDGE SUPPORTED HOUSING/PC LONG STAY BRONX - COMM. SVCS,,,,nysomh_mentalhealth,37cf2bd68229245a68d8d58e770bc184,98,,
BRIDGEHAVEN COMMUNITY RESIDENCE,,,,nysomh_mentalhealth,c9baf069dd80f7163a42ae382db3f6c1,98,,
BRIGHT CORNER RESPITE,,,,nysomh_mentalhealth,84b3256f276746c5c796946b6361537f,98,,
BROADWAY SP/SRO,,,,nysomh_mentalhealth,a66d79d3f1ac34b16e5efc30b95b0558,98,,
BRONX PARK EAST SP/SRO,,,,nysomh_mentalhealth,6de973834071d056b9577a1813e09cda,98,,
BRONX TRANSITIONAL LIVING RESIDENCE I,,,,nysomh_mentalhealth,19d0e0c5d921ceaae0de9284fcea4212,98,,
BRONX TRANSITIONAL LIVING RESIDENCE II,,,,nysomh_mentalhealth,089dbfd27d795772f96f3a253a64d655,98,,
BROOKDALE HOSPITAL CMHC CHILD CLINIC,,LINDEN BOULEVARD BROOKDALE PLAZA,LINDEN BOULEVARD & BROOKDALE PLAZA,nysomh_mentalhealth,592de2d577b76449a4b1fbb52b2d3038,EE,EE,A
BROOKDALE HOSPITAL INPATIENT UNIT,,LINDEN BOULEVARD BROOKDALE PLAZA,LINDEN BOULEVARD & BROOKDALE PLAZA,nysomh_mentalhealth,cec886510c58029e10de0eaed87d6e94,EE,EE,A
BROOKLYN APARTMENT PROGRAM,,,,nysomh_mentalhealth,c898c9a23c853a803f51d57e2cfaa326,98,,
BROOKLYN COMMUNITY RESPITE PROGRAM,,,,nysomh_mentalhealth,40de1af5bbc40f975b522e14699ff05b,98,,
BROWNSVILLE CCR,,,,nysomh_mentalhealth,bd398dfb863a9653c5ac5fb2001fdf8c,98,,
BRUNER AVENUE COMMUNITY RESIDENCE,,,,nysomh_mentalhealth,edf3522b51df923a609d353df8f0eb69,98,,
BURNSIDE COMMUNITY RESIDENCE,,,,nysomh_mentalhealth,f84359ec2026d494be658a9faa05244f,98,,
CAMBA  EAST 131ST STREET SP/SRO,,,,nysomh_mentalhealth,ba041f1179fabe5ccc67992db760fe16,98,,
CAMBA CITYWIDE SUPPORTIVE HOUSING - COMM SVCS,,,,nysomh_mentalhealth,5eb8e2ddffd2d86303c8bdcdd2000d1d,98,,
CAMBA DUMONT AVE RESIDENCES SP/SRO,,,,nysomh_mentalhealth,29713edaa0d32cc12de037e861e34016,98,,
CAMBA GARDENS II (PK 24340),,,,nysomh_mentalhealth,a03bbfcb01795e9398cc1d11e9eb89fc,98,,
CAMBA GARDENS II SP/SRO,,,,nysomh_mentalhealth,7509091e2edbd0000eda74af39e1c4c3,98,,
CAMBA HIGH SERVICE NEEDS CONGREGATE SUPPORTIVE HOUSING,,,,nysomh_mentalhealth,c0d7fffec38772b3fa1175ddb2de9927,98,,
CAMBA HIGH SERVICE NEEDS I (CONGREGATE),,,,nysomh_mentalhealth,863981b9bc5dc550840c33c202f86f1c,98,,
CAMBA HIGH SERVICE NEEDS II CONGREGATE,,,,nysomh_mentalhealth,30cf1c0484656045c97adf52c686905b,98,,
CAMBA HIGHBRIDGE OVERLOOK SP/SRO,,,,nysomh_mentalhealth,367958dc240538ecf226a96c70a84050,98,,
CAMBA KING GARDENS SP/SRO,,,,nysomh_mentalhealth,900dcf272e88a1e61cef3dfd97e326b9,98,,
CAMBA PUTNAM COURT SP-SRO,,,,nysomh_mentalhealth,009ca9873c324de0c2bfcf0d80a5b8f7,98,,
CAMBA SUPPORTED HOUSING/KINGS - NY/NY III - COMM. SVCS.,,,,nysomh_mentalhealth,70e464cafa756eb5f509c9b919d6df98,98,,
CAMBA SUPPORTED HOUSING/KINGS COUNTY - COMM. SVCS,,,,nysomh_mentalhealth,85da20b06942d3a74a8605d7214e24ce,98,,
CAMBA SUPPORTED HOUSING/PC LONG STAY KINGS - COMM. SVCS,,,,nysomh_mentalhealth,3d3cacea2eb2a27291f638f89d9d5cd7,98,,
CAROLINE K. SIMON COMMUNITY RESIDENCE,,,,nysomh_mentalhealth,b1430b13e33e883d12299ac7878c265a,98,,
CASA RENACER,,,,nysomh_mentalhealth,4862fa3bd1338c8e90edff604e91d8f3,98,,
CBHS SUPPORTED HOUSING/KINGS - COMM. SVCS,,,,nysomh_mentalhealth,2bc192b495f1838d530424562785392b,98,,
CBHS SUPPORTED HOUSING/NY NY III KINGS - COMM. SVCS,,,,nysomh_mentalhealth,ce5971d628e16f676bd74b060c2bb9c5,98,,
CBHS SUPPORTED HOUSING/PC LONG STAY KINGS - COMM. SVCS,,,,nysomh_mentalhealth,a2fdd17d705fd436f3c0edf4855baa56,98,,
CCM RUBY'S PLACE SP/SRO,,,,nysomh_mentalhealth,e38049f72b9991d0e61e0147140e7153,98,,
CCNS BROOKLYN COMMUNITY LIVING PROGRAM,,,,nysomh_mentalhealth,0df7d63d3fbb4962013525ec2b9ed319,98,,
CCNS JAMAICA COMMUNITY LIVING PROGRAM,,,,nysomh_mentalhealth,99b89a45c47c4eeb2f8072d0fcdb2cef,98,,
CCNS NYC DMH NY/NY I - CLASSON SUPPORTED SRO (MERCY GARDENS),,,,nysomh_mentalhealth,2e8145936d381d851c9cd962732981fd,98,,
CCNS NYC DMH NY/NY I - MADISON/GRAHAM/DEAN SUPPORTED SROS,,,,nysomh_mentalhealth,90e55f211abb5436ccb6aa73330067f4,98,,
CCNS QUEENS COMMUNITY LIVING PROGRAM,,,,nysomh_mentalhealth,528b981e7f11d457c4d3c8ea96c40673,98,,
CCNS SH PC LONG STAY CREEDMOOR PC/QUEENS CTY-COMM SVCS,,,,nysomh_mentalhealth,be0b28e829797baf87e7633881d09e2d,98,,
CCNS SH PC LONG STAY KINGSBORO PC/KINGS CTY-COMM SVCS,,,,nysomh_mentalhealth,57f26cd8569c7b0d3110b49b8ec40b16,98,,
CCNS SUPPORTED HOUSING/CENTRAL BROOKLYN-COMM.SVCS.,,,,nysomh_mentalhealth,5bc2c0fcdb00aaf1bf8c781255c52e54,98,,
CCNS SUPPORTED HOUSING/KINGS COUNTY-COMM.SVCS.,,,,nysomh_mentalhealth,4fb5df6e4dbe34a39d9e15ba36e562f2,98,,
CCNS SUPPORTED HOUSING/MRT BROOKLYN - COMM SVCS,,,,nysomh_mentalhealth,bfa67d21af406dca3062ce74c55e3dbd,98,,
CCNS SUPPORTED HOUSING/NY NY III QUEENS COUNTY-COMM SVCS,,,,nysomh_mentalhealth,bd329e5ca05d8a5f71e0bc4161539759,98,,
CCNS SUPPORTED HOUSING/PC LONG STAY QUEENS - COMM. SVCS.,,,,nysomh_mentalhealth,4b3fb3d61d3c422290f900c4b7d121cc,98,,
CCNS SUPPORTED HOUSING/QUEENS COUNTY-COMM.SVCS.,,,,nysomh_mentalhealth,58f8717d32bf6238083a22301c676732,98,,
CECIL HDFC,,,,nysomh_mentalhealth,b2822b9527305a753d0dbab4f0a39eaa,98,,
CEDAR AVENUE,,,,nysomh_mentalhealth,08ea556ebf25c6e875bbdeb45d4743d9,98,,
CHAIT HOUSE,,,,nysomh_mentalhealth,e1ed06b54c33bf22c4f476e57b72e91b,98,,
CHAIT RESIDENCE,,,,nysomh_mentalhealth,cac26bc423c4fdd7359662ca52902bb3,98,,
CHELSEA RESIDENCE SRO,,,,nysomh_mentalhealth,81e1e09f8e451162282c27754cb212a0,98,,
CLUSTER HOUSE,,,,nysomh_mentalhealth,1d27446c5d3229eae62f04b303988f41,98,,
COLLEGE AVENUE SRO,,,,nysomh_mentalhealth,5ca6b104b19409108d875e0b256e8df8,98,,
COLUMBA SERVICES INC,,,,nysomh_mentalhealth,735d3f3012e3e69ee80c91df8573e6f0,98,,
COLUMBIA STREET SP/SRO,,,,nysomh_mentalhealth,d25654fcde2995eb8c8feba8a2cad120,98,,
COMM ACCESS NYC DMH - DEKALB SRO,,,,nysomh_mentalhealth,858c9348635e4f98277bad840e08921e,98,,
COMM ACCESS NYC DMH - FRANKLIN AVENUE SRO,,,,nysomh_mentalhealth,3f17a01d5797acedcda5833b551717a0,98,,
COMM ACCESS NYC DMH - REV. JAMES A. POLITE SRO,,,,nysomh_mentalhealth,48f11b4d91ab533c6bd3e3a2ad074466,98,,
COMM ACCESS NYC DMH - SUPPORTED HOUSING II (108TH ST),,,,nysomh_mentalhealth,971a6229bdbe7c1e051fc2112e30781c,98,,
COMM ACCESS NYC DMH - TINTON AVENUE SRO,,,,nysomh_mentalhealth,02c7d8b7f148fb382e50581a08187eaf,98,,
COMM ACCESS NYC DMH NY/NY I - AVENUE D SUPPORTED SRO,,,,nysomh_mentalhealth,546c024406b9d4041bdc14e8081cba30,98,,
COMM ACCESS NYC DMH NY/NY I-WATER ST SRO (GOUVERNEUR COURT),,,,nysomh_mentalhealth,8b6e2f972968816a89d5342b93a23bbc,98,,
COMMONWEALTH VETERAN'S RESIDENCE,,,,nysomh_mentalhealth,681cff1e0ce96917290808905d166806,98,,
COMMUNITY ACCESS - EAST SECOND STREET SP/SRO,,,,nysomh_mentalhealth,e3d1365e36e63b6338b88efa91cbbff2,98,,
COMMUNITY ACCESS - LIBBY HOUSE,,,,nysomh_mentalhealth,c94a455e56441a798449c0044d90eded,98,,
COMMUNITY ACCESS - SUPP HOUSING OMH I/NEW YORK - COMM. SVCS.,,,,nysomh_mentalhealth,5364b05991c8bebdba4841f4a8326ba0,98,,
COMMUNITY ACCESS - TREATMENT APARTMENT PROGRAM I,,,,nysomh_mentalhealth,7e308c254a62e12647548edcab158792,98,,
COMMUNITY HOUSE,,,,nysomh_mentalhealth,defeba06d736f70202cd87f6b1d92010,98,,
COMULILIFE SUPPORTED HOUSING/BROOKLYN - COMM SVCS,,,,nysomh_mentalhealth,cd2a4520a21ff3bd94342fc6bcd8cd2f,98,,
COMUNILIFE BURNSIDE WALTON SPSRO,,,,nysomh_mentalhealth,8969464de7ee58b71206222e92f3bb4e,98,,
COMUNILIFE EL RIO SP/SRO,,,,nysomh_mentalhealth,c7657fc3e22ca1dbde045e5962434c4f,98,,
COMUNILIFE SUPP HOUSING/HIGH NEEDS SH MANHATTAN - COMM. SVCS,,,,nysomh_mentalhealth,1d524496610e13ae6a3d1bbc33819c80,98,,
COMUNILIFE SUPP HOUSING/RCE SH NEW YORK - COMM SVCS,,,,nysomh_mentalhealth,a75570baa7eb0e8cbc9aa025ea658e60,98,,
COMUNILIFE SUPPORTED HOUSING/ADULT HOMES - COMMUNITY SVCS,,,,nysomh_mentalhealth,83bf4ce3062eb3847a8092bea841061c,98,,
COMUNILIFE SUPPORTED HOUSING/ADULT HOMES SH QUEENS-COMM SVCS,,,,nysomh_mentalhealth,3a5d1ae9f95d7def0b37d90b2e5c7c05,98,,
COMUNILIFE SUPPORTED HOUSING/BRONX - COMMUNITY SERVICES,,,,nysomh_mentalhealth,beaae3763fc9cb0e2639e078bb803442,98,,
COMUNILIFE SUPPORTED HOUSING/BRONX - NY/NY III - COMM. SVCS.,,,,nysomh_mentalhealth,ac749d54b6edeb18fa5dc48832454d9f,98,,
COMUNILIFE SUPPORTED HOUSING/MRT SH BROOKLYN - COMM. SVCS,,,,nysomh_mentalhealth,6386e842e6e15d5f48a0a1b21eab4184,98,,
COMUNILIFE SUPPORTED HOUSING/QUEENS - COMMUNITY SERVICES,,,,nysomh_mentalhealth,e0eb0f02d8d0cdfd17e6372bd3030640,98,,
COMUNILIFE WEST 173RD STREET RESIDENCE,,,,nysomh_mentalhealth,448c24309777a04464bd5a52856c6969,98,,
COMUNILIFE WEST 173RD STREET RESIDENCE 2,,,,nysomh_mentalhealth,78c70be8dbc8db4de6d8304185a82e54,98,,
CONCERN - MACDOUGAL,,,,nysomh_mentalhealth,e3284443024037908f65c8a5db72d2bb,98,,
CONCERN BERGEN,,,,nysomh_mentalhealth,c926fe65e71910caffea45f72827ebc0,98,,
CONCERN EAST NY AVENUE SP/SRO,,,,nysomh_mentalhealth,ed04f9c6d1bbf26c9c52271910947b7e,98,,
CONCERN ROCHESTER,,,,nysomh_mentalhealth,d665d4464f27d5ad43f0c28b05f00585,98,,
CONCERN SUPPORTED HOUSING/PC LONG STAY KINGS CO. - COMM SVCS,,,,nysomh_mentalhealth,19160ce64f07f6151f98f755bc8145e6,98,,
CONEY ISLAND COMMUNITY RESIDENCE,,,,nysomh_mentalhealth,e86394601d49509b35828dde3c99db3d,98,,
CONVENT AVENUE RESIDENCE,,,,nysomh_mentalhealth,0f7d66765433ecaf0b71515ced815065,98,,
CREEDMOOR GATEWAY TRANSITIONAL RESIDENCE,,,,nysomh_mentalhealth,33e5ddd2edfd66904beb0a65c8f1af9c,98,,
CREEDMOOR OAK HOUSE COMMUNITY RESIDENCE,,,,nysomh_mentalhealth,a63c31e4e4f2e6834748663e4c5d2495,98,,
CREEDMOOR STEPPING STONES TRANSITIONAL RESIDENCE,,,,nysomh_mentalhealth,3add19d09c02c08fc763882178f01872,98,,
CRISIS RESIDANCE,,,,nysomh_mentalhealth,858b8b97e0f754720966a1cb09dc0cd5,98,,
CRISIS RESIDENCE,,,,nysomh_mentalhealth,ce9d378499e4865f3e0210fda6114d47,98,,
CROTONA CR,,,,nysomh_mentalhealth,99ee1b844850e4f6b0f9275758d48c00,98,,
CROTONA PARK EAST SUPPORTED HOUSING - COMM. SVCS,,,,nysomh_mentalhealth,81c45892b079aad2b19234f3b896b439,98,,
CROTONA PARK SP/SRO,,,,nysomh_mentalhealth,5196c7914a9bf695a0a76db8bd9dd5b4,98,,
CROTONA PARK WEST - PAIGE APARTMENTS,,,,nysomh_mentalhealth,c164f6d6ab1f41136a15e5a63b548bed,98,,
CUCS NYCDMH NY/NY I UPTOWN SUPPORTED SROS,,,,nysomh_mentalhealth,7da35906040a16d018da0768e3b371d7,98,,
CUCS PRINCE GEORGE HOTEL SP/SRO,,,,nysomh_mentalhealth,9cad683a94e095ea21a3d7feae42c3b3,98,,
CUCS SUPP HOUSING/HIGH NEEDS SH MANHATTAN-COMM SVCS,,,,nysomh_mentalhealth,c08e0c0f335b20b3ea6c5faedb906f39,98,,
CUCS THE CHRISTOPHER SUPPORTED SRO,,,,nysomh_mentalhealth,80dfa8fa054de6ea0daf2ba27fd92f37,98,,
CUCS TIMES SQUARE HOTEL SP/SRO,,,,nysomh_mentalhealth,01f3bb9e2675f2694522a08119b656b9,98,,
DAVIDSON AVENUE,,,,nysomh_mentalhealth,064d5ae27703c8e902297c7d201ecc72,98,,
DEWITT DOHMH I SP/SRO,,,,nysomh_mentalhealth,ce2840801265be756123c7029beb1a5d,98,,
DEWITT DOHMH II SP/SRO,,,,nysomh_mentalhealth,62bef040865cefbfdb75c2abf318bb84,98,,
DMH SCATTERED SITE-COMM.SVCS,,,,nysomh_mentalhealth,6b1642502471ed88d75df9f3bc3e91de,98,,
DOHMH ONE TWENTIES CLUSTER,,,,nysomh_mentalhealth,2310f80d7d14dce65731ccbf765c4e02,98,,
DOMENECH,,,,nysomh_mentalhealth,084de539e3fdd57cb6be289c439198a1,98,,
DURYEA PLACE CR/SRO - YOUNG ADULT,,,,nysomh_mentalhealth,202cc2b4642054b8689486a1905d3637,98,,
EAST 119TH STREET VETERANS' RESIDENCE,,,,nysomh_mentalhealth,bfd8e7b5994f355f0ec85e0742f7ae6b,98,,
EAST 11TH ST,,,,nysomh_mentalhealth,327b3bff7b8a879706de9a532a85cdbc,98,,
EAST 12TH STREET SRO,,,,nysomh_mentalhealth,f8a52c80d675a38ab0e722c020049241,98,,
EAST 165TH STREET SP/SRO,,,,nysomh_mentalhealth,ec00fa971dc1ef3b78ad9976e690d93e,98,,
EAST BROADWAY RESIDENCE,,,,nysomh_mentalhealth,782b7d26aa602bfca6823d69b6ff9013,98,,
ECHO PLACE SP/SRO,,,,nysomh_mentalhealth,3474c8646da1db7cd5e23b1aef448c59,98,,
FACES NY SUPPORTED HOUSING/NY - COMM. SVCS,,,,nysomh_mentalhealth,eaa276316e0f33c51d609a3c7551b664,98,,
FAR ROCKAWAY SRO/CR,,,,nysomh_mentalhealth,3f963fb26334b7883ae2b3398c662541,98,,
FED OF ORG SUPP HOUSING/ADULT HOME SH QUEENS - COMM. SVCS,,,,nysomh_mentalhealth,aa83e9fa080a15d1c4ca5ea8c612f9bb,98,,
FED OF ORG SUPP HOUSING/FORENSIC BRONX SPPCSH - COMM SVCS,,,,nysomh_mentalhealth,b1601ed0e2bec15bbf1dff9901bb2e05,98,,
FED OF ORG SUPP HOUSING/FORENSIC KINGS SPPCSH - COMM SVCS,,,,nysomh_mentalhealth,ff7b7e36eb6435b59336c3fcc75bc426,98,,
FED OF ORG SUPP HOUSING/FORENSIC MANHATT SPPCSH - COMM SVCS,,,,nysomh_mentalhealth,4b23f058fb70fda65d93274f26385e08,98,,
FED OF ORG SUPP HOUSING/TRANSFORMATION SH CPC - COMM SVCS,,,,nysomh_mentalhealth,7d15e1df842e95a3e6d95a64d11c73f2,98,,
FED OF ORG SUPP HOUSING/TRANSFORMATION SH KPC - COMM SVCS,,,,nysomh_mentalhealth,d60a145f6565f4cd796f2f567147a9b5,98,,
FED OF ORG SUPPORTED HOUSING/FORENSIC SH - COMM SVCS,,,,nysomh_mentalhealth,0e570829c58b26c0d5eabe9240b76510,98,,
FED OF ORG SUPPORTED HOUSING/NYNY III QUEENS - COMM SVCS,,,,nysomh_mentalhealth,dd5a4fb3a735e999e20156be90c7a00c,98,,
FED OF ORG SUPPORTED HOUSING/QUEENS - COMM. SVCS,,,,nysomh_mentalhealth,12de70dd66b5462582ecd59da8db5c95,98,,
FED OF ORG SUPPORTED HOUSING/SH BRONX - COMM SVCS,,,,nysomh_mentalhealth,e42b9e44ed176651491395afaac4ff7c,98,,
FED OF ORG SUPPORTED HOUSING/SH BROOKLYN COMM SVCS,,,,nysomh_mentalhealth,b6cc6edecfcac0b4cfa82179150722bd,98,,
FLETCHER RESIDENCE,,,,nysomh_mentalhealth,d2aa601c9aea43ae188458c6f75d128e,98,,
FLOSSIE WILSON APARTMENTS,,,,nysomh_mentalhealth,59b99b1ad812d5e6a09b3a39bba87779,98,,
FLUSHING HOSPITAL PSYCHIATRIC INPATIENT UNIT,,AVENUE AT PARSONS BOULEVARD,45TH AVENUE AT PARSONS BLVD,nysomh_mentalhealth,309c0d8a9ce9b99bf58377cf82d1ea9c,EE,EE,A
FORDHAM VILLAGE,,,,nysomh_mentalhealth,7f7653e563290ef7cb02e5eafb030dcf,98,,
FOUNTAIN HOUSE INDEPENDENT LIVING CENTER FOR THE ELDERLY,,,,nysomh_mentalhealth,0be2cee21b13b25b5044de119f1430ba,98,,
FOUNTAIN HOUSE SUPPORTED HOUSING/BRONX - COMM. SVCS,,,,nysomh_mentalhealth,7d9d17d63ec07e3a3c0a4540dbbd8d30,98,,
FOUNTAIN HOUSE SUPPORTED HOUSING/KINGS - COMM. SVCS,,,,nysomh_mentalhealth,837c11e0d34fef69ce5b30a9fb692518,98,,
FOUNTAIN HOUSE SUPPORTED HOUSING/NEW YORK - COMM. SVCS,,,,nysomh_mentalhealth,83c3efa2e7e6b6d48da25f676afaf007,98,,
FOUNTAIN HOUSE SUPPORTED HOUSING/QUEENS - COMM. SVCS,,,,nysomh_mentalhealth,b8fd938967f169b8dcca7260c558633d,98,,
FOUNTAIN HOUSE SUPPORTED SRO/WEST 37TH STREET SP/SRO,,,,nysomh_mentalhealth,90c27769c6caf1f665af1b64863c9b63,98,,
FOUNTAIN HOUSE TREATMENT APARTMENT,,,,nysomh_mentalhealth,55485f6f80535b3b03c814874d621b92,98,,
FOUNTAIN HOUSE WANAQUE RESIDENCE,,,,nysomh_mentalhealth,d4fe758ec87d93b0e99ce11ef43716db,98,,
FOUNTAIN WEST SIDE CONTINUING CARE RESIDENCE,,,,nysomh_mentalhealth,81896ca8c301eb3ae79de0d778009d50,98,,
FRANK PADAVAN 6TH STREET RESIDENCE,,,,nysomh_mentalhealth,8da00923ef468f3c28bd3aedb67f511f,98,,
FREE SUPP HOUSING/FORENSIC SPPCSH SOUTH BEACH - COMM SVCS,,,,nysomh_mentalhealth,9b1bf266d6bf1deec077cfaff04d66e9,98,,
GARDEN HOUSE,,,,nysomh_mentalhealth,c7c434f9614e74a2e7efa49a66934e0d,98,,
GARDEN HOUSE CRISIS AND TRANSITIONAL HOUSING,,,,nysomh_mentalhealth,386bbea27037bf9d27d17ca8cff59c26,98,,
GEEL APARTMENT TREATMENT PROGRAM,,,,nysomh_mentalhealth,4a43d44b38159d914fb086a253de3b73,98,,
GEEL COMMUNITY UNION AVENUE - HDFC,,,,nysomh_mentalhealth,7a40f9512814b8b57ed32b084e5afae3,98,,
GEEL EAST 162ND STREET HDFC SUPPORTED SRO,,,,nysomh_mentalhealth,20094da3cd70bde533a5c4513c7846f8,98,,
GEEL GRAND AVENUE NY NY III,,,,nysomh_mentalhealth,9ec3df2f708f9a0861af96fe4d32693b,98,,
GEEL SCATTERED SUPPORTED HOUSING/BRONX - COMM. SVCS,,,,nysomh_mentalhealth,ab84bef48f1e219258a185f32d2d4f22,98,,
GEEL SUPPORTED HOUSING/BRONX (NY/NY II) - COMM. SVCS,,,,nysomh_mentalhealth,63e92d474c6fe5729097c850a03ddbba,98,,
GEEL SUPPORTED HOUSING/EAST 182ND ST. BRONX - COMM. SVCS,,,,nysomh_mentalhealth,8fb0bbf1c08f3524fb06b6ee44270711,98,,
GENESIS SUPPORTED HOUSING SP/SRO,,,,nysomh_mentalhealth,1105d82103cef6d0652fd942ca4d18eb,98,,
GEORGIA'S PLACE HOUSING,,,,nysomh_mentalhealth,4c6e833aa478e61a166627c495537fbf,98,,
GODDARD NYC DMH NY/NY I - CORNER HOUSE SUPPORTED SRO,,,,nysomh_mentalhealth,891321292a7c4868091e174bc482a54e,98,,
GODDARD WEST 140TH STREET - SP/SRO,,,,nysomh_mentalhealth,38e7001472185c7728adf2dfa67fe3c4,98,,
GOODWILL SH/QUEENS (ASAP) - NY/NY III - COMM. SVCS,,,,nysomh_mentalhealth,b141c6e17c3e4aa629196b9226a83924,98,,
GOUVERNEUR PLACE,,,,nysomh_mentalhealth,e3a69e5dd45ecaa6a0f8b97242dce955,98,,
GRAND AVENUE STUDIO APARTMENTS,,,,nysomh_mentalhealth,223b0ed0159b0e88dad115e0746f905f,98,,
HAMILTON-MADISON HOUSE SUPP HOUSING QUEENS - COMM. SVCS,,,,nysomh_mentalhealth,63c9ef19c2b76fa0d19408048c5312a0,98,,
HARVEY TOMPKINS RESIDENCE,,,,nysomh_mentalhealth,bf0f3c890a661f6b1bf95d9c24437b02,98,,
HAVEN APARTMENTS,,,,nysomh_mentalhealth,51138e2ed4416b3fa70d64e486c4960c,98,,
HAZEL HOUSE,,,,nysomh_mentalhealth,11123460e7cdd7e5c6e2a5d18a5aca23,98,,
HEALTH HOME CARE MANAGEMENT,73-04,COMMONWEALTH BOULEVARD,73-04 COMMONWEALTH BOULEVARD,nysomh_mentalhealth,a5ed2c135b794c12bc7bcd96867d4b7e,42,42,
HEGEMAN RESIDENCE,,,,nysomh_mentalhealth,5a3466db6f1660b8fad88c3cd4187246,98,,
HENRY STREET SETTLEMENT - SUPPORTED HOUSING-COMM.SVCS.,,,,nysomh_mentalhealth,5ec123fe2c5c0d181e945d776a901b2f,98,,
HERKIMER STREET RESIDENCE,,,,nysomh_mentalhealth,b56d7ee3b63a9fec939ae261c7d63e96,98,,
HHC BELLEVUE HOSPITAL CENTER - HH CM,,27 ST FIRST AVENUE,27TH ST & FIRST AVENUE,nysomh_mentalhealth,cbce6a5d815df57a4fab9a54d3ac5511,EE,EE,3
HHC BELLEVUE HOSPITAL CENTER - HH NONMED CM,,27 ST FIRST AVENUE,27TH ST & FIRST AVENUE,nysomh_mentalhealth,6aea6ff6a7cd0ba3925d2aa0a7b20937,EE,EE,3
HILBERT W. EHRLICH RESIDENTIAL PROGRAM,,,,nysomh_mentalhealth,fea85c9decdf7d401a14d614a825ac69,98,,
HM SH PC LONG STAY CREEDMOOR PC/QUEENS CTY - COMM. SVCS,,,,nysomh_mentalhealth,8ed1a32f7ce54132b397f057a1d0596c,98,,
HM SH PC LONG STAY SOUTH BEACH PC/RICHMOND CTY - COMM. SVCS,,,,nysomh_mentalhealth,f71d30546eb2447bcca79f720d014c69,98,,
HOGAR ARIEL,,,,nysomh_mentalhealth,6562df08f6a8230dde0eb23e210c740e,98,,
HOGAR SH PC LONG STAY BRONX PC/BRONX CTY-COMM SVCS,,,,nysomh_mentalhealth,4bf11548b17bcf56b1c321006974268f,98,,
HOGAR SUPP HOUSING/RCE BRONX SH - COMM SVCS,,,,nysomh_mentalhealth,46061ca5aab653933a3abe5eb4f8c5e3,98,,
HOGAR SUPPORTED HOUSING/BRONX - NY/NY III-COMM. SVCS.,,,,nysomh_mentalhealth,d81667dc5fdffc691f9e70506da25fe1,98,,
HOGAR SUPPORTED HOUSING/BRONX-COMM.SVCS.,,,,nysomh_mentalhealth,82bf168c7c210ddbaf9f3f64999c5be3,98,,
HOGAR SUPPORTED HOUSING/PC LONG STAY BRONX - COMM. SVCS.,,,,nysomh_mentalhealth,063157935a73a21206886ed2ebaec498,98,,
HOME BASED CRISIS INTERVENTION PROGRAM,,27 ST FIRST AVENUE,27TH ST & FIRST AVENUE,nysomh_mentalhealth,36153e96affcc36514db9d91a84ca218,EE,EE,3
HOMEWORKS SUPPORTED HOUSING/BRONX-COMM.SVCS.,,,,nysomh_mentalhealth,9800730fb22472266896f72791dd56ef,98,,
HOMEWORKS SUPPORTED HOUSING/BROOKLYN-COMM.SVCS.,,,,nysomh_mentalhealth,53e0038f0520bb5a72aebb005e2f135b,98,,
HONEYWELL RESIDENCE SUPPORTED HOUSING,,,,nysomh_mentalhealth,3f3d8c1f4d18f2d65fa8a97a40608cf4,98,,
HUDSON COMMUNITY RESIDENCE,,,,nysomh_mentalhealth,3cd3b0e92d191065dc092a210bdbf21f,98,,
HUGHES AVENUE SRO,,,,nysomh_mentalhealth,e20b86cadbc8b2574d128a3caf59684b,98,,
HULL AVE,,,,nysomh_mentalhealth,0d07e31cfebbf4623ad99ddf7640614e,98,,
HUNTERFLY TRACE,,,,nysomh_mentalhealth,4e5287bed3e63c6a9907d840dfe26ee1,98,,
HUNTERSMOON HALL,,,,nysomh_mentalhealth,121a9dc844607881ca1b0e1417c3d13b,98,,
ICL - LEWIS AVENUE RESIDENCE,,,,nysomh_mentalhealth,0d9e1c8b2c4c63b56eebd0184631a5eb,98,,
ICL BROADWAY COMMUNITY RESIDENCE/SINGLE ROOM OCCUPANCY,,,,nysomh_mentalhealth,728213181a524ed1999fe64b2e0aadd7,98,,
ICL EASTERN PARKWAY RESIDENCE,,,,nysomh_mentalhealth,538e07ebf9130e77819751b9a495240c,98,,
ICL EMERSON FAMILY DEVELOPMENT CENTER,,,,nysomh_mentalhealth,429b2dedd5eb0fee7f09620551958e5b,98,,
ICL HALSEY HOUSE,,,,nysomh_mentalhealth,9821883c7980efa67cf0dca33dc07dae,98,,
ICL PROSPECT HOUSE,,,,nysomh_mentalhealth,e8fd8b2322262ac6b29d8b4b671a3924,98,,
ICL SH PC LONG STAY MANHATTAN PC/NEW YORK - COMM. SVCS,,,,nysomh_mentalhealth,6451e8662558b90e4e9ca9334f108872,98,,
ICL SH PC LONG STAY ROCKLAND PC/NEW YORK - COMM. SVCS,,,,nysomh_mentalhealth,1fa93b4b04a2d40fd18f195bf719c4f1,98,,
ICL SH/BROOKLYN ST MARKS III PC LS KINGS - COMM SVCS,,,,nysomh_mentalhealth,d8fae89e7d773fdb4cf9928399fd704c,98,,
ICL SH/QUEENS MILESTONE SUPP HOUSING - COMM SVCS,,,,nysomh_mentalhealth,6fd5c1bf9b489e04c5627245fe65b302,98,,
ICL ST. MARK'S RESIDENCE I,,,,nysomh_mentalhealth,aac0e7fbc1293e5f91e4f974957b4418,98,,
ICL ST. MARK'S RESIDENCE II,,,,nysomh_mentalhealth,b79363c26dd998b3c9c7a6904e70ae77,98,,
ICL STATE STREET RESIDENCE,,,,nysomh_mentalhealth,8a97e0621614574ee165c59d23fa419b,98,,
ICL SUPP HOUSING/SH CL FORENSIC KINGS CTY - COMM SVCS,,,,nysomh_mentalhealth,2bfd6e388ffb844776bb561cf2ec49c1,98,,
ICL SUPP HOUSING/SUPP HOUSING CL KINGS CTY - COMM SVCS,,,,nysomh_mentalhealth,69abbf28ff38fce72ba2f45efcfd0300,98,,
ICL SUPP HSING/ADULT HOME SH BROOKLYN QUEENS-COMM SVCS,,,,nysomh_mentalhealth,9afd2d455bacb84f074847f0a36bb816,98,,
ICL SUPPORTED HOUSING FORENSIC/BROOKLYN - COMM SVCS,,,,nysomh_mentalhealth,579c6e279735ade5b24c7d84545bf07b,98,,
ICL SUPPORTED HOUSING/BROOKLYN NURSING HOME - COMM SVCS,,,,nysomh_mentalhealth,5380ce9146fd211b957816df3b56bd3f,98,,
ICL SUPPORTED HOUSING/MRT SUPP HSING BROOKLYN - COMM SVCS,,,,nysomh_mentalhealth,c2a4e49c6852b6460facd9773f247d64,98,,
ICL SUPPORTED HOUSING/NY NY III KINGS/BROOKLYN-COMM SVCS,,,,nysomh_mentalhealth,126b6cafae003160d94f10c28c75427f,98,,
ICL TREATMENT APARTMENT PROGRAM,,,,nysomh_mentalhealth,5ac101c558cbba4d0008f92d9578ecbc,98,,
IMMACULATA HALL,,,,nysomh_mentalhealth,c50e6e76aecfd16b9138f3496d4cc7a3,98,,
INDEPENDENCE HOUSE II,,,,nysomh_mentalhealth,08335af97a7eadeed2eba45114ea2b00,98,,
INTERFAITH ALTERNATIVE APARTMENTS,,,,nysomh_mentalhealth,717d8035d3c84180a779093e84056763,98,,
JAMES BRYANT HOMES SP/SRO,,,,nysomh_mentalhealth,6a086c1d1afcfb9f9fb3a2bee9495486,98,,
JASPER HALL (FAMILIES),,,,nysomh_mentalhealth,5a33d52a196c7eb3dc677a3055a17d5f,98,,
JASPER HALL - YOUNG ADULTS,,,,nysomh_mentalhealth,565bb1bf802ed3ed93f91ab00c35b6ab,98,,
JBFCS - SUPPORTED HOUSING - BRONX - COMM. SVCS,,,,nysomh_mentalhealth,4d0746bf732b41260d001df3d8f46a37,98,,
JBFCS - SUPPORTED HOUSING - KINGS COUNTY - COMM. SVCS,,,,nysomh_mentalhealth,e396849cfa72b630e707ca6fae9013e9,98,,
JBFCS BRONX APARTMENT PROGRAM,,,,nysomh_mentalhealth,479de23663c3dc4bd847a496e0f4c170,98,,
JBFCS BROOKLYN TREATMENT APARTMENT PROGRAM,,,,nysomh_mentalhealth,b7af19f443995c146423ea343d07367e,98,,
JBFCS FAR ROCKAWAY TREATMENT APARTMENT PROGRAM,,,,nysomh_mentalhealth,29fbe47e84d74ae6db26d993ab580d50,98,,
JBFCS HENRY ITTLESON COMMUNITY RESIDENCE I,,,,nysomh_mentalhealth,4d0a0f15cdea9dd4366daa4af3ce76f6,98,,
JBFCS SH - FAR ROCKAWAY GRADUATE HOUSING PROG - COMM. SVCS,,,,nysomh_mentalhealth,f16303668b23b615307fb047c10b49c8,98,,
JBFCS SUPP HOUSING REINVEST/QUEENS - COMM SVCS,,,,nysomh_mentalhealth,597bf8f78609efb1a72c991c9dc84053,98,,
JBFCS SUPP HOUSING/ADULT HOME SH BROOKLYN - COMM. SVCS,,,,nysomh_mentalhealth,d8a5c990588b76b8c806d9a974780eb0,98,,
JBFCS SUPP HOUSING/ADULT HOMES BROOKLYN - COMM SVCS,,,,nysomh_mentalhealth,484a6a0bf3cf2e6477d18965a381e5fc,98,,
JBFCS SUPP HOUSING/HIGH NEEDS QUEENS - COMM SVCS,,,,nysomh_mentalhealth,c2738337866a3da7547994727c175ff5,98,,
JBFCS SUPP HOUSING/MRT SUPP HSING BROOKLYN - COMM SVCS,,,,nysomh_mentalhealth,bfa5675ed3e62bfd1ed7c9889921a5ed,98,,
JBFCS SUPP HOUSING/NURSING HOME BROOKLYN STATEN IS-COMM SVCS,,,,nysomh_mentalhealth,60f5a502643c052b5b3495146bef908d,98,,
JBFCS SUPP HOUSING/NYNY III BRONX - COMM SVCS,,,,nysomh_mentalhealth,72064cf40717d9ff70feefd25329c2b2,98,,
JBFCS SUPP HOUSING/NYNY III NEW YORK CTY - COMM SVCS,,,,nysomh_mentalhealth,5412bb4eaef6293c75a11c7878f8de1a,98,,
JBFCS SUPP HOUSING/PC LONG STAY BRONX - COMM SVCS,,,,nysomh_mentalhealth,6a08361c71beb4d60ce11fd0cf3de320,98,,
JBFCS SUPP HOUSING/PC LONG STAY KINGSBORO - COMM SVCS,,,,nysomh_mentalhealth,f394ba986fda8a331a9653d4a5dc6ce8,98,,
JBFCS SUPP HOUSING/PC LONG STAY MANHATTAN - COMM SVCS,,,,nysomh_mentalhealth,aa97ed30600146afb7ab364e17ba2663,98,,
JBFCS SUPP HOUSING/PC LONG STAY NEW YORK CTY - COMM SVCS,,,,nysomh_mentalhealth,5ea20d03a32877bf94ed455e0e0bf3d8,98,,
JBFCS SUPPORTED HOUSING/NEW YORK - COMM SVCS,,,,nysomh_mentalhealth,9054237143ea759fbc3fc3be3496572e,98,,
JERICHO SCATTERED SITE SP/SRO,,,,nysomh_mentalhealth,4cbe798bb5bc953e74999048267896e5,98,,
JERICHO WEST TREMONT RESIDENCE,,,,nysomh_mentalhealth,a7ac5bc5e3b8f9d91f99eddef240d1c1,98,,
JOHN G. HUNTER APARTMENTS,,,,nysomh_mentalhealth,b331a7648526bd190a4a4be0ff376e5d,98,,
JUSTICE INVOLVED SUPPORTED HOUSING (SSHP),,,,nysomh_mentalhealth,94980f1ca9d903982b82eed7a8e55bfb,98,,
KINGS COUNTY CONGREGATE SUPPORTIVE HOUSING POPULATION I,,,,nysomh_mentalhealth,e6388661f97381d5037f2e570da5a5b5,98,,
KINGS COUNTY CONGREGATE SUPPORTIVE HOUSING POPULATION V,,,,nysomh_mentalhealth,60634d57b37b18166288c18692efac91,98,,
KINGSBRIDGE ROAD CR/SRO,,,,nysomh_mentalhealth,1887b38d9f566a8b2760b60664148a58,98,,
KINGSBRIDGE TERRACE,,,,nysomh_mentalhealth,1ac4ecd59367ce37e6134f379066b8dc,98,,
KNICKERBOCKER VETERAN'S RESIDENCE SP/SRO,,,,nysomh_mentalhealth,c6fae3a70bfd28f9a141c74c66a83a47,98,,
LAWTON STREET COMMUNITY RESIDENCE,,,,nysomh_mentalhealth,bf20613f74b0877b56b69ebc0f00e1b4,98,,
LENOX HILL CASA MUTUA SH NYCDMH NY NY I SP/SRO,,,,nysomh_mentalhealth,d6a78231266c8b79e27a16d9bf4d03d2,98,,
LEONABLANCHE HOUSE,,,,nysomh_mentalhealth,4315001ee99e37845a7946bc1a9bcb11,98,,
LINDEN HOUSE COMMUNITY RESIDENCE,,,,nysomh_mentalhealth,c4fb830740b547549149ae50af6620ae,98,,
LINDENGUILD HALL,,,,nysomh_mentalhealth,19929e3ae98d8a47ff5928b4d59a8f82,98,,
LIVONIA AVENUE,,,,nysomh_mentalhealth,5b226420cbda14e00cda056cc69ce12f,98,,
LIVONIA COMMONS,,,,nysomh_mentalhealth,8d9cd293e1d0e83af2cfd3173c317fb1,98,,
LOUIS NINE HOUSE,,,,nysomh_mentalhealth,60bb08c5ef705e0a07a8f53ba527f9eb,98,,
LOWER EASTSIDE SERVICE CENTER INC. - DOHMH,,,,nysomh_mentalhealth,cb59abda4ed9ab790ba0403233b63a8d,98,,
LOWER EASTSIDE SERVICE CENTER INC. - FRANKLIN AVENUE DOHMH,,,,nysomh_mentalhealth,6f3835c1d34e3cf52640c0e40e776012,98,,
LUTHERAN SOC SVCS NYC DMH NY/NY I - BERGEN ST SUPPORTED SRO,,,,nysomh_mentalhealth,5121b4328c534c1c9ae53e622485ec9c,98,,
LUTHERAN SOCIAL SERVICES SH/MUHLENBERG - COMM. SVCS.,,,,nysomh_mentalhealth,cc5624bb6ec1ac338a199d7780fd2d69,98,,
LYNN'S PLACE SP/SRO,,,,nysomh_mentalhealth,699f14da42fe72c070f648d76bdb4ff6,98,,
MACOMBS - SP-SRO,,,,nysomh_mentalhealth,aec4464db389173f4cd66e43f198f93e,98,,
MANHATTAN APARTMENT PROGRAM,,,,nysomh_mentalhealth,a2c2cc31031e1f92472033d0d4546c77,98,,
MAPLE STREET CR/SRO,,,,nysomh_mentalhealth,4e2354bf0c9d637a3082c16e92a0ffa0,98,,
MHA OF NYC SUPPORTED HOUSING/BRONX - COMM. SVCS,,,,nysomh_mentalhealth,51324baa09ed1af90f2aadf5dece2b24,98,,
MHA OF NYC SUPPORTED HOUSING/NEW YORK - COMM. SVCS.,,,,nysomh_mentalhealth,b68401033377fa7b05864ca8443ef615,98,,
MIELE'S CRISIS RESPITE,,,,nysomh_mentalhealth,4ff51a0c12e830749bc578e0c2cfa049,98,,
MOSHOLU PARKWAY SP/SRO,,,,nysomh_mentalhealth,8dab410f75479db89cd1710c72915466,98,,
MOTHER GASTON 30 SP/SRO,,,,nysomh_mentalhealth,41d9d7f338753922910993cfc02d4648,98,,
MOTHER GASTON FORENSIC SH 20 - COMM. SVCS,,,,nysomh_mentalhealth,30a8d6fab65d8e20774c0feec427cfa7,98,,
MRT ENRICHED CRISIS BEDS,,,,nysomh_mentalhealth,c739fe5fe7480b30147581014332a25c,98,,
MYRTLE AVENUE COMMUNITY RESIDENCE/SINGLE ROOM OCCUPANCY,,,,nysomh_mentalhealth,061634f08d37b84d0386952e6986f51b,98,,
NCS RESIDENCE NY/NY,,,,nysomh_mentalhealth,de897ed381d2968e89ec952319e10f30,98,,
NEW HARBOUR COMMUNITY RESIDENCE,,,,nysomh_mentalhealth,594c8b22082414fb6f0e5054760bb874,98,,
NORWOOD TERRACE,,,,nysomh_mentalhealth,cb24a2a3b9f1b9a31ab1b27ed00bb634,98,,
NY NY III SCATTERED SITE - COMM. SVCS,,,,nysomh_mentalhealth,105d560451e2979e95c4dc246071426e,98,,
NY NY III SPSRO 181ST,,,,nysomh_mentalhealth,4feebcded473aa5ded10455d70e8b8d3,98,,
NYC SUPPORTED HOUSING SCATTERED SITES-COMM.SVCS,,,,nysomh_mentalhealth,82a8d9315a081913f8227120ffc46ce7,98,,
NYCCC CARE MANAGEMENT AGENCY,73-04,COMMONWEALTH BOULEVARD,73-04 COMMONWEALTH BOULEVARD,nysomh_mentalhealth,ac232cc8453a39ea0d9513d126b794f4,42,42,
OAK HALL,,,,nysomh_mentalhealth,641df244210af6f408655a66644dc1bd,98,,
ODYSSEY HOUSE HARBOR,,,,nysomh_mentalhealth,067e06d4b9a2a06e79ceec1b297fc469,98,,
ODYSSEY HOUSE PARK AVENUE,,,,nysomh_mentalhealth,9fd5ca73d1f012cfea60818c737782d1,98,,
ODYSSEY HOUSE SUPPORTED HOUSING/BRONX - NY/NY III-COMM. SVCS,,,,nysomh_mentalhealth,2ff03ca90f5a0f56b0d710cd77e0b89d,98,,
OHEL APARTMENT-TREATMENT RESIDENTIAL PROGRAM,,,,nysomh_mentalhealth,15307116940dfc4084d3a8ba6599f200,98,,
OHEL COMMUNITY RESIDENCE FOR ADULTS #1,,,,nysomh_mentalhealth,70c54539c74a4822941d8b634f6b1ee0,98,,
OHEL COMMUNITY RESIDENCE FOR ADULTS #2,,,,nysomh_mentalhealth,524ae69c7168c956b00ba04f3bd34105,98,,
OHEL COMMUNITY RESIDENCE FOR ADULTS #3,,,,nysomh_mentalhealth,bafd7366e40fc1f16341389ecedd01e5,98,,
OHEL COMMUNITY RESIDENCE FOR ADULTS #4,,,,nysomh_mentalhealth,06356da96e965787ddd7c444506b1610,98,,
OHEL SH PC LONG STAY KINGSBORO PC/KINGS CTY - COMM. SVCS,,,,nysomh_mentalhealth,4375f5f4a0f1925e6cc96a73ef1e339d,98,,
OHEL SH PC LONG STAY SOUTH BEACH PC/RICHMOND CTY - COMM SVCS,,,,nysomh_mentalhealth,bf108bfd036d79010b63f6ecdc62538e,98,,
OHEL SH/REINVESTMENT- BROOKLYN - COMM. SVCS,,,,nysomh_mentalhealth,8b8bf617275a027fb75aa76069d5008a,98,,
OHEL SUPP HOUSING/BROOKLYN MRT SUPP HSING - COMM. SVCS,,,,nysomh_mentalhealth,27536aa4ce03984910a5e71e888e229b,98,,
OHEL SUPPORTED HOUSING/BROOKLYN - COMM. SVCS,,,,nysomh_mentalhealth,cf4c3c4633d1062f3a06ffe6edb6c93f,98,,
OMH SUPPORTED HOUSING 17 BEDS-COMM.SVCS,,,,nysomh_mentalhealth,afacdc63f6fb1cf604d906d584f49d33,98,,
OMNI III,,,,nysomh_mentalhealth,88472f71ecace89784c5402e49eb3d9f,98,,
ONWARD I,,,,nysomh_mentalhealth,7f7fa457668f34f6f4d6e494a75c1787,98,,
ONWARD II,,,,nysomh_mentalhealth,eb7d335875e09cb1317a58520d041155,98,,
OUR PLACE,,,,nysomh_mentalhealth,7b01ecac90708f78f7bfc20ea7d1baba,98,,
PARK HOUSE SP/SRO,,,,nysomh_mentalhealth,a017924ef74fb4e57ea2da0a6d184644,98,,
PESACH TIKVAH COMMUNITY RESIDENCE I,,,,nysomh_mentalhealth,a7a7e14f72bbd5e1674180da71acece8,98,,
PESACH TIKVAH SUPPORTED HOUSING/KINGS - NY/NY III-COMM. SVCS,,,,nysomh_mentalhealth,70ff0baeef2c58a05a5d5ff9ddbdc52e,98,,
PESACH TIKVAH SUPPORTED HOUSING/KINGS COUNTY - COMM. SVCS.,,,,nysomh_mentalhealth,6abf661020dab0df71991e1239738f8c,98,,
PESACH TIKVAH SUPPORTED HOUSING/PC LONG STAY KINGS-COMM SVCS,,,,nysomh_mentalhealth,f5e840f790cb5e456701c67b783f83eb,98,,
PHIPPS CORTLANDT AVENUE SP/SRO,,,,nysomh_mentalhealth,09a271e9de4c89b11da90cd2fa3f7a51,98,,
PIBLY APARTMENT TREATMENT PROGRAM,,,,nysomh_mentalhealth,f8f8e720f26bf63e458b7ed1d898874c,98,,
PIBLY KIZZY HOUSE,,,,nysomh_mentalhealth,b2a51d6fca32d155b499575b85579108,98,,
PIBLY NYC DOHMH NY/NY I - ACCESS HOUSES SUPPORTED SRO,,,,nysomh_mentalhealth,21b6789587fefc7e5f70f17aaacde455,98,,
PIBLY OVERING HOUSE,,,,nysomh_mentalhealth,98138d074b4479cd44da7694a031d53a,98,,
PIBLY ROSEBUD RESIDENCE,,,,nysomh_mentalhealth,435fe10945ad4c3432b2333e71ca9e57,98,,
PIBLY SH/BRONX NY NY III - COMM SVCS,,,,nysomh_mentalhealth,3e4d8ef881a94fc43a9147061ec0bae1,98,,
PIBLY SUPP HSING/PC LONG STAY BRONX - COMM SVCS,,,,nysomh_mentalhealth,4b9ec1306ce2edfd0b6b84d514632696,98,,
PIBLY SUPPORTED HOUSING/ADULT HOMES BRONX - COMM SVCS,,,,nysomh_mentalhealth,8c6888d2351002a4f68cc9a2002839d1,98,,
PIBLY SUPPORTED HOUSING/BRONX-COMM.SVCS.,,,,nysomh_mentalhealth,246f0f3cbcdfac962204c87f388514ce,98,,
POLARIS HOUSE TPP,,,,nysomh_mentalhealth,742c1757acef7d951a2381e5a3835252,98,,
POSTGRAD SUPP HOUSING/HIGH NEEDS SH BRONX-COMM SVCS,,,,nysomh_mentalhealth,b2146f868fa680bddc5844ca855eefbf,98,,
POSTGRAD SUPP HOUSING/SH QUEENS II - COMM SVCS,,,,nysomh_mentalhealth,186cca01211befa959ebe94b808c2026,98,,
POSTGRAD/SUPP HOUSING-NY / GUTHEIL RESIDENCE-COMM.SVCS.,,,,nysomh_mentalhealth,f0c1d50a8f68cde5259f111da21705cb,98,,
POSTGRADUATE CENTER LYVERE STREET RESIDENCE,,,,nysomh_mentalhealth,0f4c782880fa58d7c851bfe90321e302,98,,
POSTGRADUATE CENTER RESIDENCE I,,,,nysomh_mentalhealth,8fb5e0d5de231953bd1d33bd13ecf4ec,98,,
POSTGRADUATE CENTER RESIDENCE II,,,,nysomh_mentalhealth,e360a8d57f5ae25cf61c910c661c7202,98,,
POSTGRADUATE CENTER RESIDENCE III,,,,nysomh_mentalhealth,e82b01fa424e8abe3d22d048ccc9775c,98,,
POSTGRADUATE CENTER RESIDENCE IV,,,,nysomh_mentalhealth,47ca4b028ee6cde3adce496f0f1d8e4e,98,,
POSTGRADUATE CENTER RICHARD DICKER CR/SRO,,,,nysomh_mentalhealth,a060cdf1a1922588733ca3a5020c7360,98,,
POSTGRADUATE SH HIGH NEEDS I/BRONX - COMM SVCS,,,,nysomh_mentalhealth,8c465062719b8b302d00e32aa269406c,98,,
POSTGRADUATE SH PC LS CREEDMOOR PC/QUEENS-COMM SVCS,,,,nysomh_mentalhealth,fabe79d8315d41a790dd3cc8930ea7a5,98,,
POSTGRADUATE SH PC LS ROCKLAND PC/NY COUNTY-COMM SVCS,,,,nysomh_mentalhealth,ebcb62ecca8757aa16067f0841850030,98,,
POSTGRADUATE SH/BROOKLYN MRT SUPP HSING - COMM SVCS,,,,nysomh_mentalhealth,458e1990b94e58fd36be35339105b8ef,98,,
POSTGRADUATE SUPP HOUSING NY NY/NEW YORK-COMM SVCS,,,,nysomh_mentalhealth,e436390278b76655d5ec9253cfa808c8,98,,
POSTGRADUATE SUPP HOUSING/MANHATTAN NURSING HOME-COMM SVCS,,,,nysomh_mentalhealth,f8be34f694ee6bcd59084471a64e6797,98,,
POSTGRADUATE SUPP HOUSING/NY NY III BRONX COUNTY - COMM SVCS,,,,nysomh_mentalhealth,0157d696531e7fce1e06b36dadea5ea8,98,,
POSTGRADUATE SUPP HSING/SH KINGS COUNTY OTHER - COMM. SVCS.,,,,nysomh_mentalhealth,3a4f49d928e2ce2a8ca207c7a9d3dbee,98,,
POSTGRADUATE SUPPORTED HOUSING/ADULT HOMES - COMM. SVCS.,,,,nysomh_mentalhealth,b948ad8c74a22ba777ee8875d2c0669a,98,,
POSTGRADUATE SUPPORTED HOUSING/BROOKLYN-COMM.SVCS.,,,,nysomh_mentalhealth,20b9321b1d81d29a73efd96d518b459d,98,,
POSTGRADUATE SUPPORTED HOUSING/FORENSIC KINGS - COMM. SVCS.,,,,nysomh_mentalhealth,dd8d0dfcca615a3b69044e22fb838be5,98,,
POSTGRADUATE SUPPORTED HOUSING/KINGS - NY/NY III - COMM SVCS,,,,nysomh_mentalhealth,3131e5d74b56435fca0d02442b11b19e,98,,
POSTGRADUATE SUPPORTED HOUSING/NEW YORK-COMM.SVCS.,,,,nysomh_mentalhealth,a29373fa347f45d5ac321b6565b4da93,98,,
POSTGRADUATE SUPPORTED HOUSING/PC LONG STAY KINGS-COMM.SVCS.,,,,nysomh_mentalhealth,2d66f810d95050af790d2f93d436cd06,98,,
POSTGRADUATE SUPPORTED HOUSING/QUEENS-COMM. SVCS.,,,,nysomh_mentalhealth,69942c3d4aa5fbadfa6734e1c3f05d6e,98,,
PRAXIS WHITE PLAINS ROAD SP/SRO,,,,nysomh_mentalhealth,cb38c593089edcdedfe461f8def1d9f0,98,,
PROJECT HOSPITALITY - O'CALLAGHAN HOUSE,,,,nysomh_mentalhealth,b6354e0deea5cd55021fea2b232137d6,98,,
PROJECT HOSPITALITY SH/RICHMOND (NY/NY II) - COMM. SVCS,,,,nysomh_mentalhealth,c8e0f8d1e444495cd5827eab5f0a2f5a,98,,
PROJECT HOSPITALITY SH/RICHMOND COUNTY - COMM. SVCS,,,,nysomh_mentalhealth,650196e7598c11c96f9d5472a8eb2c4e,98,,
PROJECT HOSPITALITY/FAMILY SUPPORTED HOUSING - COMM. SVCS,,,,nysomh_mentalhealth,834bbd8cfc9ac09454bbcb7b370b1627,98,,
PROJECT RENEWAL CLINTON RESIDENCE,,,,nysomh_mentalhealth,c4d334eef03d0dd0e669881f14ae0bf4,98,,
PROJECT RENEWAL NYC DMH NY/NY I - HOLLAND HOUSE SRO,,,,nysomh_mentalhealth,631d3b33bcec5d4a0d6b28022d876684,98,,
PROJECT RENEWAL NYC DMH SRO - ST. NICHOLAS HOUSE,,,,nysomh_mentalhealth,51a59f33f3822080917e5385a50191c0,98,,
PROJECT RENEWAL PC LONG STAY ROCKLAND PC/NY CTY-COMM SVCS,,,,nysomh_mentalhealth,89a13fe2c273acab45c3136ec3404b47,98,,
PROJECT RENEWAL SH PC LONG STAY BRONX PC/BRONX CTY-COMM SVCS,,,,nysomh_mentalhealth,bda7bf04f953fdf8e526b3c58fa6a5ab,98,,
PROJECT RENEWAL SH PC LS MANHATTAN PC/NY CTY-COMM SVC,,,,nysomh_mentalhealth,e532a5fa12e65056a2e25dcf553af9e6,98,,
PROJECT RENEWAL SH/MANHATTAN PSTP II FORENSIC - COMM SVCS,,,,nysomh_mentalhealth,bf098178206120357db3004885a84036,98,,
PROJECT RENEWAL SUPP HSING/MANHATTAN-PSTP FORENSIC-COMM.SVCS,,,,nysomh_mentalhealth,df820a8ab60db6bbeabad79544fc63ac,98,,
PROJECT RENEWAL SUPP HSING/PSTP GRADUATE FORENSIC-COMM SVCS.,,,,nysomh_mentalhealth,c2694180a5233a45e65f3fa9a58628e3,98,,
PROJECT RENEWAL SUPPORTED HOUSING/FORENSIC SH - COMM SVCS,,,,nysomh_mentalhealth,0d6316e9621170c414a2eb62415152a7,98,,
PROMESA 139TH STREET COMMUNITY RESIDENCE,,,,nysomh_mentalhealth,d0233ace8ea61297f8e6dc7b529c5512,98,,
PROMESA BRONX II APARTMENT COMMUNITY RESIDENCE,,,,nysomh_mentalhealth,16c8707bb1a6ee9ab6da1411ca072347,98,,
PROMESA BRONX III APARTMENT COMMUNITY RESIDENCE,,,,nysomh_mentalhealth,84348a9e3ec8d169a0587054b893c28c,98,,
PROMESA COMMUNITY RESIDENCE A,,,,nysomh_mentalhealth,ecd847bbd6bc68e7bd3d48d601c0cb67,98,,
PROMESA COMMUNITY RESIDENCE B,,,,nysomh_mentalhealth,6cc175e5f51a6b14744fa6ba5fe49042,98,,
PROMESA COMMUNITY RESIDENCE C,,,,nysomh_mentalhealth,4fce957e337c67740fb76e7f108fd3fc,98,,
PROMESA COMMUNITY RESIDENCE D,,,,nysomh_mentalhealth,422a62731f8b62d0aa945f965fa81657,98,,
PROMESA KELLY STREET RESIDENCE,,,,nysomh_mentalhealth,21139d12ad4dac4e36456720dce44921,98,,
PROSPECT HOUSE II,,,,nysomh_mentalhealth,720dad566e476b4bc2c8bed791073525,98,,
PROSPERO HALL SP/SRO,,,,nysomh_mentalhealth,a748892e0dbb13f63c2a3f57edc70983,98,,
PROVIDENCE HOUSE LINCOLN ROAD SP/SRO,,,,nysomh_mentalhealth,9fe9ca077baa3f9294f8c2c09fab40e5,98,,
PROVIDENCE HOUSE SP/SRO,,,,nysomh_mentalhealth,595d0d0ca617fe64fca6cbb05e501b86,98,,
PSCH DEWITT RESIDENCE SP/SRO,,,,nysomh_mentalhealth,70639d524fdd218dd36d81e7b91c4171,98,,
PSCH SH PC LONG STAY - CREEDMOOR PC/QUEENS - COMM. SVCS,,,,nysomh_mentalhealth,a02adf7f5adafd608ac6b8c448b6d124,98,,
PSCH SH PC LONG STAY - KINGS - COMM. SVCS,,,,nysomh_mentalhealth,d12b56fb6eb900ad33685e6c6c1fcb48,98,,
PSCH SH PC LONG STAY - MANHATTAN - COMM. SVCS,,,,nysomh_mentalhealth,80cfec8cdd0ba05d44839e795e0e189a,98,,
PSCH SH PC LONG STAY - QUEENS - COMM. SVCS,,,,nysomh_mentalhealth,85666f2dbd9fade2e44a8740abafe6e2,98,,
PSCH SH PC LONG STAY - SOUTH BEACH PC/RICHMOND - COMM. SVCS,,,,nysomh_mentalhealth,50d9d51225d184bd055da0ddccb6c2ce,98,,
PSCH SUPP HOUSING/FORENSIC BRONX SP TO PC - COMM SVCS,,,,nysomh_mentalhealth,daec21a7bb68b9aa631d7987fb7cb556,98,,
PSCH SUPPORTED HOUSING FORENSIC/MANHATTAN - COMM SVCS,,,,nysomh_mentalhealth,b59d4674d4071c40bb1a094f29313498,98,,
PSCH SUPPORTED HOUSING MICA/BROOKLYN - DMH - COMM. SVCS,,,,nysomh_mentalhealth,574738de62236414d3e7dc3c6b745c40,98,,
PSCH SUPPORTED HOUSING YOUNG ADULTS/KINGS - COMM. SVCS,,,,nysomh_mentalhealth,962a670307993c27a1517b127405d69c,98,,
PSCH SUPPORTED HOUSING/BRONX - COMM. SVCS,,,,nysomh_mentalhealth,70429696831082adbdfb16251f7ffeb6,98,,
PSCH SUPPORTED HOUSING/BROOKLYN (NY/NY II) - COMM. SVCS,,,,nysomh_mentalhealth,364948e20645ea2c027a26fb21e82663,98,,
PSCH SUPPORTED HOUSING/BROOKLYN - COMM. SVCS,,,,nysomh_mentalhealth,05a986edf7c486d637ae6144647b9860,98,,
PSCH SUPPORTED HOUSING/FORENSIC SH - COMM SVCS,,,,nysomh_mentalhealth,040e80dc0dfbefe81322e3001feca4e8,98,,
PSCH SUPPORTED HOUSING/MRT SUPP HOUSING QUEENS - COMM SVCS,,,,nysomh_mentalhealth,6067b5049327309ad6fabfc0f0e946c0,98,,
PSCH SUPPORTED HOUSING/NY NY III KINGS - COMM SVCS,,,,nysomh_mentalhealth,1360b86ea8e5d42c57e637d100190f12,98,,
PSCH SUPPORTED HOUSING/NY NY III QUEENS - COMM. SVCS,,,,nysomh_mentalhealth,ae36169ffe19690b509fc7e821c99a68,98,,
PSCH SUPPORTED HOUSING/QUEENS - COMM. SVCS,,,,nysomh_mentalhealth,ef32963d747bfdd5e47a97d445c441f4,98,,
PSCH-HORIZON PROJECT I,,,,nysomh_mentalhealth,ca3e9bb6e9cb490a25fc8a594ebc246c,98,,
PSCH-HORIZON PROJECT II,,,,nysomh_mentalhealth,39231b179f594cb58986b85f4443390b,98,,
PSYCHIATRIC INPATIENT UNIT,,,WARDS ISLAND COMPLEX,nysomh_mentalhealth,3a63efd0ae2ce79ef76679427379c1d3,16,16,
QUEENS APARTMENT PROGRAM - REGO PARK,,,,nysomh_mentalhealth,fb5a99df6ed6e78b90d8b20c599b7ef0,98,,
QUEENS TREATMENT APARTMENT PROGRAM,,,,nysomh_mentalhealth,794d02590df85ceec38d5d3d7e382f38,98,,
RALPH AVENUE RESIDENCE,,,,nysomh_mentalhealth,61af545fab5ddf11f0afc942e462da2c,98,,
RENAISSANCE HOUSE,,,,nysomh_mentalhealth,abf3f77755b16d5976b57b1333dc2891,98,,
RENAISSANCE RESIDENCE,,,,nysomh_mentalhealth,70e2ff5ff88a00386f80e4de55e3250e,98,,
REVEREND DAN RAMM RESIDENCE SP/SRO,,,,nysomh_mentalhealth,1993cd43ccc9ebe7298325b4235a0cf4,98,,
RITA BERGER HOUSE,,,,nysomh_mentalhealth,639ee371d3ddef4c622ce13e42374423,98,,
RIVERDALE MHA SUPPORTED HOUSING/BRONX - NY/NY III-COMM. SVCS,,,,nysomh_mentalhealth,d8b4ca755ad0109cc6b444dc81cbb366,98,,
RIVERDALE MHA SUPPORTED HOUSING/BRONX-COMM.SVCS.,,,,nysomh_mentalhealth,f2daf63991cd130781dece127bc5abc6,98,,
ROAD TO SUCCESS TRANSITIONAL RESIDENCE,,,,nysomh_mentalhealth,68d65dc853a42153e66770b8ec1fcb15,98,,
RUSTIN HOUSE (FKA ST. LOUIS HALL),,,,nysomh_mentalhealth,a80eb5e7a1f3ae1026fa2436c43ed4fa,98,,
SABRA GOLDMAN HOUSE,,,,nysomh_mentalhealth,2fd62186652a3bf8ef822a36458d3c23,98,,
SAINT ALBANS COMMUNITY RESIDENCE,,,,nysomh_mentalhealth,39427c612f364d5635aaa5fe0176d71c,98,,
SCATTERED SITE SUPPORTIVE HOUSING-COMM.SVCS,,,,nysomh_mentalhealth,fcb02f9a13d1d8ced587e0a3f7f16318,98,,
SCHERMERHORN,,,,nysomh_mentalhealth,dc5dea68ede0b8016ccccfc4af02e670,98,,
SCO SH/MICA REINVESTMENT - SP/SRO,,,,nysomh_mentalhealth,d436dc75500a3b8ac77b9a5545ca713c,98,,
SEAVIEW-1 TRANSITIONAL LIVING RESIDENCE,,,,nysomh_mentalhealth,90b4a766f87901b459d4d0e9669ecdb5,98,,
SEAVIEW-2 TRANSITIONAL LIVING RESIDENCE,,,,nysomh_mentalhealth,449e8b85af9564d5a84789673a5dbda7,98,,
SEAVIEW-3 TLR,,,,nysomh_mentalhealth,ac5734047604bbf27cc9bebb4eb0f60e,98,,
SECOND HENRY STREET HOUSING,,,,nysomh_mentalhealth,4ed263132a26d8bca92d1bd9f189c1d8,98,,
SHAKESPEARE RESIDENCE,,,,nysomh_mentalhealth,9e4ba478ab304fc13a88430e1305b3d7,98,,
SIBN SUPP HOUSING/ADULT HOMES RICHMOND CTY - COMM SVCS,,,,nysomh_mentalhealth,66e78308881a69dda59660507f483928,98,,
SIBN SUPPORTED HOUSING/HIGH NEEDS SH RICHMOND-COMM SVCS,,,,nysomh_mentalhealth,132a9e0b0d86a0ceadbac42adf07f774,98,,
SIBN SUPPORTED HOUSING/MRT SUPP HOUSING RICHMOND-COMM SVCS,,,,nysomh_mentalhealth,bb237c2d96bebdd715f808fe223da182,98,,
SIBN SUPPORTED HOUSING/NY NY III SOUTH BEACH - COMM SVCS,,,,nysomh_mentalhealth,44a69ea9427d117b7a3be4ac76dc70d5,98,,
SIBN SUPPORTED HOUSING/PC LONG STAY RICHMOND - COMM. SVCS.,,,,nysomh_mentalhealth,f873a80bd6d622291900930fb1e4115a,98,,
SISTER JANE MANOR,,,,nysomh_mentalhealth,e42830567bf30ecc73052739b2e33e5a,98,,
SISTER LOUISE SP/SRO,,,,nysomh_mentalhealth,8219fcb5f081147160af7bbcaa644a47,98,,
SISTER MARY ASSISIUM RESIDENCE,,,,nysomh_mentalhealth,d00704226646d3c6da50341d82c5d4e0,98,,
SJMC SUPP HOUSING/RCE SH NEW YORK - COMM SVCS,,,,nysomh_mentalhealth,baa98e7c6c000055313c8565674151d0,98,,
SJMC SUPP HOUSING/TRANSFORMATION SH SBPC - COMM SVCS,,,,nysomh_mentalhealth,06d4fae130136ed6026bb33c34423beb,98,,
SJMC SUPPORTED HOUSING/BROOKLYN MRT SHOUSING - COMM SVCS,,,,nysomh_mentalhealth,de76cfc12cce301ee0729acf1356279e,98,,
SJMC SUPPORTED HOUSING/MANHATTAN MRT SH - COMM SVCS,,,,nysomh_mentalhealth,dbef44f0fbe14e0151dd059ec666d245,98,,
SKY LIGHT SUPPORTED HOUSING/RICHMOND - COMM. SVCS,,,,nysomh_mentalhealth,00be7329e2598a7d738c0273324ba687,98,,
SOCIAL WORK STUDENT TRAINING,2180,THIRD AVENUE 119 STREET,2180 THIRD AVENUE @ 119TH STREET,nysomh_mentalhealth,833e5a6b937047321a435685ef35609e,EE,EE,8
SOUNDVIEW,,,,nysomh_mentalhealth,ff36b30d9cadcf7ee61f015aafb304f7,98,,
SPRINGFIELD GARDENS COMMUNITY RESIDENCE,,,,nysomh_mentalhealth,cc1e75721f9df7899c3a7448647e3193,98,,
SSAIL SUPP HOUSING/TRANSFORMATION SH CREEDMOOR - COMM SVCS,,,,nysomh_mentalhealth,d91acbf73852ce379514c5c4e168a0fa,98,,
ST. FRANCIS RESIDENCE I-II-III,,,DIFFERENT SITES,nysomh_mentalhealth,b6e1756d656da618c24aca9f8e749006,16,16,
ST. JOHN'S COMMUNITY HDFC,,,,nysomh_mentalhealth,17ffefbe8d0b2a4f9024e92325a647c8,98,,
ST. JOHN'S II LP,,,,nysomh_mentalhealth,322b7a87cfe609e297312a7fde467e72,98,,
ST. JOSEPH'S MED CTR SH/ADULT HOMES RICHMOND CTY - COMM SVCS,,,,nysomh_mentalhealth,9e68ee3855758a0abb0f5dbcc9754d22,98,,
ST. JOSEPH'S MED CTR SH/BAY STREET - COMM SVCS,,,,nysomh_mentalhealth,5a2d9214a835ddc009e3799194cb2832,98,,
ST. JOSEPH'S MED CTR SH/BRONX COUNTY - COMM SVCS,,,,nysomh_mentalhealth,5a8130fa54175f93e156d85648c715a2,98,,
ST. JOSEPH'S MED CTR SH/CLINTON AVE SH - COMM SVCS,,,,nysomh_mentalhealth,d6d0a10760b94b21e94edf9323b95c9e,98,,
ST. JOSEPH'S MED CTR SH/NY NY II - COMM SVCS,,,,nysomh_mentalhealth,6b15670bfe2e64fe69eb02cd0cbac411,98,,
ST. JOSEPH'S MED CTR SH/NY NY III - COMM SVCS,,,,nysomh_mentalhealth,7c75cf47217b6bbc0d57bd830ca1b754,98,,
ST. JOSEPH'S MED CTR SH/PC LONG STAY RICHMOND CTY-COMM SVCS,,,,nysomh_mentalhealth,04dde5b41a2afa0190f1ccc0adb3a57f,98,,
ST. JOSEPH'S MED CTR SH/QUEENS COUNTY - COMM SVCS,,,,nysomh_mentalhealth,54d0fe42722194ea344232bfa9a68ccd,98,,
ST. JOSEPH'S MED CTR SH/RICHMOND COUNTY - COMM SVCS,,,,nysomh_mentalhealth,96ded655f801b533bd6e0c255eb440c7,98,,
ST. LUKE'S DIVISION PSYCHIATRIC INPATIENT SERVICE,,WEST 114 ST AMSTERDAM AVENUE,W. 114TH ST. AND AMSTERDAM AVE.,nysomh_mentalhealth,9591a29090695535329536fadd6cc7c5,EE,EE,1
ST. VINCENT'S LAURELTON COMMUNITY RESIDENCE,,,,nysomh_mentalhealth,df7a944d0f533e1572152d75358616f7,98,,
ST. VINCENT'S SERVICES SH FORENSIC/BROOKLYN - COMM SVCS,,,,nysomh_mentalhealth,8edca13bfe417e0743af8b749cbd417d,98,,
ST. VINCENT'S SERVICES SH/KINGS - NY/NY III-COMM. SVCS.,,,,nysomh_mentalhealth,6062b953d19678c0a4099215d162cb29,98,,
STANTON STREET RESIDENCE,,,,nysomh_mentalhealth,90c36cfdc3caa2d01e537c8ec1d5b511,98,,
STATEN ISLAND CHILDREN'S COMMUNITY RESIDENCE,,,,nysomh_mentalhealth,910de916397e374ffee36f99d7190de7,98,,
STATEN ISLAND CRISIS RESPITE CENTER,,,,nysomh_mentalhealth,fc9cc6f741aaec5ddc74474d9649111b,98,,
STEP BY STEP RESIDENCE,,,,nysomh_mentalhealth,4d276f6f94ad58f562101b0914dea82d,98,,
STEPPINGSTONE CONGREGATE SUPPORT,,,,nysomh_mentalhealth,0749cb0d79d079d82375d02f33c1bafb,98,,
STEPPINGSTONE CONGREGATE TREATMENT,,,,nysomh_mentalhealth,67de88f92ef47ba316e7109231e6b44f,98,,
SUPPORTED HOUSING - HIRE - HOMELESS REINVESTMENT- COMM. SVCS,,,,nysomh_mentalhealth,fdf2b5e97fcd056caa51289e36cf1a08,98,,
SUPPORTED HOUSING PROGRAM - SH1-COMM.SVCS,,,,nysomh_mentalhealth,7860ab02e21173dc62eb957ee2f27b00,98,,
SUPPORTED HOUSING PROGRAM - SH2 DMH-COMM.SVCS,,,,nysomh_mentalhealth,8b626f27cce01a5b2b4a86e5d5ebead1,98,,
SUPPORTED HOUSING PROGRAM - SH3-COMM.SVCS,,,,nysomh_mentalhealth,5a123846ef9625bae12465e39040cd52,98,,
SUPPORTED SCATTERED SITE,,,,nysomh_mentalhealth,2a9f9a0d85be5ff044f4ed3cc12e4720,98,,
SUS - CHESTER SP/SRO,,,,nysomh_mentalhealth,69615837fe7ce512cd59d049a8918af9,98,,
SUS - FAMILIES UNITED SUPPORTIVE HOUSING (FUSH)-COMM.SVCS,,,,nysomh_mentalhealth,9cb01bb8d391266540cb821f9797119c,98,,
SUS - SUPPORTED SRO/BRIARWOOD,,,,nysomh_mentalhealth,bfa883df52a631647c7529946c7d4fc5,98,,
SUS BOSTON ROAD SP/SRO,,,,nysomh_mentalhealth,f5ea918c46fa91bf3d7fb393daa4adfa,98,,
SUS COMMUNITY RESIDENCE I (INTENSIVE SUPPORTIVE),,,,nysomh_mentalhealth,f5711959c0d84ebadc4bc56b1cd0c15f,98,,
SUS COMMUNITY RESIDENCE V,,,,nysomh_mentalhealth,2d658731ad8a623a7010ddda14a2f624,98,,
SUS COMMUNITY RESIDENCE VII MICA,,,,nysomh_mentalhealth,07e6df1cd7e49062714dfc82d70b96b6,98,,
SUS SP-SRO/MARCY HART - MRCY,,,,nysomh_mentalhealth,381649c0f51c9c6d832696cc8f37e5ac,98,,
SUS SUPP HOUSING/ NYNY III SH - COMM SVCS,,,,nysomh_mentalhealth,6078c83a949977fbfff0736be6bb47f5,98,,
SUS SUPP HOUSING/NY NY II SH - COMM SVCS,,,,nysomh_mentalhealth,71127ee855a7aa2ef7b1bf8b3f02f997,98,,
SUS SUPP HOUSING/NYNY I SH - COMM SVCS,,,,nysomh_mentalhealth,e856b232d6f102690c0c373df2fc990e,98,,
SUS SUPP HOUSING/PC LONG STAY KINGS - COMM SVCS,,,,nysomh_mentalhealth,7323dfb3fe16e40ce0a3eca86e71c7f6,98,,
SUS SUPP HOUSING/S+C SUPPORTED HOUSING - COMM SVCS,,,,nysomh_mentalhealth,2ceb77974971df796940e5af961eb7fe,98,,
SUS SUPPORTED HOUSING - CHESTER SCATTER-SITE APT - COMM SVCS,,,,nysomh_mentalhealth,b594d552b9be07d817331e3761430f97,98,,
SUS SUPPORTED HOUSING-NE BKLYN 28 BEDS/THROOP AV-C-COMM.SVCS,,,,nysomh_mentalhealth,9c7982fbe950573f12512e5cc9f99ca5,98,,
SUS SUPPORTED HOUSING/BRONX - BX12 - COMM. SVCS,,,,nysomh_mentalhealth,a1ab354e9a2c524958ad738950816e27,98,,
SUS SUPPORTED HOUSING/BRONX-NY/NY III - COMM. SVCS,,,,nysomh_mentalhealth,8f9417b2ffbc0778d2a8184c2eeb4504,98,,
SUS SUPPORTED HOUSING/FORENSIC SH - COMM SVCS,,,,nysomh_mentalhealth,0966948f498d98efd598479b2ccad54a,98,,
SUS SUPPORTED HOUSING/KINGS-STR1 - COMM. SVCS,,,,nysomh_mentalhealth,9ae75666b12f47bde1d428f48716b4f1,98,,
SUS SUPPORTED HOUSING/NY NY III - COMM. SVCS,,,,nysomh_mentalhealth,a945737ab1b8ffd7fdf3ed580960dbb4,98,,
SUS SUPPORTED HOUSING/PC LONG STAY KINGS - COMM. SVCS,,,,nysomh_mentalhealth,89a5296c35044769ee6f31c768e1784a,98,,
SUS SUPPORTED HOUSING/PROSPECTKINGS - COMM. SVCS,,,,nysomh_mentalhealth,f85fe6a797b6c93b604b8dff672666b6,98,,
SUS SUPPORTED HOUSING/QUEENS-BCH2/STR3 - COMM. SVCS,,,,nysomh_mentalhealth,46990d6887f63b375497978405ba2177,98,,
SUS SUPPORTED HOUSING/ST. MARKS - COMM. SVCS,,,,nysomh_mentalhealth,a0241d23b0df52d085067f39fb46e87d,98,,
SUS SUPPORTED HOUSING/SUPPORTED HOUSING - COMM SVCS,,,,nysomh_mentalhealth,e72269c85887ee6353346e6d978ddbe2,98,,
SUS SUPPORTED HOUSING/THOMPKINS AVE APTS - COMM. SVCS,,,,nysomh_mentalhealth,0034e0b5917995e083cf23104315a5f9,98,,
SUS SUPPORTED SRO/DUFFIELD ST - MAJESTIC SP/SRO BROOKLYN,,,,nysomh_mentalhealth,24808e16fd5a22bddf3c94bcf56c48dd,98,,
TANYA TOWERS APARTMENT PROGRAM,,,,nysomh_mentalhealth,2374a50d687657640bee0814d96b6a07,98,,
TELLER AVE,,,,nysomh_mentalhealth,c47acba4785f097a52f2297725320573,98,,
THE BROOK,,,,nysomh_mentalhealth,7266dca9db8d83a318cfc02604d22f28,98,,
THE CLAREMONT,,,,nysomh_mentalhealth,bc37c4d26635de42a15a53b143cd405a,98,,
THE CROTONA CR SRO,,,,nysomh_mentalhealth,5c274de52dcad570b4fddc0264a9e864,98,,
THE DOOR/SUPPORTED/SINGLE ROOM OCCUPANCY,,,,nysomh_mentalhealth,bba8c546dd15eda5da5ebbb395972fdc,98,,
THE FIFTH AVENUE,,,,nysomh_mentalhealth,168216658b812b9555a4a8e4ba9ca819,98,,
THE FOYER 9TH ST - SMI FAMILIES,,,,nysomh_mentalhealth,df474c78bb529a77735dadb729fb3804,98,,
THE FOYER 9TH ST - SMI YOUTH,,,,nysomh_mentalhealth,8eeb146362515fb300530b68ed4875cd,98,,
THE LEE,,,,nysomh_mentalhealth,5525e223a012bde2d8bcbe1f73b4fa12,98,,
THE LENNIGER,,,,nysomh_mentalhealth,e1e2a72f9510621993ebeab057310e32,98,,
THE MARY BROOKS TRANSITIONAL LIVING RESIDENCE,,,,nysomh_mentalhealth,db3bc847a5f6e18434106945d4b6c42b,98,,
THIRD AVENUE SP/SRO,,,,nysomh_mentalhealth,68650f445876f2c279ebd3e165a6ddf4,98,,
TILDEN GARDENS,,,,nysomh_mentalhealth,cc90663a78f8b0632a4dc53d2e1c1f5d,98,,
TRANSITIONAL LIVING RESIDENCE I,,,,nysomh_mentalhealth,0f7e3cf91b8e4b5c75605cd022e5d165,98,,
TRANSITIONAL LIVING RESIDENCE II,,,,nysomh_mentalhealth,3198c00be9f35cd242dc32205b280893,98,,
TREATMENT APARTMENT PROGRAM,,,,nysomh_mentalhealth,4fe05f89ecece2c75ad50ca8b1eeae05,98,,
TRUXTON SP/SRO,,,,nysomh_mentalhealth,453507f45ce9e1eeba6f49494cff6334,98,,
TSINY SP-SRO/PENROD STREET,,,,nysomh_mentalhealth,56ec635a06022f5eb49058b3add27a04,98,,
TSINY SUPP HSING/ADULT HOME SH QUEENS - COMM SVCS,,,,nysomh_mentalhealth,03791dcf335f24d42e166e70644030b9,98,,
TSNY - 1 SOUTH COMMUNITY RESIDENCE,,,,nysomh_mentalhealth,1fe598acec5da23fdee2602fb49684c4,98,,
TSNY - 2 NORTH COMMUNITY RESIDENCE,,,,nysomh_mentalhealth,577def9fd69f1e293b06b964de2e68b5,98,,
TSNY - 2 SOUTH COMMUNITY RESIDENCE,,,,nysomh_mentalhealth,6a9630d0432b2ee84c8e0c2da8eccddd,98,,
TSNY - QUEENS SCATTERED SH / FAMILIES-COMM.SVCS.,,,,nysomh_mentalhealth,c45d273112a04a8a5e0457efb7059b53,98,,
TSNY - SCATTERED SUPPORTED HOUSING/QUEENS-COMM.SVCS.,,,,nysomh_mentalhealth,954ba3892c1b162b78611a8c9ac6cacf,98,,
TSNY - SH / 54-35 101 ST QUEENS (NY/NY)-COMM.SVCS.,,,,nysomh_mentalhealth,ec5c852fa81b9ad084b87ae53f6c6985,98,,
TSNY - SUPPORTED HOUSING/QUEENS - NY/NY III-COMM. SVCS.,,,,nysomh_mentalhealth,d57ea3ef3d52730764367e2ed62c5cc7,98,,
TSNY APARTMENT PROGRAM,,,,nysomh_mentalhealth,83087d1c450f7170dc6e47c87cc7118a,98,,
TSNY BRONX II COMMUNITY RESIDENCE,,,,nysomh_mentalhealth,1e6da5429566c6539a0e7a9fca1354e3,98,,
TSNY HOPE HOUSE I,,,,nysomh_mentalhealth,7a02017263c2e4ae649fb4c53b3f1c0c,98,,
TSNY HOPE HOUSE II,,,,nysomh_mentalhealth,4d2b44d0a0e9768c30dd5f684d0abb26,98,,
TSNY SH PC LONG STAY CREEDMOOR PC/QUEENS-COMM SVCS,,,,nysomh_mentalhealth,fffde84d4e867d4bc318758e2cbe73aa,98,,
TSNY SUPP HOUSING/QUEENS NURSING HOME - COMM SVCS,,,,nysomh_mentalhealth,642269ca02312f8521431dcbcf16fec5,98,,
TSNY SUPPORTED HOUSING/ADULT HOMES - COMM. SVCS.,,,,nysomh_mentalhealth,1ca32b31c9ba994a4a612dfeb2b9ab22,98,,
TSNY SUPPORTED HOUSING/PC LONG STAY QUEENS - COMM. SVCS.,,,,nysomh_mentalhealth,8bb6ca9faf247b57236650d6070003d3,98,,
UCC - EHRLICH SUPPORTED HOUSING/BRONX - COMM. SVCS,,,,nysomh_mentalhealth,3ee2ecf509f62ea6a12c61c55de88a9a,98,,
UCC - SUPPORTED HOUSING - MET COUNCIL - BRONX - COMM. SVCS,,,,nysomh_mentalhealth,59f7a8f1fbea7cadb8088b3c47ebec89,98,,
UCC - TIEBOUT AVE - SUPPORTED HOUSING - COMM. SVCS,,,,nysomh_mentalhealth,2d40fc5f707ace88ed4a72617adc76fd,98,,
UNIQUE PEOPLE SH - III BRONX - COMM. SVCS,,,,nysomh_mentalhealth,9328015aee080c14a60295e7dccc6b21,98,,
UNIQUE PEOPLE SH - IV BRONX - NY/NY III - COMM. SVCS,,,,nysomh_mentalhealth,041f99bf2f89370879886bf2eff3a035,98,,
UNIQUE PEOPLE SH/BRONX NY/NY - COMM. SVCS,,,,nysomh_mentalhealth,7f4a2890c9dfb054d19f69aff27a11c0,98,,
UNIQUE PEOPLE SH/BROOKLYN MRT SUPP HSING - COMM SVCS,,,,nysomh_mentalhealth,51fd3bb62820b472ee64be8000e30be5,98,,
UNIQUE PEOPLE SH/NURSING HOME NY BRONX WEST - COMM. SVCS,,,,nysomh_mentalhealth,fa5fa2ce9b2c179790f11b6b6d3e30e7,98,,
UNITED JEWISH COUNCIL NYC DMH NY/NY I - HENRY STREET SRO,,,,nysomh_mentalhealth,199bcb9147922aa78a0b742dd598d0dc,98,,
UNIVERSITY AVENUE SP/SRO,,,,nysomh_mentalhealth,96c41fd16d11d0d3defc1bb9cf8a7be2,98,,
URBAN PATHWAYS - APARTMENT TREATMENT,,,,nysomh_mentalhealth,539b2109075ca4cf4b15d8302cba9749,98,,
URBAN PATHWAYS - HUGHES APARTMENTS,,,,nysomh_mentalhealth,84061ba55de5eb9311d90db06585d82b,98,,
URBAN PATHWAYS - IVAN SHAPIRO HOUSE,,,,nysomh_mentalhealth,4fa14a1e1808de6a28cbd1ec2ba14d80,98,,
URBAN PATHWAYS BOSTON ROAD SP/SRO,,,,nysomh_mentalhealth,2bc6ed441f3a0f6937438bd200fb4c60,98,,
URBAN PATHWAYS SECOND STREET SRO/CR,,,,nysomh_mentalhealth,52653517c148b7ad16036450b8d80d94,98,,
URBAN PATHWAYS SH/MRT SUPP HOUSING BRONX - COMM SVCS,,,,nysomh_mentalhealth,e74815265198d70264e71c937adfb5d0,98,,
URBAN PATHWAYS SUPP HOUSING/NY NY III BRONX COUNTY - COMM SV,,,,nysomh_mentalhealth,70b31b252e31bac5fa5e1abf4b9deee7,98,,
URBAN PATHWAYS SUPP HOUSING/NY NY III NEW YORK CTY - COMM SV,,,,nysomh_mentalhealth,cfbfd4a75b6f13eb48b1ab3355a65685,98,,
URBAN PATHWAYS SUPP HOUSING/PC LONG STAY MANHATTAN-COMM SVCS,,,,nysomh_mentalhealth,eab019664a77c02c6f09628c36cfa3ad,98,,
URBAN PATHWAYS THE CLINTON SP/SRO,,,,nysomh_mentalhealth,eedf4bb589783f63e48d894a2a41bd65,98,,
VAN DYKE SUPPORTIVE HOUSING - POPULATION III,,,,nysomh_mentalhealth,ddc2cf8b7c7d6cbd9a25e27ee8328383,98,,
VENTURE HOUSE SUPPORTED HOUSING/QUEENS - COMM. SVCS,,,,nysomh_mentalhealth,bd80f5363ffde68cb202c4750d8fb039,98,,
VILLA AVENUE SP/SRO,,,,nysomh_mentalhealth,50fb3bb2587a14c4e01619ab81b4d812,98,,
VOA CRESTON AVENUE,,,,nysomh_mentalhealth,2bab1b5938ed2c4d4d981c893444602a,98,,
VOA NYC DMH NY/NY I - EAST NEW YORK AVENUE SRO,,,,nysomh_mentalhealth,fe52968dbc8159474c9275a64a77b243,98,,
VOA NYC DMH NY/NY I - WEBSTER AVE SRO,,,,nysomh_mentalhealth,783a681c515666ce7b8e9ddcdba7cef7,98,,
VOA NYC DMH NY/NY I - WEST 97TH STREET SRO,,,,nysomh_mentalhealth,ed15155cea9e039d874373ec972a23e7,98,,
VOA NYC DMH NY/NY I - WEST MOUNT EDEN SRO,,,,nysomh_mentalhealth,161ec30d7516b0d21fe3ff196ba8af23,98,,
VOA NYC DMH NY/NY III - SERENITY-COMM.SVCS,,,,nysomh_mentalhealth,8d3afeacdc1e399387d288f12cc33de4,98,,
VYSE AVENUE SRO/CR,,,,nysomh_mentalhealth,444543b1f1727fe527860904326746d5,98,,
W. 141ST ST MANHATTAN - SUPP HOUSING - COMM. SVCS,,,,nysomh_mentalhealth,18c19765fa7ae69ff84a37bf029eb4eb,98,,
WALES AVENUE RESIDENCE,,,,nysomh_mentalhealth,254d9b0c005cca35edf789d29a7d5267,98,,
WASHINGTON AVENUE APARTMENTS - COMM. SVCS,,,,nysomh_mentalhealth,1b6845b0e0e2363c7f84e4c53219c5b1,98,,
WAZOBIA HOUSE SP/SRO,,,,nysomh_mentalhealth,21781aa7654bb373a5ad06facbc2788e,98,,
WEST 159TH STREET,,,,nysomh_mentalhealth,871b28d99b8f19c1c80a2d365e4d9895,98,,
WEST END TRUE COLORS II SP/SRO,,,,nysomh_mentalhealth,380dc537035d5dff632de5fc0fb531d5,98,,
WESTCHESTER AVENUE COMMUNITY RESIDENCE,,,,nysomh_mentalhealth,a57a8ebf239c356a4bb4d210fabbc696,98,,
WESTON UNITED - BISHOP HOUSE,,,,nysomh_mentalhealth,83a845f92115efc27df0b7f8bfb4fee6,98,,
WESTON UNITED - WESTON HOUSE,,,,nysomh_mentalhealth,e3e07952fb1aeeca72552dd00c77707c,98,,
WESTON UNITED SUPP HOUSING/NY NY III MANHATTAN-COMM SVCS,,,,nysomh_mentalhealth,8728a4ff10ee363b59d4dbd6e10648ac,98,,
WHITE PLAINS ROAD CR/SRO,,,,nysomh_mentalhealth,50c185a9b0b8d1e9c73a0bac34c83d4d,98,,
WSFSH - SUPPORTED HOUSING/74TH STREET - COMM. SVCS,,,,nysomh_mentalhealth,04d69b3fffdea818d807244abdce131c,98,,
WSFSH - VALLEY LODGE/SUPPORTED HOUSING - COMM. SVCS,,,,nysomh_mentalhealth,c0564d8211e665478d4f8925a0a46d8d,98,,
WSFSH NYC DMH NY/NY I - THE EUCLID SRO,,,,nysomh_mentalhealth,22e4c4e1bda71fe5b9c62e33b99655f7,98,,
YOUNG ADULT APARTMENTS AT MARKUS GARDENS,,,,nysomh_mentalhealth,31cf90a6aa1432ca25049609d817a8dc,98,,
HAITIAN AMERICANS U.F.P. INC.,197-17,HILSIDE AVENUE,197-17 HILSIDE AVENUE,nysopwdd_providers,3d9a43233bc7adc4732733cf88dd6d47,EE,EE,A
HAND IN HAND FAMILY SERVICES  LTD.,,6214-24 AVENUE,6214-24 AVENUE,nysopwdd_providers,1ad769884b469faea1b2922c776fd780,11,11,
LEXINGTON CENTER  INC.,,AVENUE AND 75 STREET,30TH AVENUE AND 75TH STREET,nysopwdd_providers,303c063942aad6edb9b6fe59c3fc6118,EE,EE,A
LEXINGTON VOCATIONAL SERVICES CTR  INC,,AVENUE AND 75 STREET,30TH AVENUE AND 75TH STREET,nysopwdd_providers,9fe3958a59f0efd16a5a5e3a9ee0b9e6,EE,EE,A
MEANINGFUL NY INITIATVES PPL W/DISAB INC,1,PIERREPOINT PLAZA,1 PIERREPOINT PLAZA,nysopwdd_providers,aade1accdd8ce14184b4dcc71b12ccae,EE,EE,A
NEW HORIZON COUNSELING CENTER INC.,,BEACH 20 STREET,718-720 BEACH 20TH STREET,nysopwdd_providers,396b769c7ae22194da0d04bd3b403d69,13,13,8
QUEENSBRIDGE,,,NOW A FAMILY LITERACY CENTER,qpl_libraries,f2b9eaaee4c2090773e6ed39aa49b248,16,16,
RAVENSWOOD,,,NOW A FAMILY LITERACY CENTER,qpl_libraries,e517c930bb757fd0f277f5ac1f38da3e,16,16,
ONE PIERREPONT PLAZA,,,300 CADMAN PLAZA WEST,uscourts_courts,2d14e511d1a086b98937de55729bf254,16,16,
